{
"type": "FeatureCollection",
"name": "Gnodes",
"crs": { "type": "name", "properties": { "name": "urn:ogc:def:crs:OGC:1.3:CRS84" } },
"features": [
{ "type": "Feature", "properties": { "osmid": 411228999, "y": 33.4707002, "x": 133.5055828, "street_count": 3, "highway": null }, "geometry": { "type": "Point", "coordinates": [ 133.505582800000013, 33.4707002 ] } },
{ "type": "Feature", "properties": { "osmid": 769146641, "y": 33.4836303, "x": 133.5141461, "street_count": 3, "highway": null }, "geometry": { "type": "Point", "coordinates": [ 133.5141461, 33.4836303 ] } },
{ "type": "Feature", "properties": { "osmid": 769146694, "y": 33.4814094, "x": 133.5145761, "street_count": 3, "highway": null }, "geometry": { "type": "Point", "coordinates": [ 133.5145761, 33.4814094 ] } },
{ "type": "Feature", "properties": { "osmid": 769146785, "y": 33.4834009, "x": 133.5177262, "street_count": 4, "highway": null }, "geometry": { "type": "Point", "coordinates": [ 133.5177262, 33.4834009 ] } },
{ "type": "Feature", "properties": { "osmid": 769146839, "y": 33.48381, "x": 133.5140832, "street_count": 3, "highway": null }, "geometry": { "type": "Point", "coordinates": [ 133.514083199999988, 33.48381 ] } },
{ "type": "Feature", "properties": { "osmid": 769146927, "y": 33.4818301, "x": 133.5159394, "street_count": 4, "highway": null }, "geometry": { "type": "Point", "coordinates": [ 133.5159394, 33.4818301 ] } },
{ "type": "Feature", "properties": { "osmid": 769147471, "y": 33.4793285, "x": 133.5225406, "street_count": 3, "highway": "traffic_signals" }, "geometry": { "type": "Point", "coordinates": [ 133.522540600000013, 33.4793285 ] } },
{ "type": "Feature", "properties": { "osmid": 1272063300, "y": 33.4696266, "x": 133.5036186, "street_count": 3, "highway": null }, "geometry": { "type": "Point", "coordinates": [ 133.50361860000001, 33.4696266 ] } },
{ "type": "Feature", "properties": { "osmid": 1431444663, "y": 33.4887344, "x": 133.5186484, "street_count": 4, "highway": "traffic_signals" }, "geometry": { "type": "Point", "coordinates": [ 133.518648399999989, 33.4887344 ] } },
{ "type": "Feature", "properties": { "osmid": 1431444670, "y": 33.4888277, "x": 133.5173704, "street_count": 3, "highway": null }, "geometry": { "type": "Point", "coordinates": [ 133.5173704, 33.4888277 ] } },
{ "type": "Feature", "properties": { "osmid": 1431444678, "y": 33.4889264, "x": 133.5203662, "street_count": 3, "highway": null }, "geometry": { "type": "Point", "coordinates": [ 133.520366200000012, 33.4889264 ] } },
{ "type": "Feature", "properties": { "osmid": 1431444710, "y": 33.4892221, "x": 133.5242326, "street_count": 3, "highway": null }, "geometry": { "type": "Point", "coordinates": [ 133.5242326, 33.4892221 ] } },
{ "type": "Feature", "properties": { "osmid": 1431444724, "y": 33.4897274, "x": 133.5247133, "street_count": 3, "highway": null }, "geometry": { "type": "Point", "coordinates": [ 133.5247133, 33.4897274 ] } },
{ "type": "Feature", "properties": { "osmid": 1431984524, "y": 33.4832907, "x": 133.5331005, "street_count": 3, "highway": "crossing" }, "geometry": { "type": "Point", "coordinates": [ 133.533100499999989, 33.4832907 ] } },
{ "type": "Feature", "properties": { "osmid": 1431984526, "y": 33.4839602, "x": 133.5350136, "street_count": 3, "highway": null }, "geometry": { "type": "Point", "coordinates": [ 133.535013600000013, 33.4839602 ] } },
{ "type": "Feature", "properties": { "osmid": 1431984587, "y": 33.4917042, "x": 133.5190083, "street_count": 4, "highway": "crossing" }, "geometry": { "type": "Point", "coordinates": [ 133.5190083, 33.4917042 ] } },
{ "type": "Feature", "properties": { "osmid": 1557769647, "y": 33.4713835, "x": 133.5065327, "street_count": 4, "highway": null }, "geometry": { "type": "Point", "coordinates": [ 133.5065327, 33.4713835 ] } },
{ "type": "Feature", "properties": { "osmid": 1557769720, "y": 33.4726555, "x": 133.5082935, "street_count": 3, "highway": null }, "geometry": { "type": "Point", "coordinates": [ 133.5082935, 33.4726555 ] } },
{ "type": "Feature", "properties": { "osmid": 1557769750, "y": 33.4736019, "x": 133.5079122, "street_count": 3, "highway": null }, "geometry": { "type": "Point", "coordinates": [ 133.5079122, 33.4736019 ] } },
{ "type": "Feature", "properties": { "osmid": 1557769813, "y": 33.4764717, "x": 133.5156274, "street_count": 3, "highway": null }, "geometry": { "type": "Point", "coordinates": [ 133.5156274, 33.4764717 ] } },
{ "type": "Feature", "properties": { "osmid": 1557769822, "y": 33.4770973, "x": 133.5153806, "street_count": 3, "highway": null }, "geometry": { "type": "Point", "coordinates": [ 133.515380599999986, 33.4770973 ] } },
{ "type": "Feature", "properties": { "osmid": 1557769833, "y": 33.4773668, "x": 133.5117696, "street_count": 3, "highway": null }, "geometry": { "type": "Point", "coordinates": [ 133.5117696, 33.4773668 ] } },
{ "type": "Feature", "properties": { "osmid": 1557769842, "y": 33.477565, "x": 133.5181034, "street_count": 3, "highway": null }, "geometry": { "type": "Point", "coordinates": [ 133.5181034, 33.477565 ] } },
{ "type": "Feature", "properties": { "osmid": 1557769859, "y": 33.47785, "x": 133.5178166, "street_count": 3, "highway": null }, "geometry": { "type": "Point", "coordinates": [ 133.5178166, 33.47785 ] } },
{ "type": "Feature", "properties": { "osmid": 1557769862, "y": 33.4781451, "x": 133.5148405, "street_count": 3, "highway": null }, "geometry": { "type": "Point", "coordinates": [ 133.5148405, 33.4781451 ] } },
{ "type": "Feature", "properties": { "osmid": 1557769878, "y": 33.4781654, "x": 133.5140081, "street_count": 3, "highway": null }, "geometry": { "type": "Point", "coordinates": [ 133.514008100000012, 33.4781654 ] } },
{ "type": "Feature", "properties": { "osmid": 1557769894, "y": 33.4790183, "x": 133.5176261, "street_count": 3, "highway": null }, "geometry": { "type": "Point", "coordinates": [ 133.5176261, 33.4790183 ] } },
{ "type": "Feature", "properties": { "osmid": 1557769908, "y": 33.4781852, "x": 133.5150558, "street_count": 3, "highway": null }, "geometry": { "type": "Point", "coordinates": [ 133.5150558, 33.4781852 ] } },
{ "type": "Feature", "properties": { "osmid": 1557769914, "y": 33.4795143, "x": 133.5174269, "street_count": 3, "highway": null }, "geometry": { "type": "Point", "coordinates": [ 133.5174269, 33.4795143 ] } },
{ "type": "Feature", "properties": { "osmid": 1557769919, "y": 33.4799897, "x": 133.5191759, "street_count": 3, "highway": null }, "geometry": { "type": "Point", "coordinates": [ 133.5191759, 33.4799897 ] } },
{ "type": "Feature", "properties": { "osmid": 1557769925, "y": 33.479807, "x": 133.520397, "street_count": 1, "highway": null }, "geometry": { "type": "Point", "coordinates": [ 133.520397, 33.479807 ] } },
{ "type": "Feature", "properties": { "osmid": 1557769931, "y": 33.4800732, "x": 133.5242149, "street_count": 3, "highway": null }, "geometry": { "type": "Point", "coordinates": [ 133.5242149, 33.4800732 ] } },
{ "type": "Feature", "properties": { "osmid": 1557769933, "y": 33.4802452, "x": 133.5221497, "street_count": 4, "highway": null }, "geometry": { "type": "Point", "coordinates": [ 133.5221497, 33.4802452 ] } },
{ "type": "Feature", "properties": { "osmid": 1557769962, "y": 33.4811065, "x": 133.5269729, "street_count": 3, "highway": null }, "geometry": { "type": "Point", "coordinates": [ 133.5269729, 33.4811065 ] } },
{ "type": "Feature", "properties": { "osmid": 1557769964, "y": 33.4811301, "x": 133.5217819, "street_count": 3, "highway": null }, "geometry": { "type": "Point", "coordinates": [ 133.5217819, 33.4811301 ] } },
{ "type": "Feature", "properties": { "osmid": 1557769978, "y": 33.4813287, "x": 133.5238889, "street_count": 3, "highway": null }, "geometry": { "type": "Point", "coordinates": [ 133.5238889, 33.4813287 ] } },
{ "type": "Feature", "properties": { "osmid": 1557769982, "y": 33.4813064, "x": 133.5234755, "street_count": 3, "highway": null }, "geometry": { "type": "Point", "coordinates": [ 133.523475499999989, 33.4813064 ] } },
{ "type": "Feature", "properties": { "osmid": 1557769992, "y": 33.4815867, "x": 133.5215917, "street_count": 3, "highway": null }, "geometry": { "type": "Point", "coordinates": [ 133.521591699999988, 33.4815867 ] } },
{ "type": "Feature", "properties": { "osmid": 1557769999, "y": 33.4817315, "x": 133.5286542, "street_count": 3, "highway": null }, "geometry": { "type": "Point", "coordinates": [ 133.5286542, 33.4817315 ] } },
{ "type": "Feature", "properties": { "osmid": 1557770008, "y": 33.4820883, "x": 133.5233326, "street_count": 3, "highway": null }, "geometry": { "type": "Point", "coordinates": [ 133.5233326, 33.4820883 ] } },
{ "type": "Feature", "properties": { "osmid": 1557770017, "y": 33.4823163, "x": 133.5265463, "street_count": 4, "highway": null }, "geometry": { "type": "Point", "coordinates": [ 133.5265463, 33.4823163 ] } },
{ "type": "Feature", "properties": { "osmid": 1557770033, "y": 33.4822891, "x": 133.5301415, "street_count": 3, "highway": null }, "geometry": { "type": "Point", "coordinates": [ 133.530141500000013, 33.4822891 ] } },
{ "type": "Feature", "properties": { "osmid": 1557770047, "y": 33.4820978, "x": 133.521381, "street_count": 3, "highway": null }, "geometry": { "type": "Point", "coordinates": [ 133.521381, 33.4820978 ] } },
{ "type": "Feature", "properties": { "osmid": 1557770048, "y": 33.4826064, "x": 133.5248437, "street_count": 3, "highway": null }, "geometry": { "type": "Point", "coordinates": [ 133.5248437, 33.4826064 ] } },
{ "type": "Feature", "properties": { "osmid": 1557770055, "y": 33.4826661, "x": 133.5250566, "street_count": 3, "highway": null }, "geometry": { "type": "Point", "coordinates": [ 133.5250566, 33.4826661 ] } },
{ "type": "Feature", "properties": { "osmid": 1557770062, "y": 33.4819313, "x": 133.525406, "street_count": 3, "highway": null }, "geometry": { "type": "Point", "coordinates": [ 133.525406, 33.4819313 ] } },
{ "type": "Feature", "properties": { "osmid": 1557770075, "y": 33.482851, "x": 133.5281454, "street_count": 4, "highway": null }, "geometry": { "type": "Point", "coordinates": [ 133.5281454, 33.482851 ] } },
{ "type": "Feature", "properties": { "osmid": 1557770076, "y": 33.482787, "x": 133.5314729, "street_count": 3, "highway": null }, "geometry": { "type": "Point", "coordinates": [ 133.531472900000011, 33.482787 ] } },
{ "type": "Feature", "properties": { "osmid": 1557770078, "y": 33.4827669, "x": 133.5168809, "street_count": 4, "highway": null }, "geometry": { "type": "Point", "coordinates": [ 133.5168809, 33.4827669 ] } },
{ "type": "Feature", "properties": { "osmid": 1557770084, "y": 33.4829894, "x": 133.524746, "street_count": 3, "highway": null }, "geometry": { "type": "Point", "coordinates": [ 133.524746, 33.4829894 ] } },
{ "type": "Feature", "properties": { "osmid": 1557770094, "y": 33.4831349, "x": 133.5209374, "street_count": 3, "highway": null }, "geometry": { "type": "Point", "coordinates": [ 133.5209374, 33.4831349 ] } },
{ "type": "Feature", "properties": { "osmid": 1557770097, "y": 33.4831659, "x": 133.5271722, "street_count": 3, "highway": null }, "geometry": { "type": "Point", "coordinates": [ 133.5271722, 33.4831659 ] } },
{ "type": "Feature", "properties": { "osmid": 1557770098, "y": 33.4832661, "x": 133.5273272, "street_count": 3, "highway": null }, "geometry": { "type": "Point", "coordinates": [ 133.5273272, 33.4832661 ] } },
{ "type": "Feature", "properties": { "osmid": 1557770099, "y": 33.4833421, "x": 133.5277577, "street_count": 4, "highway": null }, "geometry": { "type": "Point", "coordinates": [ 133.5277577, 33.4833421 ] } },
{ "type": "Feature", "properties": { "osmid": 1557770102, "y": 33.4832548, "x": 133.5275537, "street_count": 3, "highway": null }, "geometry": { "type": "Point", "coordinates": [ 133.5275537, 33.4832548 ] } },
{ "type": "Feature", "properties": { "osmid": 1557770110, "y": 33.4833642, "x": 133.5297114, "street_count": 3, "highway": null }, "geometry": { "type": "Point", "coordinates": [ 133.5297114, 33.4833642 ] } },
{ "type": "Feature", "properties": { "osmid": 1557770112, "y": 33.4832792, "x": 133.5264319, "street_count": 3, "highway": null }, "geometry": { "type": "Point", "coordinates": [ 133.5264319, 33.4832792 ] } },
{ "type": "Feature", "properties": { "osmid": 1557770123, "y": 33.4835212, "x": 133.5301702, "street_count": 3, "highway": null }, "geometry": { "type": "Point", "coordinates": [ 133.530170199999986, 33.4835212 ] } },
{ "type": "Feature", "properties": { "osmid": 1557770126, "y": 33.4834449, "x": 133.5219672, "street_count": 1, "highway": null }, "geometry": { "type": "Point", "coordinates": [ 133.5219672, 33.4834449 ] } },
{ "type": "Feature", "properties": { "osmid": 1557770129, "y": 33.4836237, "x": 133.5305173, "street_count": 3, "highway": null }, "geometry": { "type": "Point", "coordinates": [ 133.530517300000014, 33.4836237 ] } },
{ "type": "Feature", "properties": { "osmid": 1557770136, "y": 33.4836027, "x": 133.5275468, "street_count": 3, "highway": null }, "geometry": { "type": "Point", "coordinates": [ 133.52754680000001, 33.4836027 ] } },
{ "type": "Feature", "properties": { "osmid": 1557770142, "y": 33.4837273, "x": 133.5311035, "street_count": 4, "highway": null }, "geometry": { "type": "Point", "coordinates": [ 133.5311035, 33.4837273 ] } },
{ "type": "Feature", "properties": { "osmid": 1557770149, "y": 33.4837677, "x": 133.5329705, "street_count": 4, "highway": null }, "geometry": { "type": "Point", "coordinates": [ 133.5329705, 33.4837677 ] } },
{ "type": "Feature", "properties": { "osmid": 1557770158, "y": 33.4838867, "x": 133.5323796, "street_count": 3, "highway": null }, "geometry": { "type": "Point", "coordinates": [ 133.532379600000013, 33.4838867 ] } },
{ "type": "Feature", "properties": { "osmid": 1557770166, "y": 33.4838792, "x": 133.5153529, "street_count": 1, "highway": null }, "geometry": { "type": "Point", "coordinates": [ 133.515352900000011, 33.4838792 ] } },
{ "type": "Feature", "properties": { "osmid": 1557770186, "y": 33.4841745, "x": 133.5137392, "street_count": 3, "highway": null }, "geometry": { "type": "Point", "coordinates": [ 133.5137392, 33.4841745 ] } },
{ "type": "Feature", "properties": { "osmid": 1557770216, "y": 33.4844447, "x": 133.5308315, "street_count": 3, "highway": null }, "geometry": { "type": "Point", "coordinates": [ 133.5308315, 33.4844447 ] } },
{ "type": "Feature", "properties": { "osmid": 1557770233, "y": 33.4846356, "x": 133.5328914, "street_count": 3, "highway": null }, "geometry": { "type": "Point", "coordinates": [ 133.532891400000011, 33.4846356 ] } },
{ "type": "Feature", "properties": { "osmid": 1557770257, "y": 33.4847665, "x": 133.5142982, "street_count": 3, "highway": null }, "geometry": { "type": "Point", "coordinates": [ 133.514298200000013, 33.4847665 ] } },
{ "type": "Feature", "properties": { "osmid": 1557770282, "y": 33.4849627, "x": 133.5177004, "street_count": 3, "highway": null }, "geometry": { "type": "Point", "coordinates": [ 133.5177004, 33.4849627 ] } },
{ "type": "Feature", "properties": { "osmid": 1557770283, "y": 33.485154, "x": 133.5307154, "street_count": 3, "highway": null }, "geometry": { "type": "Point", "coordinates": [ 133.5307154, 33.485154 ] } },
{ "type": "Feature", "properties": { "osmid": 1557770294, "y": 33.485186, "x": 133.525593, "street_count": 3, "highway": null }, "geometry": { "type": "Point", "coordinates": [ 133.525593, 33.485186 ] } },
{ "type": "Feature", "properties": { "osmid": 1557770296, "y": 33.4855149, "x": 133.5144979, "street_count": 3, "highway": null }, "geometry": { "type": "Point", "coordinates": [ 133.5144979, 33.4855149 ] } },
{ "type": "Feature", "properties": { "osmid": 1557770306, "y": 33.4853475, "x": 133.5321586, "street_count": 4, "highway": null }, "geometry": { "type": "Point", "coordinates": [ 133.5321586, 33.4853475 ] } },
{ "type": "Feature", "properties": { "osmid": 1557770308, "y": 33.4853177, "x": 133.5299567, "street_count": 3, "highway": null }, "geometry": { "type": "Point", "coordinates": [ 133.529956700000014, 33.4853177 ] } },
{ "type": "Feature", "properties": { "osmid": 1557770310, "y": 33.4855464, "x": 133.5145095, "street_count": 3, "highway": null }, "geometry": { "type": "Point", "coordinates": [ 133.5145095, 33.4855464 ] } },
{ "type": "Feature", "properties": { "osmid": 1557770325, "y": 33.4854132, "x": 133.5330731, "street_count": 3, "highway": null }, "geometry": { "type": "Point", "coordinates": [ 133.5330731, 33.4854132 ] } },
{ "type": "Feature", "properties": { "osmid": 1557770330, "y": 33.4854861, "x": 133.5149633, "street_count": 3, "highway": null }, "geometry": { "type": "Point", "coordinates": [ 133.5149633, 33.4854861 ] } },
{ "type": "Feature", "properties": { "osmid": 1557770379, "y": 33.4856995, "x": 133.5249972, "street_count": 3, "highway": null }, "geometry": { "type": "Point", "coordinates": [ 133.5249972, 33.4856995 ] } },
{ "type": "Feature", "properties": { "osmid": 1557770388, "y": 33.4857402, "x": 133.5198634, "street_count": 4, "highway": null }, "geometry": { "type": "Point", "coordinates": [ 133.5198634, 33.4857402 ] } },
{ "type": "Feature", "properties": { "osmid": 1557770406, "y": 33.485888, "x": 133.515248, "street_count": 3, "highway": null }, "geometry": { "type": "Point", "coordinates": [ 133.515248, 33.485888 ] } },
{ "type": "Feature", "properties": { "osmid": 1557770444, "y": 33.4864541, "x": 133.531951, "street_count": 4, "highway": null }, "geometry": { "type": "Point", "coordinates": [ 133.531951, 33.4864541 ] } },
{ "type": "Feature", "properties": { "osmid": 1557770448, "y": 33.4861663, "x": 133.5298816, "street_count": 3, "highway": null }, "geometry": { "type": "Point", "coordinates": [ 133.52988160000001, 33.4861663 ] } },
{ "type": "Feature", "properties": { "osmid": 1557770451, "y": 33.4862553, "x": 133.5305339, "street_count": 4, "highway": null }, "geometry": { "type": "Point", "coordinates": [ 133.5305339, 33.4862553 ] } },
{ "type": "Feature", "properties": { "osmid": 1557770461, "y": 33.4862873, "x": 133.5242999, "street_count": 3, "highway": null }, "geometry": { "type": "Point", "coordinates": [ 133.524299899999988, 33.4862873 ] } },
{ "type": "Feature", "properties": { "osmid": 1557770470, "y": 33.4863279, "x": 133.5125065, "street_count": 3, "highway": null }, "geometry": { "type": "Point", "coordinates": [ 133.5125065, 33.4863279 ] } },
{ "type": "Feature", "properties": { "osmid": 1557770486, "y": 33.4867055, "x": 133.5339675, "street_count": 3, "highway": null }, "geometry": { "type": "Point", "coordinates": [ 133.533967499999989, 33.4867055 ] } },
{ "type": "Feature", "properties": { "osmid": 1557770493, "y": 33.4866855, "x": 133.5293555, "street_count": 4, "highway": null }, "geometry": { "type": "Point", "coordinates": [ 133.5293555, 33.4866855 ] } },
{ "type": "Feature", "properties": { "osmid": 1557770499, "y": 33.4867271, "x": 133.5179828, "street_count": 3, "highway": null }, "geometry": { "type": "Point", "coordinates": [ 133.5179828, 33.4867271 ] } },
{ "type": "Feature", "properties": { "osmid": 1557770505, "y": 33.4868227, "x": 133.5236118, "street_count": 4, "highway": null }, "geometry": { "type": "Point", "coordinates": [ 133.5236118, 33.4868227 ] } },
{ "type": "Feature", "properties": { "osmid": 1557770506, "y": 33.4868378, "x": 133.5194107, "street_count": 3, "highway": null }, "geometry": { "type": "Point", "coordinates": [ 133.5194107, 33.4868378 ] } },
{ "type": "Feature", "properties": { "osmid": 1557770508, "y": 33.4867419, "x": 133.5159237, "street_count": 3, "highway": null }, "geometry": { "type": "Point", "coordinates": [ 133.5159237, 33.4867419 ] } },
{ "type": "Feature", "properties": { "osmid": 1557770530, "y": 33.4870936, "x": 133.5290318, "street_count": 3, "highway": null }, "geometry": { "type": "Point", "coordinates": [ 133.529031800000013, 33.4870936 ] } },
{ "type": "Feature", "properties": { "osmid": 1557770537, "y": 33.4870757, "x": 133.5130217, "street_count": 4, "highway": null }, "geometry": { "type": "Point", "coordinates": [ 133.5130217, 33.4870757 ] } },
{ "type": "Feature", "properties": { "osmid": 1557770551, "y": 33.4871059, "x": 133.5192938, "street_count": 3, "highway": null }, "geometry": { "type": "Point", "coordinates": [ 133.519293800000014, 33.4871059 ] } },
{ "type": "Feature", "properties": { "osmid": 1557770552, "y": 33.4871971, "x": 133.5177462, "street_count": 3, "highway": null }, "geometry": { "type": "Point", "coordinates": [ 133.5177462, 33.4871971 ] } },
{ "type": "Feature", "properties": { "osmid": 1557770557, "y": 33.4872031, "x": 133.5292279, "street_count": 4, "highway": null }, "geometry": { "type": "Point", "coordinates": [ 133.5292279, 33.4872031 ] } },
{ "type": "Feature", "properties": { "osmid": 1557770570, "y": 33.4872776, "x": 133.5267846, "street_count": 3, "highway": null }, "geometry": { "type": "Point", "coordinates": [ 133.526784600000013, 33.4872776 ] } },
{ "type": "Feature", "properties": { "osmid": 1557770572, "y": 33.4875711, "x": 133.5317511, "street_count": 4, "highway": null }, "geometry": { "type": "Point", "coordinates": [ 133.5317511, 33.4875711 ] } },
{ "type": "Feature", "properties": { "osmid": 1557770575, "y": 33.487341, "x": 133.530331, "street_count": 4, "highway": null }, "geometry": { "type": "Point", "coordinates": [ 133.530331, 33.487341 ] } },
{ "type": "Feature", "properties": { "osmid": 1557770594, "y": 33.4874498, "x": 133.5227615, "street_count": 3, "highway": null }, "geometry": { "type": "Point", "coordinates": [ 133.5227615, 33.4874498 ] } },
{ "type": "Feature", "properties": { "osmid": 1557770625, "y": 33.4877096, "x": 133.5134762, "street_count": 3, "highway": null }, "geometry": { "type": "Point", "coordinates": [ 133.513476200000014, 33.4877096 ] } },
{ "type": "Feature", "properties": { "osmid": 1557770639, "y": 33.4877391, "x": 133.5223659, "street_count": 3, "highway": null }, "geometry": { "type": "Point", "coordinates": [ 133.522365900000011, 33.4877391 ] } },
{ "type": "Feature", "properties": { "osmid": 1557770644, "y": 33.487838, "x": 133.534121, "street_count": 3, "highway": null }, "geometry": { "type": "Point", "coordinates": [ 133.534121, 33.487838 ] } },
{ "type": "Feature", "properties": { "osmid": 1557770659, "y": 33.4879454, "x": 133.5284717, "street_count": 3, "highway": null }, "geometry": { "type": "Point", "coordinates": [ 133.528471700000011, 33.4879454 ] } },
{ "type": "Feature", "properties": { "osmid": 1557770669, "y": 33.4880739, "x": 133.5219373, "street_count": 3, "highway": null }, "geometry": { "type": "Point", "coordinates": [ 133.5219373, 33.4880739 ] } },
{ "type": "Feature", "properties": { "osmid": 1557770671, "y": 33.4879863, "x": 133.5248805, "street_count": 3, "highway": null }, "geometry": { "type": "Point", "coordinates": [ 133.5248805, 33.4879863 ] } },
{ "type": "Feature", "properties": { "osmid": 1557770704, "y": 33.4884198, "x": 133.5261288, "street_count": 3, "highway": null }, "geometry": { "type": "Point", "coordinates": [ 133.5261288, 33.4884198 ] } },
{ "type": "Feature", "properties": { "osmid": 1557770708, "y": 33.4883196, "x": 133.5285131, "street_count": 3, "highway": null }, "geometry": { "type": "Point", "coordinates": [ 133.5285131, 33.4883196 ] } },
{ "type": "Feature", "properties": { "osmid": 1557770731, "y": 33.4883066, "x": 133.5140154, "street_count": 3, "highway": null }, "geometry": { "type": "Point", "coordinates": [ 133.5140154, 33.4883066 ] } },
{ "type": "Feature", "properties": { "osmid": 1557770740, "y": 33.4884969, "x": 133.5301236, "street_count": 4, "highway": null }, "geometry": { "type": "Point", "coordinates": [ 133.5301236, 33.4884969 ] } },
{ "type": "Feature", "properties": { "osmid": 1557770760, "y": 33.488686, "x": 133.5315338, "street_count": 4, "highway": null }, "geometry": { "type": "Point", "coordinates": [ 133.5315338, 33.488686 ] } },
{ "type": "Feature", "properties": { "osmid": 1557770764, "y": 33.4886282, "x": 133.5240354, "street_count": 3, "highway": null }, "geometry": { "type": "Point", "coordinates": [ 133.5240354, 33.4886282 ] } },
{ "type": "Feature", "properties": { "osmid": 1557770768, "y": 33.4887277, "x": 133.5091196, "street_count": 3, "highway": null }, "geometry": { "type": "Point", "coordinates": [ 133.5091196, 33.4887277 ] } },
{ "type": "Feature", "properties": { "osmid": 1557770771, "y": 33.4888713, "x": 133.5269475, "street_count": 3, "highway": null }, "geometry": { "type": "Point", "coordinates": [ 133.5269475, 33.4888713 ] } },
{ "type": "Feature", "properties": { "osmid": 1557770778, "y": 33.4886967, "x": 133.5256528, "street_count": 4, "highway": null }, "geometry": { "type": "Point", "coordinates": [ 133.525652799999989, 33.4886967 ] } },
{ "type": "Feature", "properties": { "osmid": 1557770784, "y": 33.4887866, "x": 133.5092095, "street_count": 3, "highway": null }, "geometry": { "type": "Point", "coordinates": [ 133.5092095, 33.4887866 ] } },
{ "type": "Feature", "properties": { "osmid": 1557770791, "y": 33.4888167, "x": 133.5174021, "street_count": 3, "highway": null }, "geometry": { "type": "Point", "coordinates": [ 133.5174021, 33.4888167 ] } },
{ "type": "Feature", "properties": { "osmid": 1557770804, "y": 33.4889498, "x": 133.5340493, "street_count": 3, "highway": null }, "geometry": { "type": "Point", "coordinates": [ 133.5340493, 33.4889498 ] } },
{ "type": "Feature", "properties": { "osmid": 1557770806, "y": 33.4890311, "x": 133.5279465, "street_count": 3, "highway": null }, "geometry": { "type": "Point", "coordinates": [ 133.527946500000013, 33.4890311 ] } },
{ "type": "Feature", "properties": { "osmid": 1557770810, "y": 33.4889942, "x": 133.5113893, "street_count": 3, "highway": null }, "geometry": { "type": "Point", "coordinates": [ 133.5113893, 33.4889942 ] } },
{ "type": "Feature", "properties": { "osmid": 1557770811, "y": 33.4890451, "x": 133.5093832, "street_count": 3, "highway": null }, "geometry": { "type": "Point", "coordinates": [ 133.5093832, 33.4890451 ] } },
{ "type": "Feature", "properties": { "osmid": 1557770813, "y": 33.4889838, "x": 133.5228954, "street_count": 1, "highway": null }, "geometry": { "type": "Point", "coordinates": [ 133.52289540000001, 33.4889838 ] } },
{ "type": "Feature", "properties": { "osmid": 1557770822, "y": 33.4889727, "x": 133.5208839, "street_count": 3, "highway": null }, "geometry": { "type": "Point", "coordinates": [ 133.5208839, 33.4889727 ] } },
{ "type": "Feature", "properties": { "osmid": 1557770827, "y": 33.4890304, "x": 133.5238035, "street_count": 3, "highway": null }, "geometry": { "type": "Point", "coordinates": [ 133.523803500000014, 33.4890304 ] } },
{ "type": "Feature", "properties": { "osmid": 1557770847, "y": 33.4891573, "x": 133.5110993, "street_count": 3, "highway": null }, "geometry": { "type": "Point", "coordinates": [ 133.511099300000012, 33.4891573 ] } },
{ "type": "Feature", "properties": { "osmid": 1557770848, "y": 33.4892184, "x": 133.509521, "street_count": 3, "highway": null }, "geometry": { "type": "Point", "coordinates": [ 133.509521, 33.4892184 ] } },
{ "type": "Feature", "properties": { "osmid": 1557770850, "y": 33.4889238, "x": 133.5126194, "street_count": 3, "highway": null }, "geometry": { "type": "Point", "coordinates": [ 133.5126194, 33.4889238 ] } },
{ "type": "Feature", "properties": { "osmid": 1557770854, "y": 33.4891808, "x": 133.5165932, "street_count": 3, "highway": null }, "geometry": { "type": "Point", "coordinates": [ 133.516593199999988, 33.4891808 ] } },
{ "type": "Feature", "properties": { "osmid": 1557770863, "y": 33.489253, "x": 133.526673, "street_count": 4, "highway": null }, "geometry": { "type": "Point", "coordinates": [ 133.526673, 33.489253 ] } },
{ "type": "Feature", "properties": { "osmid": 1557770870, "y": 33.4893458, "x": 133.5145657, "street_count": 3, "highway": null }, "geometry": { "type": "Point", "coordinates": [ 133.5145657, 33.4893458 ] } },
{ "type": "Feature", "properties": { "osmid": 1557770894, "y": 33.4893794, "x": 133.5248646, "street_count": 3, "highway": null }, "geometry": { "type": "Point", "coordinates": [ 133.5248646, 33.4893794 ] } },
{ "type": "Feature", "properties": { "osmid": 1557770897, "y": 33.4894729, "x": 133.5280298, "street_count": 3, "highway": null }, "geometry": { "type": "Point", "coordinates": [ 133.528029800000013, 33.4894729 ] } },
{ "type": "Feature", "properties": { "osmid": 1557770903, "y": 33.4895544, "x": 133.5147418, "street_count": 3, "highway": null }, "geometry": { "type": "Point", "coordinates": [ 133.5147418, 33.4895544 ] } },
{ "type": "Feature", "properties": { "osmid": 1557770906, "y": 33.4894566, "x": 133.5218979, "street_count": 3, "highway": null }, "geometry": { "type": "Point", "coordinates": [ 133.5218979, 33.4894566 ] } },
{ "type": "Feature", "properties": { "osmid": 1557770947, "y": 33.4897484, "x": 133.529866, "street_count": 4, "highway": null }, "geometry": { "type": "Point", "coordinates": [ 133.529866, 33.4897484 ] } },
{ "type": "Feature", "properties": { "osmid": 1557770953, "y": 33.4896729, "x": 133.5155949, "street_count": 3, "highway": null }, "geometry": { "type": "Point", "coordinates": [ 133.5155949, 33.4896729 ] } },
{ "type": "Feature", "properties": { "osmid": 1557770979, "y": 33.4897852, "x": 133.5277096, "street_count": 3, "highway": null }, "geometry": { "type": "Point", "coordinates": [ 133.5277096, 33.4897852 ] } },
{ "type": "Feature", "properties": { "osmid": 1557770986, "y": 33.4899256, "x": 133.5313213, "street_count": 4, "highway": null }, "geometry": { "type": "Point", "coordinates": [ 133.5313213, 33.4899256 ] } },
{ "type": "Feature", "properties": { "osmid": 1557770991, "y": 33.4899756, "x": 133.5205743, "street_count": 3, "highway": null }, "geometry": { "type": "Point", "coordinates": [ 133.5205743, 33.4899756 ] } },
{ "type": "Feature", "properties": { "osmid": 1557771003, "y": 33.4899136, "x": 133.5205567, "street_count": 3, "highway": null }, "geometry": { "type": "Point", "coordinates": [ 133.520556699999986, 33.4899136 ] } },
{ "type": "Feature", "properties": { "osmid": 1557771018, "y": 33.4899929, "x": 133.509278, "street_count": 3, "highway": null }, "geometry": { "type": "Point", "coordinates": [ 133.509278, 33.4899929 ] } },
{ "type": "Feature", "properties": { "osmid": 1557771021, "y": 33.489926, "x": 133.5151297, "street_count": 3, "highway": null }, "geometry": { "type": "Point", "coordinates": [ 133.515129699999989, 33.489926 ] } },
{ "type": "Feature", "properties": { "osmid": 1557771030, "y": 33.4899864, "x": 133.5184479, "street_count": 3, "highway": null }, "geometry": { "type": "Point", "coordinates": [ 133.518447900000012, 33.4899864 ] } },
{ "type": "Feature", "properties": { "osmid": 1557771041, "y": 33.490031, "x": 133.526095, "street_count": 4, "highway": null }, "geometry": { "type": "Point", "coordinates": [ 133.526095, 33.490031 ] } },
{ "type": "Feature", "properties": { "osmid": 1557771047, "y": 33.4900749, "x": 133.519105, "street_count": 3, "highway": null }, "geometry": { "type": "Point", "coordinates": [ 133.519105, 33.4900749 ] } },
{ "type": "Feature", "properties": { "osmid": 1557771053, "y": 33.4901634, "x": 133.5333429, "street_count": 3, "highway": null }, "geometry": { "type": "Point", "coordinates": [ 133.5333429, 33.4901634 ] } },
{ "type": "Feature", "properties": { "osmid": 1557771078, "y": 33.4902164, "x": 133.5184476, "street_count": 3, "highway": null }, "geometry": { "type": "Point", "coordinates": [ 133.5184476, 33.4902164 ] } },
{ "type": "Feature", "properties": { "osmid": 1557771114, "y": 33.4905292, "x": 133.5103438, "street_count": 3, "highway": null }, "geometry": { "type": "Point", "coordinates": [ 133.510343799999987, 33.4905292 ] } },
{ "type": "Feature", "properties": { "osmid": 1557771117, "y": 33.4903465, "x": 133.5171759, "street_count": 3, "highway": null }, "geometry": { "type": "Point", "coordinates": [ 133.517175900000012, 33.4903465 ] } },
{ "type": "Feature", "properties": { "osmid": 1557771124, "y": 33.4907267, "x": 133.5198105, "street_count": 1, "highway": null }, "geometry": { "type": "Point", "coordinates": [ 133.5198105, 33.4907267 ] } },
{ "type": "Feature", "properties": { "osmid": 1557771128, "y": 33.4905766, "x": 133.5095778, "street_count": 3, "highway": null }, "geometry": { "type": "Point", "coordinates": [ 133.509577799999988, 33.4905766 ] } },
{ "type": "Feature", "properties": { "osmid": 1557771133, "y": 33.4905693, "x": 133.5256904, "street_count": 3, "highway": null }, "geometry": { "type": "Point", "coordinates": [ 133.5256904, 33.4905693 ] } },
{ "type": "Feature", "properties": { "osmid": 1557771143, "y": 33.4907522, "x": 133.5072458, "street_count": 3, "highway": null }, "geometry": { "type": "Point", "coordinates": [ 133.5072458, 33.4907522 ] } },
{ "type": "Feature", "properties": { "osmid": 1557771149, "y": 33.4906925, "x": 133.5096308, "street_count": 3, "highway": null }, "geometry": { "type": "Point", "coordinates": [ 133.5096308, 33.4906925 ] } },
{ "type": "Feature", "properties": { "osmid": 1557771157, "y": 33.4907134, "x": 133.5277741, "street_count": 3, "highway": null }, "geometry": { "type": "Point", "coordinates": [ 133.527774099999988, 33.4907134 ] } },
{ "type": "Feature", "properties": { "osmid": 1557771164, "y": 33.4907643, "x": 133.5274816, "street_count": 3, "highway": null }, "geometry": { "type": "Point", "coordinates": [ 133.527481599999987, 33.4907643 ] } },
{ "type": "Feature", "properties": { "osmid": 1557771185, "y": 33.4906441, "x": 133.5161726, "street_count": 3, "highway": null }, "geometry": { "type": "Point", "coordinates": [ 133.5161726, 33.4906441 ] } },
{ "type": "Feature", "properties": { "osmid": 1557771187, "y": 33.4909458, "x": 133.52967, "street_count": 3, "highway": null }, "geometry": { "type": "Point", "coordinates": [ 133.52967, 33.4909458 ] } },
{ "type": "Feature", "properties": { "osmid": 1557771192, "y": 33.4909207, "x": 133.5163334, "street_count": 3, "highway": null }, "geometry": { "type": "Point", "coordinates": [ 133.5163334, 33.4909207 ] } },
{ "type": "Feature", "properties": { "osmid": 1557771196, "y": 33.4909695, "x": 133.5311386, "street_count": 3, "highway": null }, "geometry": { "type": "Point", "coordinates": [ 133.5311386, 33.4909695 ] } },
{ "type": "Feature", "properties": { "osmid": 1557771205, "y": 33.4910077, "x": 133.5132637, "street_count": 3, "highway": null }, "geometry": { "type": "Point", "coordinates": [ 133.51326370000001, 33.4910077 ] } },
{ "type": "Feature", "properties": { "osmid": 1557771214, "y": 33.4910551, "x": 133.5131914, "street_count": 3, "highway": null }, "geometry": { "type": "Point", "coordinates": [ 133.513191400000011, 33.4910551 ] } },
{ "type": "Feature", "properties": { "osmid": 1557771239, "y": 33.491214, "x": 133.5265983, "street_count": 3, "highway": null }, "geometry": { "type": "Point", "coordinates": [ 133.526598299999989, 33.491214 ] } },
{ "type": "Feature", "properties": { "osmid": 1557771243, "y": 33.491295, "x": 133.5076259, "street_count": 3, "highway": null }, "geometry": { "type": "Point", "coordinates": [ 133.5076259, 33.491295 ] } },
{ "type": "Feature", "properties": { "osmid": 1557771244, "y": 33.4912545, "x": 133.5321326, "street_count": 3, "highway": null }, "geometry": { "type": "Point", "coordinates": [ 133.532132600000011, 33.4912545 ] } },
{ "type": "Feature", "properties": { "osmid": 1557771249, "y": 33.4913041, "x": 133.531088, "street_count": 3, "highway": null }, "geometry": { "type": "Point", "coordinates": [ 133.531088, 33.4913041 ] } },
{ "type": "Feature", "properties": { "osmid": 1557771251, "y": 33.4913682, "x": 133.5309999, "street_count": 3, "highway": null }, "geometry": { "type": "Point", "coordinates": [ 133.530999900000012, 33.4913682 ] } },
{ "type": "Feature", "properties": { "osmid": 1557771258, "y": 33.4913559, "x": 133.526987, "street_count": 3, "highway": null }, "geometry": { "type": "Point", "coordinates": [ 133.526987, 33.4913559 ] } },
{ "type": "Feature", "properties": { "osmid": 1557771273, "y": 33.491501, "x": 133.5274001, "street_count": 3, "highway": null }, "geometry": { "type": "Point", "coordinates": [ 133.5274001, 33.491501 ] } },
{ "type": "Feature", "properties": { "osmid": 1557771278, "y": 33.4915695, "x": 133.527677, "street_count": 3, "highway": null }, "geometry": { "type": "Point", "coordinates": [ 133.527677, 33.4915695 ] } },
{ "type": "Feature", "properties": { "osmid": 1557771281, "y": 33.4915031, "x": 133.5195024, "street_count": 3, "highway": null }, "geometry": { "type": "Point", "coordinates": [ 133.5195024, 33.4915031 ] } },
{ "type": "Feature", "properties": { "osmid": 1557771307, "y": 33.491682, "x": 133.532528, "street_count": 1, "highway": null }, "geometry": { "type": "Point", "coordinates": [ 133.532528, 33.491682 ] } },
{ "type": "Feature", "properties": { "osmid": 1557771321, "y": 33.4917855, "x": 133.5098968, "street_count": 3, "highway": null }, "geometry": { "type": "Point", "coordinates": [ 133.5098968, 33.4917855 ] } },
{ "type": "Feature", "properties": { "osmid": 1557771324, "y": 33.491765, "x": 133.514287, "street_count": 3, "highway": null }, "geometry": { "type": "Point", "coordinates": [ 133.514287, 33.491765 ] } },
{ "type": "Feature", "properties": { "osmid": 1557771365, "y": 33.4919323, "x": 133.5091669, "street_count": 4, "highway": null }, "geometry": { "type": "Point", "coordinates": [ 133.5091669, 33.4919323 ] } },
{ "type": "Feature", "properties": { "osmid": 1557771396, "y": 33.4921867, "x": 133.5313438, "street_count": 3, "highway": null }, "geometry": { "type": "Point", "coordinates": [ 133.5313438, 33.4921867 ] } },
{ "type": "Feature", "properties": { "osmid": 1557771411, "y": 33.4922901, "x": 133.5289566, "street_count": 3, "highway": null }, "geometry": { "type": "Point", "coordinates": [ 133.528956599999987, 33.4922901 ] } },
{ "type": "Feature", "properties": { "osmid": 1557771421, "y": 33.4923357, "x": 133.5278407, "street_count": 3, "highway": null }, "geometry": { "type": "Point", "coordinates": [ 133.527840700000013, 33.4923357 ] } },
{ "type": "Feature", "properties": { "osmid": 1557771423, "y": 33.4922869, "x": 133.507532, "street_count": 3, "highway": null }, "geometry": { "type": "Point", "coordinates": [ 133.507532, 33.4922869 ] } },
{ "type": "Feature", "properties": { "osmid": 1557771449, "y": 33.4924372, "x": 133.5172279, "street_count": 3, "highway": null }, "geometry": { "type": "Point", "coordinates": [ 133.5172279, 33.4924372 ] } },
{ "type": "Feature", "properties": { "osmid": 1557771511, "y": 33.4927063, "x": 133.5148452, "street_count": 3, "highway": null }, "geometry": { "type": "Point", "coordinates": [ 133.5148452, 33.4927063 ] } },
{ "type": "Feature", "properties": { "osmid": 1557771513, "y": 33.4927464, "x": 133.5196434, "street_count": 3, "highway": null }, "geometry": { "type": "Point", "coordinates": [ 133.5196434, 33.4927464 ] } },
{ "type": "Feature", "properties": { "osmid": 1557771530, "y": 33.4928335, "x": 133.5100947, "street_count": 3, "highway": null }, "geometry": { "type": "Point", "coordinates": [ 133.5100947, 33.4928335 ] } },
{ "type": "Feature", "properties": { "osmid": 1557771551, "y": 33.4928612, "x": 133.5135334, "street_count": 4, "highway": null }, "geometry": { "type": "Point", "coordinates": [ 133.5135334, 33.4928612 ] } },
{ "type": "Feature", "properties": { "osmid": 1557771553, "y": 33.492901, "x": 133.5175093, "street_count": 3, "highway": null }, "geometry": { "type": "Point", "coordinates": [ 133.5175093, 33.492901 ] } },
{ "type": "Feature", "properties": { "osmid": 1557771602, "y": 33.4931402, "x": 133.5111013, "street_count": 3, "highway": null }, "geometry": { "type": "Point", "coordinates": [ 133.5111013, 33.4931402 ] } },
{ "type": "Feature", "properties": { "osmid": 1557771619, "y": 33.4932487, "x": 133.5312206, "street_count": 3, "highway": null }, "geometry": { "type": "Point", "coordinates": [ 133.531220600000012, 33.4932487 ] } },
{ "type": "Feature", "properties": { "osmid": 1557771620, "y": 33.4931864, "x": 133.5107025, "street_count": 4, "highway": null }, "geometry": { "type": "Point", "coordinates": [ 133.5107025, 33.4931864 ] } },
{ "type": "Feature", "properties": { "osmid": 1557771647, "y": 33.493332, "x": 133.5290009, "street_count": 4, "highway": null }, "geometry": { "type": "Point", "coordinates": [ 133.5290009, 33.493332 ] } },
{ "type": "Feature", "properties": { "osmid": 1557771655, "y": 33.4933891, "x": 133.5277087, "street_count": 3, "highway": null }, "geometry": { "type": "Point", "coordinates": [ 133.5277087, 33.4933891 ] } },
{ "type": "Feature", "properties": { "osmid": 1557771665, "y": 33.4934477, "x": 133.5161674, "street_count": 3, "highway": null }, "geometry": { "type": "Point", "coordinates": [ 133.5161674, 33.4934477 ] } },
{ "type": "Feature", "properties": { "osmid": 1557771685, "y": 33.4934995, "x": 133.5178456, "street_count": 3, "highway": null }, "geometry": { "type": "Point", "coordinates": [ 133.517845599999987, 33.4934995 ] } },
{ "type": "Feature", "properties": { "osmid": 1557771698, "y": 33.4935222, "x": 133.5158801, "street_count": 3, "highway": null }, "geometry": { "type": "Point", "coordinates": [ 133.5158801, 33.4935222 ] } },
{ "type": "Feature", "properties": { "osmid": 1557771765, "y": 33.4939663, "x": 133.5305419, "street_count": 3, "highway": null }, "geometry": { "type": "Point", "coordinates": [ 133.5305419, 33.4939663 ] } },
{ "type": "Feature", "properties": { "osmid": 1557771775, "y": 33.4940276, "x": 133.5272653, "street_count": 3, "highway": null }, "geometry": { "type": "Point", "coordinates": [ 133.52726530000001, 33.4940276 ] } },
{ "type": "Feature", "properties": { "osmid": 1557771798, "y": 33.4940587, "x": 133.5156893, "street_count": 3, "highway": null }, "geometry": { "type": "Point", "coordinates": [ 133.5156893, 33.4940587 ] } },
{ "type": "Feature", "properties": { "osmid": 1557771858, "y": 33.494302, "x": 133.5137665, "street_count": 3, "highway": null }, "geometry": { "type": "Point", "coordinates": [ 133.5137665, 33.494302 ] } },
{ "type": "Feature", "properties": { "osmid": 1557771887, "y": 33.4944249, "x": 133.5127456, "street_count": 3, "highway": null }, "geometry": { "type": "Point", "coordinates": [ 133.512745599999988, 33.4944249 ] } },
{ "type": "Feature", "properties": { "osmid": 1557771888, "y": 33.4944699, "x": 133.5290591, "street_count": 3, "highway": null }, "geometry": { "type": "Point", "coordinates": [ 133.529059100000012, 33.4944699 ] } },
{ "type": "Feature", "properties": { "osmid": 1557771910, "y": 33.4945169, "x": 133.5117657, "street_count": 3, "highway": null }, "geometry": { "type": "Point", "coordinates": [ 133.511765700000012, 33.4945169 ] } },
{ "type": "Feature", "properties": { "osmid": 1557771926, "y": 33.4945999, "x": 133.5280424, "street_count": 3, "highway": null }, "geometry": { "type": "Point", "coordinates": [ 133.5280424, 33.4945999 ] } },
{ "type": "Feature", "properties": { "osmid": 1557771940, "y": 33.49464, "x": 133.5188696, "street_count": 3, "highway": null }, "geometry": { "type": "Point", "coordinates": [ 133.518869599999988, 33.49464 ] } },
{ "type": "Feature", "properties": { "osmid": 1557771945, "y": 33.4946648, "x": 133.5185084, "street_count": 3, "highway": null }, "geometry": { "type": "Point", "coordinates": [ 133.5185084, 33.4946648 ] } },
{ "type": "Feature", "properties": { "osmid": 1557772015, "y": 33.4950258, "x": 133.5145737, "street_count": 1, "highway": null }, "geometry": { "type": "Point", "coordinates": [ 133.5145737, 33.4950258 ] } },
{ "type": "Feature", "properties": { "osmid": 4653551748, "y": 33.4821133, "x": 133.5234222, "street_count": 3, "highway": null }, "geometry": { "type": "Point", "coordinates": [ 133.5234222, 33.4821133 ] } },
{ "type": "Feature", "properties": { "osmid": 4930119001, "y": 33.4727137, "x": 133.5082881, "street_count": 3, "highway": null }, "geometry": { "type": "Point", "coordinates": [ 133.508288099999987, 33.4727137 ] } },
{ "type": "Feature", "properties": { "osmid": 4931831910, "y": 33.484332, "x": 133.5204598, "street_count": 4, "highway": null }, "geometry": { "type": "Point", "coordinates": [ 133.5204598, 33.484332 ] } },
{ "type": "Feature", "properties": { "osmid": 4933375093, "y": 33.4846888, "x": 133.5322819, "street_count": 4, "highway": null }, "geometry": { "type": "Point", "coordinates": [ 133.532281899999987, 33.4846888 ] } },
{ "type": "Feature", "properties": { "osmid": 4933375101, "y": 33.4850183, "x": 133.5301012, "street_count": 3, "highway": null }, "geometry": { "type": "Point", "coordinates": [ 133.5301012, 33.4850183 ] } },
{ "type": "Feature", "properties": { "osmid": 4933375109, "y": 33.4850787, "x": 133.5302983, "street_count": 4, "highway": null }, "geometry": { "type": "Point", "coordinates": [ 133.5302983, 33.4850787 ] } },
{ "type": "Feature", "properties": { "osmid": 4933375133, "y": 33.4894554, "x": 133.5246938, "street_count": 3, "highway": null }, "geometry": { "type": "Point", "coordinates": [ 133.5246938, 33.4894554 ] } },
{ "type": "Feature", "properties": { "osmid": 4933375143, "y": 33.4909596, "x": 133.5133369, "street_count": 3, "highway": null }, "geometry": { "type": "Point", "coordinates": [ 133.513336900000013, 33.4909596 ] } },
{ "type": "Feature", "properties": { "osmid": 4933375179, "y": 33.4852375, "x": 133.5181023, "street_count": 3, "highway": null }, "geometry": { "type": "Point", "coordinates": [ 133.51810230000001, 33.4852375 ] } },
{ "type": "Feature", "properties": { "osmid": 4933375180, "y": 33.4874555, "x": 133.515463, "street_count": 1, "highway": null }, "geometry": { "type": "Point", "coordinates": [ 133.515463, 33.4874555 ] } },
{ "type": "Feature", "properties": { "osmid": 4933375188, "y": 33.4865708, "x": 133.5175069, "street_count": 3, "highway": null }, "geometry": { "type": "Point", "coordinates": [ 133.5175069, 33.4865708 ] } },
{ "type": "Feature", "properties": { "osmid": 4933375196, "y": 33.4840715, "x": 133.5268284, "street_count": 3, "highway": null }, "geometry": { "type": "Point", "coordinates": [ 133.5268284, 33.4840715 ] } },
{ "type": "Feature", "properties": { "osmid": 4933375197, "y": 33.4844722, "x": 133.5308214, "street_count": 3, "highway": null }, "geometry": { "type": "Point", "coordinates": [ 133.5308214, 33.4844722 ] } },
{ "type": "Feature", "properties": { "osmid": 4941946999, "y": 33.4916856, "x": 133.5098926, "street_count": 3, "highway": null }, "geometry": { "type": "Point", "coordinates": [ 133.5098926, 33.4916856 ] } },
{ "type": "Feature", "properties": { "osmid": 5381937718, "y": 33.4904017, "x": 133.5076835, "street_count": 3, "highway": null }, "geometry": { "type": "Point", "coordinates": [ 133.507683500000013, 33.4904017 ] } },
{ "type": "Feature", "properties": { "osmid": 5471852305, "y": 33.4868131, "x": 133.5296156, "street_count": 3, "highway": null }, "geometry": { "type": "Point", "coordinates": [ 133.5296156, 33.4868131 ] } },
{ "type": "Feature", "properties": { "osmid": 5471852311, "y": 33.482851, "x": 133.5202203, "street_count": 1, "highway": null }, "geometry": { "type": "Point", "coordinates": [ 133.5202203, 33.482851 ] } },
{ "type": "Feature", "properties": { "osmid": 5471852312, "y": 33.4830636, "x": 133.5209675, "street_count": 3, "highway": null }, "geometry": { "type": "Point", "coordinates": [ 133.520967500000012, 33.4830636 ] } },
{ "type": "Feature", "properties": { "osmid": 5487612033, "y": 33.4833325, "x": 133.5330891, "street_count": 4, "highway": null }, "geometry": { "type": "Point", "coordinates": [ 133.533089100000012, 33.4833325 ] } },
{ "type": "Feature", "properties": { "osmid": 5487612035, "y": 33.4828238, "x": 133.5314585, "street_count": 4, "highway": null }, "geometry": { "type": "Point", "coordinates": [ 133.531458500000014, 33.4828238 ] } },
{ "type": "Feature", "properties": { "osmid": 5487612036, "y": 33.4823227, "x": 133.5301212, "street_count": 4, "highway": null }, "geometry": { "type": "Point", "coordinates": [ 133.5301212, 33.4823227 ] } },
{ "type": "Feature", "properties": { "osmid": 5487612037, "y": 33.4817657, "x": 133.528637, "street_count": 4, "highway": null }, "geometry": { "type": "Point", "coordinates": [ 133.528637, 33.4817657 ] } },
{ "type": "Feature", "properties": { "osmid": 5487612038, "y": 33.4811438, "x": 133.5269597, "street_count": 4, "highway": null }, "geometry": { "type": "Point", "coordinates": [ 133.5269597, 33.4811438 ] } },
{ "type": "Feature", "properties": { "osmid": 5487612039, "y": 33.4801122, "x": 133.5242008, "street_count": 4, "highway": null }, "geometry": { "type": "Point", "coordinates": [ 133.524200799999988, 33.4801122 ] } },
{ "type": "Feature", "properties": { "osmid": 5487612042, "y": 33.4794513, "x": 133.522583, "street_count": 3, "highway": null }, "geometry": { "type": "Point", "coordinates": [ 133.522583, 33.4794513 ] } },
{ "type": "Feature", "properties": { "osmid": 5487612043, "y": 33.479373, "x": 133.522414, "street_count": 3, "highway": null }, "geometry": { "type": "Point", "coordinates": [ 133.522414, 33.479373 ] } },
{ "type": "Feature", "properties": { "osmid": 5487612046, "y": 33.477593, "x": 133.5180753, "street_count": 4, "highway": null }, "geometry": { "type": "Point", "coordinates": [ 133.5180753, 33.477593 ] } },
{ "type": "Feature", "properties": { "osmid": 5487612050, "y": 33.4765111, "x": 133.5156137, "street_count": 4, "highway": null }, "geometry": { "type": "Point", "coordinates": [ 133.515613699999989, 33.4765111 ] } },
{ "type": "Feature", "properties": { "osmid": 5487624475, "y": 33.4700042, "x": 133.5044646, "street_count": 3, "highway": null }, "geometry": { "type": "Point", "coordinates": [ 133.5044646, 33.4700042 ] } },
{ "type": "Feature", "properties": { "osmid": 5487624476, "y": 33.4692911, "x": 133.5049038, "street_count": 3, "highway": null }, "geometry": { "type": "Point", "coordinates": [ 133.5049038, 33.4692911 ] } },
{ "type": "Feature", "properties": { "osmid": 5487624477, "y": 33.4692926, "x": 133.5037237, "street_count": 3, "highway": null }, "geometry": { "type": "Point", "coordinates": [ 133.5037237, 33.4692926 ] } },
{ "type": "Feature", "properties": { "osmid": 5487624479, "y": 33.4687481, "x": 133.5035664, "street_count": 3, "highway": null }, "geometry": { "type": "Point", "coordinates": [ 133.503566400000011, 33.4687481 ] } },
{ "type": "Feature", "properties": { "osmid": 5487624480, "y": 33.4690897, "x": 133.5038364, "street_count": 3, "highway": null }, "geometry": { "type": "Point", "coordinates": [ 133.503836400000012, 33.4690897 ] } },
{ "type": "Feature", "properties": { "osmid": 5487624481, "y": 33.4695102, "x": 133.5047683, "street_count": 4, "highway": null }, "geometry": { "type": "Point", "coordinates": [ 133.5047683, 33.4695102 ] } },
{ "type": "Feature", "properties": { "osmid": 5487624482, "y": 33.469782, "x": 133.5053918, "street_count": 1, "highway": null }, "geometry": { "type": "Point", "coordinates": [ 133.505391800000012, 33.469782 ] } },
{ "type": "Feature", "properties": { "osmid": 5487625044, "y": 33.4687876, "x": 133.5060527, "street_count": 1, "highway": null }, "geometry": { "type": "Point", "coordinates": [ 133.5060527, 33.4687876 ] } },
{ "type": "Feature", "properties": { "osmid": 5487625047, "y": 33.4685065, "x": 133.5050446, "street_count": 1, "highway": null }, "geometry": { "type": "Point", "coordinates": [ 133.5050446, 33.4685065 ] } },
{ "type": "Feature", "properties": { "osmid": 5487625048, "y": 33.4687013, "x": 133.5054743, "street_count": 1, "highway": null }, "geometry": { "type": "Point", "coordinates": [ 133.5054743, 33.4687013 ] } },
{ "type": "Feature", "properties": { "osmid": 5487625049, "y": 33.4689161, "x": 133.5059534, "street_count": 3, "highway": null }, "geometry": { "type": "Point", "coordinates": [ 133.50595340000001, 33.4689161 ] } },
{ "type": "Feature", "properties": { "osmid": 5487625094, "y": 33.4886429, "x": 133.5106883, "street_count": 3, "highway": null }, "geometry": { "type": "Point", "coordinates": [ 133.5106883, 33.4886429 ] } },
{ "type": "Feature", "properties": { "osmid": 6814317089, "y": 33.4912037, "x": 133.5193385, "street_count": 3, "highway": null }, "geometry": { "type": "Point", "coordinates": [ 133.5193385, 33.4912037 ] } },
{ "type": "Feature", "properties": { "osmid": 6814317096, "y": 33.4904548, "x": 133.520479, "street_count": 3, "highway": null }, "geometry": { "type": "Point", "coordinates": [ 133.520479, 33.4904548 ] } },
{ "type": "Feature", "properties": { "osmid": 6814317099, "y": 33.4839742, "x": 133.5142542, "street_count": 1, "highway": null }, "geometry": { "type": "Point", "coordinates": [ 133.514254200000011, 33.4839742 ] } },
{ "type": "Feature", "properties": { "osmid": 7077380923, "y": 33.482485, "x": 133.521212, "street_count": 3, "highway": null }, "geometry": { "type": "Point", "coordinates": [ 133.521212, 33.482485 ] } },
{ "type": "Feature", "properties": { "osmid": 7077380949, "y": 33.4839223, "x": 133.5192241, "street_count": 3, "highway": null }, "geometry": { "type": "Point", "coordinates": [ 133.5192241, 33.4839223 ] } },
{ "type": "Feature", "properties": { "osmid": 7077380953, "y": 33.4794089, "x": 133.5225063, "street_count": 4, "highway": "crossing" }, "geometry": { "type": "Point", "coordinates": [ 133.5225063, 33.4794089 ] } },
{ "type": "Feature", "properties": { "osmid": 7077380956, "y": 33.4794861, "x": 133.5225136, "street_count": 1, "highway": null }, "geometry": { "type": "Point", "coordinates": [ 133.5225136, 33.4794861 ] } },
{ "type": "Feature", "properties": { "osmid": 7077380967, "y": 33.4802214, "x": 133.522112, "street_count": 4, "highway": "crossing" }, "geometry": { "type": "Point", "coordinates": [ 133.522112, 33.4802214 ] } },
{ "type": "Feature", "properties": { "osmid": 7077380971, "y": 33.4811197, "x": 133.5217331, "street_count": 4, "highway": null }, "geometry": { "type": "Point", "coordinates": [ 133.5217331, 33.4811197 ] } },
{ "type": "Feature", "properties": { "osmid": 7077380977, "y": 33.48249, "x": 133.5211627, "street_count": 1, "highway": null }, "geometry": { "type": "Point", "coordinates": [ 133.5211627, 33.48249 ] } },
{ "type": "Feature", "properties": { "osmid": 7077380978, "y": 33.4824586, "x": 133.5211767, "street_count": 4, "highway": null }, "geometry": { "type": "Point", "coordinates": [ 133.521176700000012, 33.4824586 ] } },
{ "type": "Feature", "properties": { "osmid": 9434052618, "y": 33.4934566, "x": 133.5207314, "street_count": 3, "highway": null }, "geometry": { "type": "Point", "coordinates": [ 133.520731399999988, 33.4934566 ] } },
{ "type": "Feature", "properties": { "osmid": 10159292960, "y": 33.4946393, "x": 133.5307964, "street_count": 1, "highway": null }, "geometry": { "type": "Point", "coordinates": [ 133.530796400000014, 33.4946393 ] } },
{ "type": "Feature", "properties": { "osmid": 10261046440, "y": 33.4840125, "x": 133.5349513, "street_count": 4, "highway": "crossing" }, "geometry": { "type": "Point", "coordinates": [ 133.534951299999989, 33.4840125 ] } },
{ "type": "Feature", "properties": { "osmid": 10550597227, "y": 33.4838917, "x": 133.5321039, "street_count": 3, "highway": null }, "geometry": { "type": "Point", "coordinates": [ 133.53210390000001, 33.4838917 ] } },
{ "type": "Feature", "properties": { "osmid": 10550597228, "y": 33.4831322, "x": 133.5323645, "street_count": 4, "highway": "crossing" }, "geometry": { "type": "Point", "coordinates": [ 133.5323645, 33.4831322 ] } },
{ "type": "Feature", "properties": { "osmid": 10550597230, "y": 33.481971, "x": 133.52554, "street_count": 3, "highway": null }, "geometry": { "type": "Point", "coordinates": [ 133.52554, 33.481971 ] } },
{ "type": "Feature", "properties": { "osmid": 10550597232, "y": 33.4808284, "x": 133.5261161, "street_count": 3, "highway": null }, "geometry": { "type": "Point", "coordinates": [ 133.5261161, 33.4808284 ] } },
{ "type": "Feature", "properties": { "osmid": 10699694981, "y": 33.4879996, "x": 133.5189291, "street_count": 3, "highway": null }, "geometry": { "type": "Point", "coordinates": [ 133.5189291, 33.4879996 ] } },
{ "type": "Feature", "properties": { "osmid": 10699694982, "y": 33.4883981, "x": 133.5204086, "street_count": 1, "highway": null }, "geometry": { "type": "Point", "coordinates": [ 133.5204086, 33.4883981 ] } },
{ "type": "Feature", "properties": { "osmid": 10699694983, "y": 33.4874711, "x": 133.5191448, "street_count": 3, "highway": null }, "geometry": { "type": "Point", "coordinates": [ 133.5191448, 33.4874711 ] } },
{ "type": "Feature", "properties": { "osmid": 10699694984, "y": 33.4878387, "x": 133.5203767, "street_count": 1, "highway": null }, "geometry": { "type": "Point", "coordinates": [ 133.520376700000014, 33.4878387 ] } },
{ "type": "Feature", "properties": { "osmid": 10699694985, "y": 33.4893324, "x": 133.5176708, "street_count": 1, "highway": null }, "geometry": { "type": "Point", "coordinates": [ 133.5176708, 33.4893324 ] } },
{ "type": "Feature", "properties": { "osmid": 10699694986, "y": 33.4888084, "x": 133.5176611, "street_count": 3, "highway": null }, "geometry": { "type": "Point", "coordinates": [ 133.5176611, 33.4888084 ] } },
{ "type": "Feature", "properties": { "osmid": 10846207809, "y": 33.4875726, "x": 133.5342154, "street_count": 3, "highway": null }, "geometry": { "type": "Point", "coordinates": [ 133.5342154, 33.4875726 ] } },
{ "type": "Feature", "properties": { "osmid": 10846207815, "y": 33.4879324, "x": 133.5348784, "street_count": 1, "highway": null }, "geometry": { "type": "Point", "coordinates": [ 133.5348784, 33.4879324 ] } },
{ "type": "Feature", "properties": { "osmid": 10846207816, "y": 33.4868648, "x": 133.5340831, "street_count": 3, "highway": null }, "geometry": { "type": "Point", "coordinates": [ 133.5340831, 33.4868648 ] } },
{ "type": "Feature", "properties": { "osmid": 10846207817, "y": 33.4867741, "x": 133.5342375, "street_count": 3, "highway": null }, "geometry": { "type": "Point", "coordinates": [ 133.534237499999989, 33.4867741 ] } },
{ "type": "Feature", "properties": { "osmid": 10846207820, "y": 33.487622, "x": 133.534454, "street_count": 3, "highway": null }, "geometry": { "type": "Point", "coordinates": [ 133.534454, 33.487622 ] } },
{ "type": "Feature", "properties": { "osmid": 10846207821, "y": 33.4854619, "x": 133.5337273, "street_count": 1, "highway": null }, "geometry": { "type": "Point", "coordinates": [ 133.53372730000001, 33.4854619 ] } },
{ "type": "Feature", "properties": { "osmid": 10862208461, "y": 33.492832, "x": 133.5080109, "street_count": 3, "highway": null }, "geometry": { "type": "Point", "coordinates": [ 133.508010899999988, 33.492832 ] } },
{ "type": "Feature", "properties": { "osmid": 10862208463, "y": 33.4931761, "x": 133.5080537, "street_count": 1, "highway": null }, "geometry": { "type": "Point", "coordinates": [ 133.5080537, 33.4931761 ] } },
{ "type": "Feature", "properties": { "osmid": 10895865685, "y": 33.4926814, "x": 133.5094077, "street_count": 1, "highway": null }, "geometry": { "type": "Point", "coordinates": [ 133.5094077, 33.4926814 ] } },
{ "type": "Feature", "properties": { "osmid": 10895865686, "y": 33.4912505, "x": 133.5089529, "street_count": 1, "highway": null }, "geometry": { "type": "Point", "coordinates": [ 133.5089529, 33.4912505 ] } },
{ "type": "Feature", "properties": { "osmid": 10948459329, "y": 33.4926569, "x": 133.510077, "street_count": 3, "highway": null }, "geometry": { "type": "Point", "coordinates": [ 133.510077, 33.4926569 ] } },
{ "type": "Feature", "properties": { "osmid": 10948459335, "y": 33.4914931, "x": 133.5106527, "street_count": 3, "highway": null }, "geometry": { "type": "Point", "coordinates": [ 133.5106527, 33.4914931 ] } },
{ "type": "Feature", "properties": { "osmid": 10948459337, "y": 33.4883305, "x": 133.5139677, "street_count": 3, "highway": null }, "geometry": { "type": "Point", "coordinates": [ 133.5139677, 33.4883305 ] } },
{ "type": "Feature", "properties": { "osmid": 10948459344, "y": 33.4879382, "x": 133.5176918, "street_count": 3, "highway": null }, "geometry": { "type": "Point", "coordinates": [ 133.5176918, 33.4879382 ] } },
{ "type": "Feature", "properties": { "osmid": 10948459346, "y": 33.4881649, "x": 133.5181292, "street_count": 3, "highway": null }, "geometry": { "type": "Point", "coordinates": [ 133.5181292, 33.4881649 ] } },
{ "type": "Feature", "properties": { "osmid": 10948459349, "y": 33.4883456, "x": 133.5187879, "street_count": 3, "highway": null }, "geometry": { "type": "Point", "coordinates": [ 133.5187879, 33.4883456 ] } },
{ "type": "Feature", "properties": { "osmid": 10948459350, "y": 33.4887722, "x": 133.518263, "street_count": 3, "highway": null }, "geometry": { "type": "Point", "coordinates": [ 133.518263, 33.4887722 ] } },
{ "type": "Feature", "properties": { "osmid": 10948459355, "y": 33.4887622, "x": 133.5183648, "street_count": 3, "highway": null }, "geometry": { "type": "Point", "coordinates": [ 133.5183648, 33.4887622 ] } },
{ "type": "Feature", "properties": { "osmid": 10948459357, "y": 33.4891314, "x": 133.5182045, "street_count": 1, "highway": null }, "geometry": { "type": "Point", "coordinates": [ 133.5182045, 33.4891314 ] } },
{ "type": "Feature", "properties": { "osmid": 10948459358, "y": 33.4894043, "x": 133.5173998, "street_count": 1, "highway": null }, "geometry": { "type": "Point", "coordinates": [ 133.5173998, 33.4894043 ] } },
{ "type": "Feature", "properties": { "osmid": 10948459361, "y": 33.4842823, "x": 133.5302638, "street_count": 3, "highway": null }, "geometry": { "type": "Point", "coordinates": [ 133.5302638, 33.4842823 ] } },
{ "type": "Feature", "properties": { "osmid": 10948459362, "y": 33.4841559, "x": 133.5298928, "street_count": 3, "highway": null }, "geometry": { "type": "Point", "coordinates": [ 133.5298928, 33.4841559 ] } },
{ "type": "Feature", "properties": { "osmid": 10948459363, "y": 33.4834705, "x": 133.530022, "street_count": 3, "highway": null }, "geometry": { "type": "Point", "coordinates": [ 133.530022, 33.4834705 ] } },
{ "type": "Feature", "properties": { "osmid": 10948459364, "y": 33.4825012, "x": 133.5303868, "street_count": 3, "highway": null }, "geometry": { "type": "Point", "coordinates": [ 133.5303868, 33.4825012 ] } },
{ "type": "Feature", "properties": { "osmid": 10948459365, "y": 33.4824684, "x": 133.5300397, "street_count": 3, "highway": null }, "geometry": { "type": "Point", "coordinates": [ 133.5300397, 33.4824684 ] } },
{ "type": "Feature", "properties": { "osmid": 10948459366, "y": 33.4836148, "x": 133.5304872, "street_count": 3, "highway": null }, "geometry": { "type": "Point", "coordinates": [ 133.53048720000001, 33.4836148 ] } },
{ "type": "Feature", "properties": { "osmid": 10948459369, "y": 33.4831671, "x": 133.5291083, "street_count": 3, "highway": null }, "geometry": { "type": "Point", "coordinates": [ 133.5291083, 33.4831671 ] } },
{ "type": "Feature", "properties": { "osmid": 10948459371, "y": 33.4820701, "x": 133.5294482, "street_count": 3, "highway": null }, "geometry": { "type": "Point", "coordinates": [ 133.5294482, 33.4820701 ] } },
{ "type": "Feature", "properties": { "osmid": 10948459372, "y": 33.4821121, "x": 133.5259539, "street_count": 3, "highway": null }, "geometry": { "type": "Point", "coordinates": [ 133.5259539, 33.4821121 ] } },
{ "type": "Feature", "properties": { "osmid": 10948459373, "y": 33.4814406, "x": 133.5263731, "street_count": 1, "highway": null }, "geometry": { "type": "Point", "coordinates": [ 133.5263731, 33.4814406 ] } },
{ "type": "Feature", "properties": { "osmid": 10948459374, "y": 33.4814601, "x": 133.5243798, "street_count": 3, "highway": null }, "geometry": { "type": "Point", "coordinates": [ 133.5243798, 33.4814601 ] } },
{ "type": "Feature", "properties": { "osmid": 10948459377, "y": 33.4804143, "x": 133.5250086, "street_count": 3, "highway": null }, "geometry": { "type": "Point", "coordinates": [ 133.5250086, 33.4804143 ] } },
{ "type": "Feature", "properties": { "osmid": 10948459378, "y": 33.4816923, "x": 133.5248707, "street_count": 3, "highway": null }, "geometry": { "type": "Point", "coordinates": [ 133.5248707, 33.4816923 ] } },
{ "type": "Feature", "properties": { "osmid": 10948459382, "y": 33.4806411, "x": 133.5256153, "street_count": 3, "highway": null }, "geometry": { "type": "Point", "coordinates": [ 133.5256153, 33.4806411 ] } },
{ "type": "Feature", "properties": { "osmid": 10948459383, "y": 33.4821733, "x": 133.5239637, "street_count": 3, "highway": null }, "geometry": { "type": "Point", "coordinates": [ 133.5239637, 33.4821733 ] } },
{ "type": "Feature", "properties": { "osmid": 10948459386, "y": 33.4817483, "x": 133.524237, "street_count": 1, "highway": null }, "geometry": { "type": "Point", "coordinates": [ 133.524237, 33.4817483 ] } },
{ "type": "Feature", "properties": { "osmid": 10948459391, "y": 33.4830658, "x": 133.5262964, "street_count": 3, "highway": null }, "geometry": { "type": "Point", "coordinates": [ 133.5262964, 33.4830658 ] } },
{ "type": "Feature", "properties": { "osmid": 11055030522, "y": 33.47325, "x": 133.5083141, "street_count": 3, "highway": null }, "geometry": { "type": "Point", "coordinates": [ 133.5083141, 33.47325 ] } },
{ "type": "Feature", "properties": { "osmid": 11055030526, "y": 33.4725961, "x": 133.5074804, "street_count": 1, "highway": null }, "geometry": { "type": "Point", "coordinates": [ 133.5074804, 33.4725961 ] } },
{ "type": "Feature", "properties": { "osmid": 11682084479, "y": 33.4830881, "x": 133.5323806, "street_count": 3, "highway": null }, "geometry": { "type": "Point", "coordinates": [ 133.53238060000001, 33.4830881 ] } }
]
}
