{
"type": "FeatureCollection",
"name": "Gnodes",
"crs": { "type": "name", "properties": { "name": "urn:ogc:def:crs:OGC:1.3:CRS84" } },
"features": [
{ "type": "Feature", "properties": { "osmid": 411229004, "y": 33.4678947, "x": 133.5015962, "street_count": 3, "highway": null }, "geometry": { "type": "Point", "coordinates": [ 133.5015962, 33.4678947 ] } },
{ "type": "Feature", "properties": { "osmid": 411229010, "y": 33.4650457, "x": 133.4880945, "street_count": 3, "highway": null }, "geometry": { "type": "Point", "coordinates": [ 133.488094499999988, 33.4650457 ] } },
{ "type": "Feature", "properties": { "osmid": 411229011, "y": 33.4644095, "x": 133.4868088, "street_count": 1, "highway": null }, "geometry": { "type": "Point", "coordinates": [ 133.4868088, 33.4644095 ] } },
{ "type": "Feature", "properties": { "osmid": 411229012, "y": 33.4647595, "x": 133.4874874, "street_count": 3, "highway": "traffic_signals" }, "geometry": { "type": "Point", "coordinates": [ 133.4874874, 33.4647595 ] } },
{ "type": "Feature", "properties": { "osmid": 770247566, "y": 33.4699793, "x": 133.4927304, "street_count": 3, "highway": null }, "geometry": { "type": "Point", "coordinates": [ 133.4927304, 33.4699793 ] } },
{ "type": "Feature", "properties": { "osmid": 770247584, "y": 33.4752905, "x": 133.4909138, "street_count": 4, "highway": null }, "geometry": { "type": "Point", "coordinates": [ 133.490913799999987, 33.4752905 ] } },
{ "type": "Feature", "properties": { "osmid": 770247616, "y": 33.4707633, "x": 133.4922812, "street_count": 4, "highway": null }, "geometry": { "type": "Point", "coordinates": [ 133.4922812, 33.4707633 ] } },
{ "type": "Feature", "properties": { "osmid": 770247658, "y": 33.4758325, "x": 133.4891703, "street_count": 3, "highway": null }, "geometry": { "type": "Point", "coordinates": [ 133.489170300000012, 33.4758325 ] } },
{ "type": "Feature", "properties": { "osmid": 770247716, "y": 33.4667607, "x": 133.4853423, "street_count": 3, "highway": null }, "geometry": { "type": "Point", "coordinates": [ 133.485342300000013, 33.4667607 ] } },
{ "type": "Feature", "properties": { "osmid": 770247775, "y": 33.465341, "x": 133.4851926, "street_count": 3, "highway": null }, "geometry": { "type": "Point", "coordinates": [ 133.4851926, 33.465341 ] } },
{ "type": "Feature", "properties": { "osmid": 770247803, "y": 33.4726068, "x": 133.4921305, "street_count": 3, "highway": null }, "geometry": { "type": "Point", "coordinates": [ 133.4921305, 33.4726068 ] } },
{ "type": "Feature", "properties": { "osmid": 1431444149, "y": 33.4667416, "x": 133.4824898, "street_count": 3, "highway": null }, "geometry": { "type": "Point", "coordinates": [ 133.4824898, 33.4667416 ] } },
{ "type": "Feature", "properties": { "osmid": 1431444151, "y": 33.4667984, "x": 133.4855558, "street_count": 3, "highway": null }, "geometry": { "type": "Point", "coordinates": [ 133.485555799999986, 33.4667984 ] } },
{ "type": "Feature", "properties": { "osmid": 1431444168, "y": 33.4672074, "x": 133.4828738, "street_count": 3, "highway": null }, "geometry": { "type": "Point", "coordinates": [ 133.4828738, 33.4672074 ] } },
{ "type": "Feature", "properties": { "osmid": 1431444173, "y": 33.4679845, "x": 133.4866065, "street_count": 3, "highway": null }, "geometry": { "type": "Point", "coordinates": [ 133.4866065, 33.4679845 ] } },
{ "type": "Feature", "properties": { "osmid": 1557769477, "y": 33.4665878, "x": 133.4944662, "street_count": 3, "highway": null }, "geometry": { "type": "Point", "coordinates": [ 133.4944662, 33.4665878 ] } },
{ "type": "Feature", "properties": { "osmid": 1557769480, "y": 33.4669913, "x": 133.4941449, "street_count": 3, "highway": null }, "geometry": { "type": "Point", "coordinates": [ 133.4941449, 33.4669913 ] } },
{ "type": "Feature", "properties": { "osmid": 1557769531, "y": 33.4681455, "x": 133.5005719, "street_count": 3, "highway": null }, "geometry": { "type": "Point", "coordinates": [ 133.500571900000011, 33.4681455 ] } },
{ "type": "Feature", "properties": { "osmid": 1557769532, "y": 33.4682039, "x": 133.4888832, "street_count": 3, "highway": null }, "geometry": { "type": "Point", "coordinates": [ 133.4888832, 33.4682039 ] } },
{ "type": "Feature", "properties": { "osmid": 1557769535, "y": 33.4683624, "x": 133.4891275, "street_count": 3, "highway": null }, "geometry": { "type": "Point", "coordinates": [ 133.4891275, 33.4683624 ] } },
{ "type": "Feature", "properties": { "osmid": 1557769604, "y": 33.470541, "x": 133.4873884, "street_count": 3, "highway": null }, "geometry": { "type": "Point", "coordinates": [ 133.487388399999986, 33.470541 ] } },
{ "type": "Feature", "properties": { "osmid": 1557769645, "y": 33.4714107, "x": 133.4979674, "street_count": 3, "highway": null }, "geometry": { "type": "Point", "coordinates": [ 133.4979674, 33.4714107 ] } },
{ "type": "Feature", "properties": { "osmid": 1557769653, "y": 33.471708, "x": 133.497512, "street_count": 3, "highway": null }, "geometry": { "type": "Point", "coordinates": [ 133.497512, 33.471708 ] } },
{ "type": "Feature", "properties": { "osmid": 1557769686, "y": 33.4724833, "x": 133.4921424, "street_count": 4, "highway": null }, "geometry": { "type": "Point", "coordinates": [ 133.4921424, 33.4724833 ] } },
{ "type": "Feature", "properties": { "osmid": 1575494565, "y": 33.4672684, "x": 133.4820616, "street_count": 1, "highway": null }, "geometry": { "type": "Point", "coordinates": [ 133.4820616, 33.4672684 ] } },
{ "type": "Feature", "properties": { "osmid": 1575534436, "y": 33.4677487, "x": 133.4905406, "street_count": 3, "highway": null }, "geometry": { "type": "Point", "coordinates": [ 133.4905406, 33.4677487 ] } },
{ "type": "Feature", "properties": { "osmid": 1575534471, "y": 33.4686778, "x": 133.4847293, "street_count": 1, "highway": null }, "geometry": { "type": "Point", "coordinates": [ 133.4847293, 33.4686778 ] } },
{ "type": "Feature", "properties": { "osmid": 1575534473, "y": 33.4688164, "x": 133.4886745, "street_count": 3, "highway": null }, "geometry": { "type": "Point", "coordinates": [ 133.4886745, 33.4688164 ] } },
{ "type": "Feature", "properties": { "osmid": 1575534474, "y": 33.4688179, "x": 133.4868763, "street_count": 3, "highway": null }, "geometry": { "type": "Point", "coordinates": [ 133.4868763, 33.4688179 ] } },
{ "type": "Feature", "properties": { "osmid": 1575534479, "y": 33.4689456, "x": 133.4862535, "street_count": 3, "highway": null }, "geometry": { "type": "Point", "coordinates": [ 133.4862535, 33.4689456 ] } },
{ "type": "Feature", "properties": { "osmid": 1575534486, "y": 33.4691111, "x": 133.4853765, "street_count": 3, "highway": null }, "geometry": { "type": "Point", "coordinates": [ 133.4853765, 33.4691111 ] } },
{ "type": "Feature", "properties": { "osmid": 1575534496, "y": 33.469461, "x": 133.4847069, "street_count": 1, "highway": null }, "geometry": { "type": "Point", "coordinates": [ 133.4847069, 33.469461 ] } },
{ "type": "Feature", "properties": { "osmid": 1575534499, "y": 33.4695519, "x": 133.4872513, "street_count": 3, "highway": null }, "geometry": { "type": "Point", "coordinates": [ 133.4872513, 33.4695519 ] } },
{ "type": "Feature", "properties": { "osmid": 1575534501, "y": 33.4696393, "x": 133.4871225, "street_count": 3, "highway": null }, "geometry": { "type": "Point", "coordinates": [ 133.4871225, 33.4696393 ] } },
{ "type": "Feature", "properties": { "osmid": 1575534504, "y": 33.4697414, "x": 133.4902203, "street_count": 3, "highway": null }, "geometry": { "type": "Point", "coordinates": [ 133.4902203, 33.4697414 ] } },
{ "type": "Feature", "properties": { "osmid": 1575534527, "y": 33.4702567, "x": 133.4879382, "street_count": 3, "highway": null }, "geometry": { "type": "Point", "coordinates": [ 133.4879382, 33.4702567 ] } },
{ "type": "Feature", "properties": { "osmid": 1575534530, "y": 33.4703782, "x": 133.4873404, "street_count": 3, "highway": null }, "geometry": { "type": "Point", "coordinates": [ 133.4873404, 33.4703782 ] } },
{ "type": "Feature", "properties": { "osmid": 1575534543, "y": 33.4706139, "x": 133.4883118, "street_count": 3, "highway": null }, "geometry": { "type": "Point", "coordinates": [ 133.4883118, 33.4706139 ] } },
{ "type": "Feature", "properties": { "osmid": 1575534550, "y": 33.4707121, "x": 133.486197, "street_count": 3, "highway": null }, "geometry": { "type": "Point", "coordinates": [ 133.486197, 33.4707121 ] } },
{ "type": "Feature", "properties": { "osmid": 1575534581, "y": 33.471219, "x": 133.4847354, "street_count": 1, "highway": null }, "geometry": { "type": "Point", "coordinates": [ 133.4847354, 33.471219 ] } },
{ "type": "Feature", "properties": { "osmid": 1575534582, "y": 33.4712193, "x": 133.4884139, "street_count": 3, "highway": null }, "geometry": { "type": "Point", "coordinates": [ 133.488413900000012, 33.4712193 ] } },
{ "type": "Feature", "properties": { "osmid": 1575534594, "y": 33.4715777, "x": 133.4883363, "street_count": 3, "highway": null }, "geometry": { "type": "Point", "coordinates": [ 133.488336299999986, 33.4715777 ] } },
{ "type": "Feature", "properties": { "osmid": 1575534620, "y": 33.4721827, "x": 133.4962449, "street_count": 3, "highway": null }, "geometry": { "type": "Point", "coordinates": [ 133.4962449, 33.4721827 ] } },
{ "type": "Feature", "properties": { "osmid": 1575534653, "y": 33.4724997, "x": 133.4938326, "street_count": 3, "highway": null }, "geometry": { "type": "Point", "coordinates": [ 133.4938326, 33.4724997 ] } },
{ "type": "Feature", "properties": { "osmid": 1575534654, "y": 33.4725125, "x": 133.4942084, "street_count": 3, "highway": null }, "geometry": { "type": "Point", "coordinates": [ 133.4942084, 33.4725125 ] } },
{ "type": "Feature", "properties": { "osmid": 1575534661, "y": 33.4725607, "x": 133.4946963, "street_count": 3, "highway": null }, "geometry": { "type": "Point", "coordinates": [ 133.494696299999987, 33.4725607 ] } },
{ "type": "Feature", "properties": { "osmid": 1575534718, "y": 33.4735406, "x": 133.4889976, "street_count": 4, "highway": null }, "geometry": { "type": "Point", "coordinates": [ 133.4889976, 33.4735406 ] } },
{ "type": "Feature", "properties": { "osmid": 1575534744, "y": 33.4743527, "x": 133.4943806, "street_count": 3, "highway": null }, "geometry": { "type": "Point", "coordinates": [ 133.4943806, 33.4743527 ] } },
{ "type": "Feature", "properties": { "osmid": 1575534745, "y": 33.4743805, "x": 133.4943146, "street_count": 1, "highway": null }, "geometry": { "type": "Point", "coordinates": [ 133.4943146, 33.4743805 ] } },
{ "type": "Feature", "properties": { "osmid": 1575534751, "y": 33.4749942, "x": 133.4885772, "street_count": 3, "highway": null }, "geometry": { "type": "Point", "coordinates": [ 133.4885772, 33.4749942 ] } },
{ "type": "Feature", "properties": { "osmid": 1575534757, "y": 33.4751285, "x": 133.4868757, "street_count": 1, "highway": null }, "geometry": { "type": "Point", "coordinates": [ 133.486875700000013, 33.4751285 ] } },
{ "type": "Feature", "properties": { "osmid": 3955403557, "y": 33.4661142, "x": 133.4852645, "street_count": 3, "highway": null }, "geometry": { "type": "Point", "coordinates": [ 133.4852645, 33.4661142 ] } },
{ "type": "Feature", "properties": { "osmid": 4930119018, "y": 33.4646358, "x": 133.4872369, "street_count": 3, "highway": null }, "geometry": { "type": "Point", "coordinates": [ 133.4872369, 33.4646358 ] } },
{ "type": "Feature", "properties": { "osmid": 4930119020, "y": 33.4647332, "x": 133.4872641, "street_count": 4, "highway": null }, "geometry": { "type": "Point", "coordinates": [ 133.4872641, 33.4647332 ] } },
{ "type": "Feature", "properties": { "osmid": 4930123128, "y": 33.4648646, "x": 133.4869807, "street_count": 3, "highway": null }, "geometry": { "type": "Point", "coordinates": [ 133.4869807, 33.4648646 ] } },
{ "type": "Feature", "properties": { "osmid": 4930123130, "y": 33.4648882, "x": 133.4865837, "street_count": 3, "highway": null }, "geometry": { "type": "Point", "coordinates": [ 133.486583700000011, 33.4648882 ] } },
{ "type": "Feature", "properties": { "osmid": 4930123131, "y": 33.464789, "x": 133.4870013, "street_count": 3, "highway": null }, "geometry": { "type": "Point", "coordinates": [ 133.4870013, 33.464789 ] } },
{ "type": "Feature", "properties": { "osmid": 4930123136, "y": 33.4644977, "x": 133.4869699, "street_count": 3, "highway": null }, "geometry": { "type": "Point", "coordinates": [ 133.4869699, 33.4644977 ] } },
{ "type": "Feature", "properties": { "osmid": 4938274304, "y": 33.4688433, "x": 133.4868026, "street_count": 3, "highway": null }, "geometry": { "type": "Point", "coordinates": [ 133.4868026, 33.4688433 ] } },
{ "type": "Feature", "properties": { "osmid": 4938274307, "y": 33.4682812, "x": 133.4864093, "street_count": 3, "highway": null }, "geometry": { "type": "Point", "coordinates": [ 133.4864093, 33.4682812 ] } },
{ "type": "Feature", "properties": { "osmid": 4938274308, "y": 33.4682383, "x": 133.4866893, "street_count": 3, "highway": null }, "geometry": { "type": "Point", "coordinates": [ 133.4866893, 33.4682383 ] } },
{ "type": "Feature", "properties": { "osmid": 4938274310, "y": 33.4683585, "x": 133.4861219, "street_count": 3, "highway": null }, "geometry": { "type": "Point", "coordinates": [ 133.4861219, 33.4683585 ] } },
{ "type": "Feature", "properties": { "osmid": 4938274312, "y": 33.4690435, "x": 133.4855747, "street_count": 3, "highway": null }, "geometry": { "type": "Point", "coordinates": [ 133.4855747, 33.4690435 ] } },
{ "type": "Feature", "properties": { "osmid": 4938274318, "y": 33.4696356, "x": 133.485685, "street_count": 3, "highway": null }, "geometry": { "type": "Point", "coordinates": [ 133.485685, 33.4696356 ] } },
{ "type": "Feature", "properties": { "osmid": 4938274320, "y": 33.4698087, "x": 133.4849274, "street_count": 1, "highway": null }, "geometry": { "type": "Point", "coordinates": [ 133.4849274, 33.4698087 ] } },
{ "type": "Feature", "properties": { "osmid": 4938275721, "y": 33.4712504, "x": 133.4875997, "street_count": 3, "highway": null }, "geometry": { "type": "Point", "coordinates": [ 133.4875997, 33.4712504 ] } },
{ "type": "Feature", "properties": { "osmid": 4938275722, "y": 33.4713948, "x": 133.4866625, "street_count": 1, "highway": null }, "geometry": { "type": "Point", "coordinates": [ 133.4866625, 33.4713948 ] } },
{ "type": "Feature", "properties": { "osmid": 4938275723, "y": 33.4711485, "x": 133.4875675, "street_count": 3, "highway": null }, "geometry": { "type": "Point", "coordinates": [ 133.487567500000011, 33.4711485 ] } },
{ "type": "Feature", "properties": { "osmid": 10284066467, "y": 33.4731821, "x": 133.4949149, "street_count": 3, "highway": null }, "geometry": { "type": "Point", "coordinates": [ 133.4949149, 33.4731821 ] } },
{ "type": "Feature", "properties": { "osmid": 10284066471, "y": 33.4732737, "x": 133.4959983, "street_count": 1, "highway": null }, "geometry": { "type": "Point", "coordinates": [ 133.4959983, 33.4732737 ] } },
{ "type": "Feature", "properties": { "osmid": 10661713452, "y": 33.4783674, "x": 133.4874592, "street_count": 3, "highway": null }, "geometry": { "type": "Point", "coordinates": [ 133.487459199999989, 33.4783674 ] } },
{ "type": "Feature", "properties": { "osmid": 10661713456, "y": 33.477206, "x": 133.4869583, "street_count": 3, "highway": null }, "geometry": { "type": "Point", "coordinates": [ 133.4869583, 33.477206 ] } },
{ "type": "Feature", "properties": { "osmid": 10931858394, "y": 33.4756951, "x": 133.4858355, "street_count": 3, "highway": null }, "geometry": { "type": "Point", "coordinates": [ 133.4858355, 33.4756951 ] } },
{ "type": "Feature", "properties": { "osmid": 10931858396, "y": 33.4758184, "x": 133.4860481, "street_count": 3, "highway": null }, "geometry": { "type": "Point", "coordinates": [ 133.4860481, 33.4758184 ] } },
{ "type": "Feature", "properties": { "osmid": 10931858401, "y": 33.477078, "x": 133.487508, "street_count": 3, "highway": null }, "geometry": { "type": "Point", "coordinates": [ 133.487508, 33.477078 ] } },
{ "type": "Feature", "properties": { "osmid": 10932913068, "y": 33.4754816, "x": 133.4899397, "street_count": 3, "highway": null }, "geometry": { "type": "Point", "coordinates": [ 133.4899397, 33.4754816 ] } },
{ "type": "Feature", "properties": { "osmid": 10932913069, "y": 33.4748371, "x": 133.4896643, "street_count": 1, "highway": null }, "geometry": { "type": "Point", "coordinates": [ 133.489664299999987, 33.4748371 ] } },
{ "type": "Feature", "properties": { "osmid": 11021394521, "y": 33.4700365, "x": 133.4927356, "street_count": 1, "highway": null }, "geometry": { "type": "Point", "coordinates": [ 133.4927356, 33.4700365 ] } },
{ "type": "Feature", "properties": { "osmid": 11021394522, "y": 33.4707662, "x": 133.4923293, "street_count": 4, "highway": null }, "geometry": { "type": "Point", "coordinates": [ 133.4923293, 33.4707662 ] } },
{ "type": "Feature", "properties": { "osmid": 11021401518, "y": 33.4748395, "x": 133.4853837, "street_count": 1, "highway": null }, "geometry": { "type": "Point", "coordinates": [ 133.4853837, 33.4748395 ] } },
{ "type": "Feature", "properties": { "osmid": 11021401519, "y": 33.4755853, "x": 133.4833015, "street_count": 3, "highway": null }, "geometry": { "type": "Point", "coordinates": [ 133.48330150000001, 33.4755853 ] } },
{ "type": "Feature", "properties": { "osmid": 11021401520, "y": 33.4758511, "x": 133.4830396, "street_count": 3, "highway": null }, "geometry": { "type": "Point", "coordinates": [ 133.483039600000012, 33.4758511 ] } },
{ "type": "Feature", "properties": { "osmid": 11021401531, "y": 33.4759751, "x": 133.4815991, "street_count": 1, "highway": null }, "geometry": { "type": "Point", "coordinates": [ 133.481599100000011, 33.4759751 ] } },
{ "type": "Feature", "properties": { "osmid": 11055030515, "y": 33.4740465, "x": 133.4948031, "street_count": 3, "highway": null }, "geometry": { "type": "Point", "coordinates": [ 133.494803100000013, 33.4740465 ] } },
{ "type": "Feature", "properties": { "osmid": 11055030521, "y": 33.4751092, "x": 133.494731, "street_count": 1, "highway": null }, "geometry": { "type": "Point", "coordinates": [ 133.494731, 33.4751092 ] } }
]
}
