{
"type": "FeatureCollection",
"name": "Gnodes",
"crs": { "type": "name", "properties": { "name": "urn:ogc:def:crs:OGC:1.3:CRS84" } },
"features": [
{ "type": "Feature", "properties": { "osmid": 262314447, "y": 33.4887459, "x": 133.5488879, "highway": "traffic_signals", "street_count": 3 }, "geometry": { "type": "Point", "coordinates": [ 133.548887900000011, 33.4887459 ] } },
{ "type": "Feature", "properties": { "osmid": 411228988, "y": 33.4855014, "x": 133.539159, "highway": "traffic_signals", "street_count": 3 }, "geometry": { "type": "Point", "coordinates": [ 133.539159, 33.4855014 ] } },
{ "type": "Feature", "properties": { "osmid": 564442848, "y": 33.4928172, "x": 133.5397335, "highway": null, "street_count": 3 }, "geometry": { "type": "Point", "coordinates": [ 133.539733500000011, 33.4928172 ] } },
{ "type": "Feature", "properties": { "osmid": 564442850, "y": 33.4928069, "x": 133.5402124, "highway": null, "street_count": 3 }, "geometry": { "type": "Point", "coordinates": [ 133.5402124, 33.4928069 ] } },
{ "type": "Feature", "properties": { "osmid": 564442852, "y": 33.4927432, "x": 133.5409471, "highway": null, "street_count": 4 }, "geometry": { "type": "Point", "coordinates": [ 133.540947100000011, 33.4927432 ] } },
{ "type": "Feature", "properties": { "osmid": 564442858, "y": 33.4929233, "x": 133.5427433, "highway": null, "street_count": 3 }, "geometry": { "type": "Point", "coordinates": [ 133.542743300000012, 33.4929233 ] } },
{ "type": "Feature", "properties": { "osmid": 564465045, "y": 33.4866456, "x": 133.5424438, "highway": null, "street_count": 3 }, "geometry": { "type": "Point", "coordinates": [ 133.5424438, 33.4866456 ] } },
{ "type": "Feature", "properties": { "osmid": 564465050, "y": 33.4875612, "x": 133.5421326, "highway": null, "street_count": 4 }, "geometry": { "type": "Point", "coordinates": [ 133.5421326, 33.4875612 ] } },
{ "type": "Feature", "properties": { "osmid": 564465052, "y": 33.4888325, "x": 133.5415237, "highway": null, "street_count": 3 }, "geometry": { "type": "Point", "coordinates": [ 133.5415237, 33.4888325 ] } },
{ "type": "Feature", "properties": { "osmid": 564465059, "y": 33.489835, "x": 133.5408796, "highway": null, "street_count": 3 }, "geometry": { "type": "Point", "coordinates": [ 133.540879600000011, 33.489835 ] } },
{ "type": "Feature", "properties": { "osmid": 564465061, "y": 33.4903978, "x": 133.5404038, "highway": null, "street_count": 4 }, "geometry": { "type": "Point", "coordinates": [ 133.5404038, 33.4903978 ] } },
{ "type": "Feature", "properties": { "osmid": 564465065, "y": 33.490951, "x": 133.540155, "highway": null, "street_count": 4 }, "geometry": { "type": "Point", "coordinates": [ 133.540155, 33.490951 ] } },
{ "type": "Feature", "properties": { "osmid": 564465067, "y": 33.492729, "x": 133.5393818, "highway": null, "street_count": 4 }, "geometry": { "type": "Point", "coordinates": [ 133.5393818, 33.492729 ] } },
{ "type": "Feature", "properties": { "osmid": 769146737, "y": 33.4857935, "x": 133.538992, "highway": null, "street_count": 4 }, "geometry": { "type": "Point", "coordinates": [ 133.538992, 33.4857935 ] } },
{ "type": "Feature", "properties": { "osmid": 769146914, "y": 33.4951005, "x": 133.5335596, "highway": null, "street_count": 3 }, "geometry": { "type": "Point", "coordinates": [ 133.5335596, 33.4951005 ] } },
{ "type": "Feature", "properties": { "osmid": 1085591315, "y": 33.4888587, "x": 133.5488324, "highway": "crossing", "street_count": 4 }, "geometry": { "type": "Point", "coordinates": [ 133.5488324, 33.4888587 ] } },
{ "type": "Feature", "properties": { "osmid": 1431444606, "y": 33.4847765, "x": 133.5369601, "highway": null, "street_count": 3 }, "geometry": { "type": "Point", "coordinates": [ 133.536960099999988, 33.4847765 ] } },
{ "type": "Feature", "properties": { "osmid": 1431444609, "y": 33.4848156, "x": 133.5369558, "highway": null, "street_count": 4 }, "geometry": { "type": "Point", "coordinates": [ 133.536955799999987, 33.4848156 ] } },
{ "type": "Feature", "properties": { "osmid": 1431444615, "y": 33.4849859, "x": 133.5370354, "highway": null, "street_count": 3 }, "geometry": { "type": "Point", "coordinates": [ 133.5370354, 33.4849859 ] } },
{ "type": "Feature", "properties": { "osmid": 1431444628, "y": 33.4867799, "x": 133.5383691, "highway": null, "street_count": 4 }, "geometry": { "type": "Point", "coordinates": [ 133.538369100000011, 33.4867799 ] } },
{ "type": "Feature", "properties": { "osmid": 1431444630, "y": 33.4869673, "x": 133.5384909, "highway": "crossing", "street_count": 4 }, "geometry": { "type": "Point", "coordinates": [ 133.5384909, 33.4869673 ] } },
{ "type": "Feature", "properties": { "osmid": 1431444635, "y": 33.4871767, "x": 133.5387396, "highway": null, "street_count": 3 }, "geometry": { "type": "Point", "coordinates": [ 133.538739600000014, 33.4871767 ] } },
{ "type": "Feature", "properties": { "osmid": 1431444644, "y": 33.487962, "x": 133.5398404, "highway": null, "street_count": 3 }, "geometry": { "type": "Point", "coordinates": [ 133.5398404, 33.487962 ] } },
{ "type": "Feature", "properties": { "osmid": 1431444647, "y": 33.4880711, "x": 133.5399944, "highway": null, "street_count": 3 }, "geometry": { "type": "Point", "coordinates": [ 133.539994400000012, 33.4880711 ] } },
{ "type": "Feature", "properties": { "osmid": 1431444655, "y": 33.488678, "x": 133.5406998, "highway": null, "street_count": 3 }, "geometry": { "type": "Point", "coordinates": [ 133.5406998, 33.488678 ] } },
{ "type": "Feature", "properties": { "osmid": 1431444659, "y": 33.4885673, "x": 133.5382088, "highway": null, "street_count": 3 }, "geometry": { "type": "Point", "coordinates": [ 133.5382088, 33.4885673 ] } },
{ "type": "Feature", "properties": { "osmid": 1431444676, "y": 33.4888714, "x": 133.5382003, "highway": null, "street_count": 3 }, "geometry": { "type": "Point", "coordinates": [ 133.5382003, 33.4888714 ] } },
{ "type": "Feature", "properties": { "osmid": 1431444704, "y": 33.4891984, "x": 133.5413426, "highway": null, "street_count": 5 }, "geometry": { "type": "Point", "coordinates": [ 133.5413426, 33.4891984 ] } },
{ "type": "Feature", "properties": { "osmid": 1431444730, "y": 33.4897049, "x": 133.5388135, "highway": null, "street_count": 3 }, "geometry": { "type": "Point", "coordinates": [ 133.5388135, 33.4897049 ] } },
{ "type": "Feature", "properties": { "osmid": 1431444733, "y": 33.4897902, "x": 133.5424057, "highway": null, "street_count": 4 }, "geometry": { "type": "Point", "coordinates": [ 133.542405699999989, 33.4897902 ] } },
{ "type": "Feature", "properties": { "osmid": 1431444750, "y": 33.4903495, "x": 133.5437629, "highway": null, "street_count": 3 }, "geometry": { "type": "Point", "coordinates": [ 133.5437629, 33.4903495 ] } },
{ "type": "Feature", "properties": { "osmid": 1431444756, "y": 33.4906482, "x": 133.5447389, "highway": null, "street_count": 3 }, "geometry": { "type": "Point", "coordinates": [ 133.5447389, 33.4906482 ] } },
{ "type": "Feature", "properties": { "osmid": 1431444759, "y": 33.4906365, "x": 133.5367191, "highway": null, "street_count": 3 }, "geometry": { "type": "Point", "coordinates": [ 133.5367191, 33.4906365 ] } },
{ "type": "Feature", "properties": { "osmid": 1431444766, "y": 33.490824, "x": 133.545579, "highway": null, "street_count": 4 }, "geometry": { "type": "Point", "coordinates": [ 133.545579, 33.490824 ] } },
{ "type": "Feature", "properties": { "osmid": 1431444776, "y": 33.4908575, "x": 133.5477421, "highway": null, "street_count": 3 }, "geometry": { "type": "Point", "coordinates": [ 133.5477421, 33.4908575 ] } },
{ "type": "Feature", "properties": { "osmid": 1431444788, "y": 33.4911078, "x": 133.5377936, "highway": null, "street_count": 4 }, "geometry": { "type": "Point", "coordinates": [ 133.537793599999986, 33.4911078 ] } },
{ "type": "Feature", "properties": { "osmid": 1431444798, "y": 33.4911702, "x": 133.547189, "highway": null, "street_count": 3 }, "geometry": { "type": "Point", "coordinates": [ 133.547189, 33.4911702 ] } },
{ "type": "Feature", "properties": { "osmid": 1431444805, "y": 33.4912086, "x": 133.5383585, "highway": null, "street_count": 3 }, "geometry": { "type": "Point", "coordinates": [ 133.538358499999987, 33.4912086 ] } },
{ "type": "Feature", "properties": { "osmid": 1431444811, "y": 33.4912374, "x": 133.5405142, "highway": null, "street_count": 3 }, "geometry": { "type": "Point", "coordinates": [ 133.5405142, 33.4912374 ] } },
{ "type": "Feature", "properties": { "osmid": 1431444813, "y": 33.4912511, "x": 133.5475556, "highway": null, "street_count": 3 }, "geometry": { "type": "Point", "coordinates": [ 133.54755560000001, 33.4912511 ] } },
{ "type": "Feature", "properties": { "osmid": 1431444817, "y": 33.4912623, "x": 133.5383298, "highway": null, "street_count": 3 }, "geometry": { "type": "Point", "coordinates": [ 133.538329800000014, 33.4912623 ] } },
{ "type": "Feature", "properties": { "osmid": 1431444819, "y": 33.4913466, "x": 133.5475305, "highway": null, "street_count": 3 }, "geometry": { "type": "Point", "coordinates": [ 133.5475305, 33.4913466 ] } },
{ "type": "Feature", "properties": { "osmid": 1431444823, "y": 33.4914248, "x": 133.5382543, "highway": null, "street_count": 3 }, "geometry": { "type": "Point", "coordinates": [ 133.5382543, 33.4914248 ] } },
{ "type": "Feature", "properties": { "osmid": 1431444825, "y": 33.4917891, "x": 133.5379837, "highway": null, "street_count": 3 }, "geometry": { "type": "Point", "coordinates": [ 133.537983700000012, 33.4917891 ] } },
{ "type": "Feature", "properties": { "osmid": 1431444827, "y": 33.4914425, "x": 133.5408159, "highway": null, "street_count": 3 }, "geometry": { "type": "Point", "coordinates": [ 133.540815900000013, 33.4914425 ] } },
{ "type": "Feature", "properties": { "osmid": 1431444829, "y": 33.4915486, "x": 133.5356808, "highway": null, "street_count": 4 }, "geometry": { "type": "Point", "coordinates": [ 133.5356808, 33.4915486 ] } },
{ "type": "Feature", "properties": { "osmid": 1431444832, "y": 33.4915934, "x": 133.5360796, "highway": null, "street_count": 3 }, "geometry": { "type": "Point", "coordinates": [ 133.5360796, 33.4915934 ] } },
{ "type": "Feature", "properties": { "osmid": 1431444836, "y": 33.4918824, "x": 133.5372278, "highway": null, "street_count": 3 }, "geometry": { "type": "Point", "coordinates": [ 133.537227800000011, 33.4918824 ] } },
{ "type": "Feature", "properties": { "osmid": 1431444846, "y": 33.491613, "x": 133.5388526, "highway": null, "street_count": 4 }, "geometry": { "type": "Point", "coordinates": [ 133.538852600000013, 33.491613 ] } },
{ "type": "Feature", "properties": { "osmid": 1431444863, "y": 33.4917167, "x": 133.5412107, "highway": null, "street_count": 3 }, "geometry": { "type": "Point", "coordinates": [ 133.5412107, 33.4917167 ] } },
{ "type": "Feature", "properties": { "osmid": 1431444892, "y": 33.4919439, "x": 133.5397359, "highway": null, "street_count": 3 }, "geometry": { "type": "Point", "coordinates": [ 133.539735900000011, 33.4919439 ] } },
{ "type": "Feature", "properties": { "osmid": 1431444905, "y": 33.4921062, "x": 133.5361494, "highway": null, "street_count": 3 }, "geometry": { "type": "Point", "coordinates": [ 133.5361494, 33.4921062 ] } },
{ "type": "Feature", "properties": { "osmid": 1431444911, "y": 33.4921447, "x": 133.5416996, "highway": null, "street_count": 4 }, "geometry": { "type": "Point", "coordinates": [ 133.541699599999987, 33.4921447 ] } },
{ "type": "Feature", "properties": { "osmid": 1431445005, "y": 33.4929302, "x": 133.5455776, "highway": null, "street_count": 3 }, "geometry": { "type": "Point", "coordinates": [ 133.5455776, 33.4929302 ] } },
{ "type": "Feature", "properties": { "osmid": 1431445009, "y": 33.4930321, "x": 133.5392329, "highway": null, "street_count": 3 }, "geometry": { "type": "Point", "coordinates": [ 133.5392329, 33.4930321 ] } },
{ "type": "Feature", "properties": { "osmid": 1431445026, "y": 33.4931566, "x": 133.5391155, "highway": null, "street_count": 3 }, "geometry": { "type": "Point", "coordinates": [ 133.5391155, 33.4931566 ] } },
{ "type": "Feature", "properties": { "osmid": 1431445037, "y": 33.4932335, "x": 133.5452073, "highway": null, "street_count": 3 }, "geometry": { "type": "Point", "coordinates": [ 133.545207299999987, 33.4932335 ] } },
{ "type": "Feature", "properties": { "osmid": 1431445041, "y": 33.4933059, "x": 133.5388738, "highway": null, "street_count": 3 }, "geometry": { "type": "Point", "coordinates": [ 133.5388738, 33.4933059 ] } },
{ "type": "Feature", "properties": { "osmid": 1431445046, "y": 33.4933204, "x": 133.5388065, "highway": null, "street_count": 3 }, "geometry": { "type": "Point", "coordinates": [ 133.5388065, 33.4933204 ] } },
{ "type": "Feature", "properties": { "osmid": 1431445051, "y": 33.4934829, "x": 133.545043, "highway": null, "street_count": 3 }, "geometry": { "type": "Point", "coordinates": [ 133.545043, 33.4934829 ] } },
{ "type": "Feature", "properties": { "osmid": 1431445063, "y": 33.4935663, "x": 133.5385559, "highway": null, "street_count": 3 }, "geometry": { "type": "Point", "coordinates": [ 133.5385559, 33.4935663 ] } },
{ "type": "Feature", "properties": { "osmid": 1431445100, "y": 33.4940491, "x": 133.5383522, "highway": null, "street_count": 3 }, "geometry": { "type": "Point", "coordinates": [ 133.5383522, 33.4940491 ] } },
{ "type": "Feature", "properties": { "osmid": 1431445117, "y": 33.4941415, "x": 133.5383265, "highway": null, "street_count": 3 }, "geometry": { "type": "Point", "coordinates": [ 133.538326500000011, 33.4941415 ] } },
{ "type": "Feature", "properties": { "osmid": 1431445120, "y": 33.4942683, "x": 133.5445164, "highway": null, "street_count": 3 }, "geometry": { "type": "Point", "coordinates": [ 133.5445164, 33.4942683 ] } },
{ "type": "Feature", "properties": { "osmid": 1431445147, "y": 33.4945209, "x": 133.5382519, "highway": null, "street_count": 3 }, "geometry": { "type": "Point", "coordinates": [ 133.5382519, 33.4945209 ] } },
{ "type": "Feature", "properties": { "osmid": 1431445200, "y": 33.4947704, "x": 133.5380646, "highway": null, "street_count": 3 }, "geometry": { "type": "Point", "coordinates": [ 133.538064600000013, 33.4947704 ] } },
{ "type": "Feature", "properties": { "osmid": 1431984860, "y": 33.4951217, "x": 133.5336701, "highway": "crossing", "street_count": 4 }, "geometry": { "type": "Point", "coordinates": [ 133.5336701, 33.4951217 ] } },
{ "type": "Feature", "properties": { "osmid": 1431984872, "y": 33.4954206, "x": 133.5344331, "highway": null, "street_count": 3 }, "geometry": { "type": "Point", "coordinates": [ 133.5344331, 33.4954206 ] } },
{ "type": "Feature", "properties": { "osmid": 1431985063, "y": 33.499098, "x": 133.5390414, "highway": null, "street_count": 3 }, "geometry": { "type": "Point", "coordinates": [ 133.5390414, 33.499098 ] } },
{ "type": "Feature", "properties": { "osmid": 1557770226, "y": 33.4845798, "x": 133.5365237, "highway": null, "street_count": 3 }, "geometry": { "type": "Point", "coordinates": [ 133.5365237, 33.4845798 ] } },
{ "type": "Feature", "properties": { "osmid": 1557770403, "y": 33.4859422, "x": 133.5394923, "highway": null, "street_count": 3 }, "geometry": { "type": "Point", "coordinates": [ 133.5394923, 33.4859422 ] } },
{ "type": "Feature", "properties": { "osmid": 1557770479, "y": 33.4866178, "x": 133.5410967, "highway": null, "street_count": 3 }, "geometry": { "type": "Point", "coordinates": [ 133.5410967, 33.4866178 ] } },
{ "type": "Feature", "properties": { "osmid": 1557770489, "y": 33.4867806, "x": 133.5416348, "highway": null, "street_count": 3 }, "geometry": { "type": "Point", "coordinates": [ 133.5416348, 33.4867806 ] } },
{ "type": "Feature", "properties": { "osmid": 1557770523, "y": 33.4870119, "x": 133.5423201, "highway": null, "street_count": 4 }, "geometry": { "type": "Point", "coordinates": [ 133.542320100000012, 33.4870119 ] } },
{ "type": "Feature", "properties": { "osmid": 1557770535, "y": 33.4870974, "x": 133.540876, "highway": null, "street_count": 4 }, "geometry": { "type": "Point", "coordinates": [ 133.540876, 33.4870974 ] } },
{ "type": "Feature", "properties": { "osmid": 1557770566, "y": 33.487271, "x": 133.5413716, "highway": null, "street_count": 3 }, "geometry": { "type": "Point", "coordinates": [ 133.5413716, 33.487271 ] } },
{ "type": "Feature", "properties": { "osmid": 1557770590, "y": 33.4873963, "x": 133.5417046, "highway": null, "street_count": 3 }, "geometry": { "type": "Point", "coordinates": [ 133.5417046, 33.4873963 ] } },
{ "type": "Feature", "properties": { "osmid": 1557770618, "y": 33.4876649, "x": 133.542512, "highway": null, "street_count": 3 }, "geometry": { "type": "Point", "coordinates": [ 133.542512, 33.4876649 ] } },
{ "type": "Feature", "properties": { "osmid": 1557770626, "y": 33.4876823, "x": 133.5445298, "highway": null, "street_count": 3 }, "geometry": { "type": "Point", "coordinates": [ 133.5445298, 33.4876823 ] } },
{ "type": "Feature", "properties": { "osmid": 1557770630, "y": 33.4877895, "x": 133.5428934, "highway": null, "street_count": 3 }, "geometry": { "type": "Point", "coordinates": [ 133.5428934, 33.4877895 ] } },
{ "type": "Feature", "properties": { "osmid": 1557770642, "y": 33.4878335, "x": 133.5430374, "highway": null, "street_count": 3 }, "geometry": { "type": "Point", "coordinates": [ 133.5430374, 33.4878335 ] } },
{ "type": "Feature", "properties": { "osmid": 1557770652, "y": 33.4880218, "x": 133.5435691, "highway": null, "street_count": 3 }, "geometry": { "type": "Point", "coordinates": [ 133.543569100000013, 33.4880218 ] } },
{ "type": "Feature", "properties": { "osmid": 1557770660, "y": 33.4881132, "x": 133.5404349, "highway": null, "street_count": 4 }, "geometry": { "type": "Point", "coordinates": [ 133.5404349, 33.4881132 ] } },
{ "type": "Feature", "properties": { "osmid": 1557770695, "y": 33.4882698, "x": 133.5441782, "highway": null, "street_count": 4 }, "geometry": { "type": "Point", "coordinates": [ 133.5441782, 33.4882698 ] } },
{ "type": "Feature", "properties": { "osmid": 1557770712, "y": 33.4883677, "x": 133.5403162, "highway": null, "street_count": 4 }, "geometry": { "type": "Point", "coordinates": [ 133.5403162, 33.4883677 ] } },
{ "type": "Feature", "properties": { "osmid": 1557770741, "y": 33.4884968, "x": 133.5467754, "highway": null, "street_count": 3 }, "geometry": { "type": "Point", "coordinates": [ 133.5467754, 33.4884968 ] } },
{ "type": "Feature", "properties": { "osmid": 1557770759, "y": 33.4887854, "x": 133.5400438, "highway": null, "street_count": 3 }, "geometry": { "type": "Point", "coordinates": [ 133.5400438, 33.4887854 ] } },
{ "type": "Feature", "properties": { "osmid": 1557770770, "y": 33.4887462, "x": 133.5400885, "highway": null, "street_count": 3 }, "geometry": { "type": "Point", "coordinates": [ 133.5400885, 33.4887462 ] } },
{ "type": "Feature", "properties": { "osmid": 1557770774, "y": 33.4886742, "x": 133.5439704, "highway": null, "street_count": 3 }, "geometry": { "type": "Point", "coordinates": [ 133.5439704, 33.4886742 ] } },
{ "type": "Feature", "properties": { "osmid": 1557770783, "y": 33.4891775, "x": 133.5436772, "highway": null, "street_count": 4 }, "geometry": { "type": "Point", "coordinates": [ 133.5436772, 33.4891775 ] } },
{ "type": "Feature", "properties": { "osmid": 1557770788, "y": 33.4889243, "x": 133.5423611, "highway": null, "street_count": 3 }, "geometry": { "type": "Point", "coordinates": [ 133.5423611, 33.4889243 ] } },
{ "type": "Feature", "properties": { "osmid": 1557770796, "y": 33.4888647, "x": 133.5404798, "highway": null, "street_count": 3 }, "geometry": { "type": "Point", "coordinates": [ 133.540479800000014, 33.4888647 ] } },
{ "type": "Feature", "properties": { "osmid": 1557770801, "y": 33.4887705, "x": 133.5424352, "highway": null, "street_count": 3 }, "geometry": { "type": "Point", "coordinates": [ 133.5424352, 33.4887705 ] } },
{ "type": "Feature", "properties": { "osmid": 1557770819, "y": 33.489017, "x": 133.5390002, "highway": null, "street_count": 3 }, "geometry": { "type": "Point", "coordinates": [ 133.5390002, 33.489017 ] } },
{ "type": "Feature", "properties": { "osmid": 1557770829, "y": 33.4890458, "x": 133.5487335, "highway": null, "street_count": 4 }, "geometry": { "type": "Point", "coordinates": [ 133.5487335, 33.4890458 ] } },
{ "type": "Feature", "properties": { "osmid": 1557770835, "y": 33.4891458, "x": 133.5464284, "highway": null, "street_count": 3 }, "geometry": { "type": "Point", "coordinates": [ 133.5464284, 33.4891458 ] } },
{ "type": "Feature", "properties": { "osmid": 1557770837, "y": 33.4890949, "x": 133.543394, "highway": null, "street_count": 3 }, "geometry": { "type": "Point", "coordinates": [ 133.543394, 33.4890949 ] } },
{ "type": "Feature", "properties": { "osmid": 1557770840, "y": 33.489108, "x": 133.5422686, "highway": null, "street_count": 4 }, "geometry": { "type": "Point", "coordinates": [ 133.5422686, 33.489108 ] } },
{ "type": "Feature", "properties": { "osmid": 1557770846, "y": 33.4895678, "x": 133.542012, "highway": null, "street_count": 3 }, "geometry": { "type": "Point", "coordinates": [ 133.542012, 33.4895678 ] } },
{ "type": "Feature", "properties": { "osmid": 1557770851, "y": 33.4892887, "x": 133.5470582, "highway": null, "street_count": 4 }, "geometry": { "type": "Point", "coordinates": [ 133.5470582, 33.4892887 ] } },
{ "type": "Feature", "properties": { "osmid": 1557770862, "y": 33.4892328, "x": 133.5396786, "highway": null, "street_count": 3 }, "geometry": { "type": "Point", "coordinates": [ 133.5396786, 33.4892328 ] } },
{ "type": "Feature", "properties": { "osmid": 1557770878, "y": 33.4892688, "x": 133.5433082, "highway": null, "street_count": 3 }, "geometry": { "type": "Point", "coordinates": [ 133.543308200000013, 33.4892688 ] } },
{ "type": "Feature", "properties": { "osmid": 1557770889, "y": 33.4894478, "x": 133.5400774, "highway": null, "street_count": 3 }, "geometry": { "type": "Point", "coordinates": [ 133.5400774, 33.4894478 ] } },
{ "type": "Feature", "properties": { "osmid": 1557770907, "y": 33.4894416, "x": 133.5432155, "highway": null, "street_count": 3 }, "geometry": { "type": "Point", "coordinates": [ 133.5432155, 33.4894416 ] } },
{ "type": "Feature", "properties": { "osmid": 1557770912, "y": 33.4893833, "x": 133.544357, "highway": null, "street_count": 3 }, "geometry": { "type": "Point", "coordinates": [ 133.544357, 33.4893833 ] } },
{ "type": "Feature", "properties": { "osmid": 1557770914, "y": 33.489493, "x": 133.5435358, "highway": null, "street_count": 3 }, "geometry": { "type": "Point", "coordinates": [ 133.5435358, 33.489493 ] } },
{ "type": "Feature", "properties": { "osmid": 1557770921, "y": 33.4895135, "x": 133.5447903, "highway": null, "street_count": 3 }, "geometry": { "type": "Point", "coordinates": [ 133.544790299999988, 33.4895135 ] } },
{ "type": "Feature", "properties": { "osmid": 1557770936, "y": 33.4897765, "x": 133.5417433, "highway": null, "street_count": 3 }, "geometry": { "type": "Point", "coordinates": [ 133.5417433, 33.4897765 ] } },
{ "type": "Feature", "properties": { "osmid": 1557770939, "y": 33.4896739, "x": 133.5442339, "highway": null, "street_count": 3 }, "geometry": { "type": "Point", "coordinates": [ 133.5442339, 33.4896739 ] } },
{ "type": "Feature", "properties": { "osmid": 1557770940, "y": 33.4896369, "x": 133.548405, "highway": null, "street_count": 3 }, "geometry": { "type": "Point", "coordinates": [ 133.548405, 33.4896369 ] } },
{ "type": "Feature", "properties": { "osmid": 1557770941, "y": 33.489695, "x": 133.5384389, "highway": null, "street_count": 3 }, "geometry": { "type": "Point", "coordinates": [ 133.538438899999989, 33.489695 ] } },
{ "type": "Feature", "properties": { "osmid": 1557770956, "y": 33.4897488, "x": 133.5393215, "highway": null, "street_count": 3 }, "geometry": { "type": "Point", "coordinates": [ 133.5393215, 33.4897488 ] } },
{ "type": "Feature", "properties": { "osmid": 1557770970, "y": 33.4898457, "x": 133.5379103, "highway": null, "street_count": 4 }, "geometry": { "type": "Point", "coordinates": [ 133.5379103, 33.4898457 ] } },
{ "type": "Feature", "properties": { "osmid": 1557771008, "y": 33.4899632, "x": 133.5441731, "highway": null, "street_count": 3 }, "geometry": { "type": "Point", "coordinates": [ 133.5441731, 33.4899632 ] } },
{ "type": "Feature", "properties": { "osmid": 1557771012, "y": 33.489883, "x": 133.5460429, "highway": null, "street_count": 4 }, "geometry": { "type": "Point", "coordinates": [ 133.5460429, 33.489883 ] } },
{ "type": "Feature", "properties": { "osmid": 1557771020, "y": 33.4899632, "x": 133.5429585, "highway": null, "street_count": 4 }, "geometry": { "type": "Point", "coordinates": [ 133.5429585, 33.4899632 ] } },
{ "type": "Feature", "properties": { "osmid": 1557771022, "y": 33.4899634, "x": 133.5390643, "highway": null, "street_count": 4 }, "geometry": { "type": "Point", "coordinates": [ 133.5390643, 33.4899634 ] } },
{ "type": "Feature", "properties": { "osmid": 1557771046, "y": 33.49006, "x": 133.5433024, "highway": null, "street_count": 4 }, "geometry": { "type": "Point", "coordinates": [ 133.543302399999988, 33.49006 ] } },
{ "type": "Feature", "properties": { "osmid": 1557771048, "y": 33.4900821, "x": 133.5467352, "highway": null, "street_count": 3 }, "geometry": { "type": "Point", "coordinates": [ 133.5467352, 33.4900821 ] } },
{ "type": "Feature", "properties": { "osmid": 1557771052, "y": 33.490158, "x": 133.5372136, "highway": null, "street_count": 3 }, "geometry": { "type": "Point", "coordinates": [ 133.5372136, 33.490158 ] } },
{ "type": "Feature", "properties": { "osmid": 1557771071, "y": 33.4901616, "x": 133.5387979, "highway": null, "street_count": 3 }, "geometry": { "type": "Point", "coordinates": [ 133.5387979, 33.4901616 ] } },
{ "type": "Feature", "properties": { "osmid": 1557771074, "y": 33.4901983, "x": 133.545868, "highway": null, "street_count": 3 }, "geometry": { "type": "Point", "coordinates": [ 133.545868, 33.4901983 ] } },
{ "type": "Feature", "properties": { "osmid": 1557771076, "y": 33.490254, "x": 133.547322, "highway": null, "street_count": 3 }, "geometry": { "type": "Point", "coordinates": [ 133.547322, 33.490254 ] } },
{ "type": "Feature", "properties": { "osmid": 1557771109, "y": 33.4904188, "x": 133.5479844, "highway": null, "street_count": 3 }, "geometry": { "type": "Point", "coordinates": [ 133.5479844, 33.4904188 ] } },
{ "type": "Feature", "properties": { "osmid": 1557771113, "y": 33.4904036, "x": 133.5439243, "highway": null, "street_count": 4 }, "geometry": { "type": "Point", "coordinates": [ 133.543924299999986, 33.4904036 ] } },
{ "type": "Feature", "properties": { "osmid": 1557771122, "y": 33.4906966, "x": 133.5428761, "highway": null, "street_count": 3 }, "geometry": { "type": "Point", "coordinates": [ 133.5428761, 33.4906966 ] } },
{ "type": "Feature", "properties": { "osmid": 1557771131, "y": 33.4910895, "x": 133.5425902, "highway": null, "street_count": 4 }, "geometry": { "type": "Point", "coordinates": [ 133.5425902, 33.4910895 ] } },
{ "type": "Feature", "properties": { "osmid": 1557771145, "y": 33.4906333, "x": 133.5423048, "highway": null, "street_count": 3 }, "geometry": { "type": "Point", "coordinates": [ 133.542304800000011, 33.4906333 ] } },
{ "type": "Feature", "properties": { "osmid": 1557771154, "y": 33.4908307, "x": 133.5385276, "highway": null, "street_count": 3 }, "geometry": { "type": "Point", "coordinates": [ 133.5385276, 33.4908307 ] } },
{ "type": "Feature", "properties": { "osmid": 1557771161, "y": 33.4907667, "x": 133.5423914, "highway": null, "street_count": 3 }, "geometry": { "type": "Point", "coordinates": [ 133.542391400000014, 33.4907667 ] } },
{ "type": "Feature", "properties": { "osmid": 1557771216, "y": 33.4910798, "x": 133.5468038, "highway": null, "street_count": 4 }, "geometry": { "type": "Point", "coordinates": [ 133.5468038, 33.4910798 ] } },
{ "type": "Feature", "properties": { "osmid": 1557771241, "y": 33.4912327, "x": 133.547475, "highway": null, "street_count": 3 }, "geometry": { "type": "Point", "coordinates": [ 133.547475, 33.4912327 ] } },
{ "type": "Feature", "properties": { "osmid": 1557771271, "y": 33.4914412, "x": 133.541676, "highway": null, "street_count": 3 }, "geometry": { "type": "Point", "coordinates": [ 133.541676, 33.4914412 ] } },
{ "type": "Feature", "properties": { "osmid": 1557771280, "y": 33.4915718, "x": 133.5347455, "highway": null, "street_count": 3 }, "geometry": { "type": "Point", "coordinates": [ 133.534745500000014, 33.4915718 ] } },
{ "type": "Feature", "properties": { "osmid": 1557771293, "y": 33.4914422, "x": 133.5428541, "highway": null, "street_count": 3 }, "geometry": { "type": "Point", "coordinates": [ 133.5428541, 33.4914422 ] } },
{ "type": "Feature", "properties": { "osmid": 1557771325, "y": 33.4920638, "x": 133.5445869, "highway": null, "street_count": 3 }, "geometry": { "type": "Point", "coordinates": [ 133.544586900000013, 33.4920638 ] } },
{ "type": "Feature", "properties": { "osmid": 1557771326, "y": 33.4917877, "x": 133.5412996, "highway": null, "street_count": 3 }, "geometry": { "type": "Point", "coordinates": [ 133.5412996, 33.4917877 ] } },
{ "type": "Feature", "properties": { "osmid": 1557771334, "y": 33.491779, "x": 133.5440401, "highway": null, "street_count": 4 }, "geometry": { "type": "Point", "coordinates": [ 133.544040099999989, 33.491779 ] } },
{ "type": "Feature", "properties": { "osmid": 1557771343, "y": 33.4920213, "x": 133.543848, "highway": null, "street_count": 4 }, "geometry": { "type": "Point", "coordinates": [ 133.543848, 33.4920213 ] } },
{ "type": "Feature", "properties": { "osmid": 1557771354, "y": 33.4920776, "x": 133.5433546, "highway": null, "street_count": 4 }, "geometry": { "type": "Point", "coordinates": [ 133.543354599999986, 33.4920776 ] } },
{ "type": "Feature", "properties": { "osmid": 1557771362, "y": 33.4920617, "x": 133.5422983, "highway": null, "street_count": 5 }, "geometry": { "type": "Point", "coordinates": [ 133.5422983, 33.4920617 ] } },
{ "type": "Feature", "properties": { "osmid": 1557771380, "y": 33.4920893, "x": 133.5396797, "highway": null, "street_count": 3 }, "geometry": { "type": "Point", "coordinates": [ 133.5396797, 33.4920893 ] } },
{ "type": "Feature", "properties": { "osmid": 1557771387, "y": 33.4921493, "x": 133.5399502, "highway": null, "street_count": 3 }, "geometry": { "type": "Point", "coordinates": [ 133.5399502, 33.4921493 ] } },
{ "type": "Feature", "properties": { "osmid": 1557771393, "y": 33.4920925, "x": 133.5417729, "highway": null, "street_count": 3 }, "geometry": { "type": "Point", "coordinates": [ 133.541772900000012, 33.4920925 ] } },
{ "type": "Feature", "properties": { "osmid": 1557771394, "y": 33.492193, "x": 133.5410466, "highway": null, "street_count": 3 }, "geometry": { "type": "Point", "coordinates": [ 133.541046599999987, 33.492193 ] } },
{ "type": "Feature", "properties": { "osmid": 1557771398, "y": 33.4922666, "x": 133.5409874, "highway": null, "street_count": 3 }, "geometry": { "type": "Point", "coordinates": [ 133.5409874, 33.4922666 ] } },
{ "type": "Feature", "properties": { "osmid": 1557771402, "y": 33.4923203, "x": 133.541651, "highway": null, "street_count": 3 }, "geometry": { "type": "Point", "coordinates": [ 133.541651, 33.4923203 ] } },
{ "type": "Feature", "properties": { "osmid": 1557771404, "y": 33.4922619, "x": 133.5369443, "highway": null, "street_count": 4 }, "geometry": { "type": "Point", "coordinates": [ 133.536944299999988, 33.4922619 ] } },
{ "type": "Feature", "properties": { "osmid": 1557771454, "y": 33.4923884, "x": 133.5376207, "highway": null, "street_count": 4 }, "geometry": { "type": "Point", "coordinates": [ 133.5376207, 33.4923884 ] } },
{ "type": "Feature", "properties": { "osmid": 1557771487, "y": 33.4927023, "x": 133.5439682, "highway": null, "street_count": 3 }, "geometry": { "type": "Point", "coordinates": [ 133.5439682, 33.4927023 ] } },
{ "type": "Feature", "properties": { "osmid": 1557771496, "y": 33.4925842, "x": 133.5352473, "highway": null, "street_count": 3 }, "geometry": { "type": "Point", "coordinates": [ 133.5352473, 33.4925842 ] } },
{ "type": "Feature", "properties": { "osmid": 1557771528, "y": 33.4927872, "x": 133.5416148, "highway": null, "street_count": 3 }, "geometry": { "type": "Point", "coordinates": [ 133.5416148, 33.4927872 ] } },
{ "type": "Feature", "properties": { "osmid": 1557771529, "y": 33.4927692, "x": 133.5439742, "highway": null, "street_count": 3 }, "geometry": { "type": "Point", "coordinates": [ 133.5439742, 33.4927692 ] } },
{ "type": "Feature", "properties": { "osmid": 1557771570, "y": 33.492937, "x": 133.5396913, "highway": null, "street_count": 3 }, "geometry": { "type": "Point", "coordinates": [ 133.539691299999987, 33.492937 ] } },
{ "type": "Feature", "properties": { "osmid": 1557771586, "y": 33.4930576, "x": 133.5429852, "highway": null, "street_count": 4 }, "geometry": { "type": "Point", "coordinates": [ 133.5429852, 33.4930576 ] } },
{ "type": "Feature", "properties": { "osmid": 1557771609, "y": 33.4931564, "x": 133.5376071, "highway": null, "street_count": 3 }, "geometry": { "type": "Point", "coordinates": [ 133.5376071, 33.4931564 ] } },
{ "type": "Feature", "properties": { "osmid": 1557771615, "y": 33.4931378, "x": 133.5409712, "highway": null, "street_count": 4 }, "geometry": { "type": "Point", "coordinates": [ 133.5409712, 33.4931378 ] } },
{ "type": "Feature", "properties": { "osmid": 1557771629, "y": 33.4933081, "x": 133.5378878, "highway": null, "street_count": 3 }, "geometry": { "type": "Point", "coordinates": [ 133.5378878, 33.4933081 ] } },
{ "type": "Feature", "properties": { "osmid": 1557771646, "y": 33.4932802, "x": 133.5371318, "highway": null, "street_count": 3 }, "geometry": { "type": "Point", "coordinates": [ 133.5371318, 33.4932802 ] } },
{ "type": "Feature", "properties": { "osmid": 1557771652, "y": 33.4934329, "x": 133.5379159, "highway": null, "street_count": 3 }, "geometry": { "type": "Point", "coordinates": [ 133.5379159, 33.4934329 ] } },
{ "type": "Feature", "properties": { "osmid": 1557771658, "y": 33.4933415, "x": 133.5367409, "highway": null, "street_count": 3 }, "geometry": { "type": "Point", "coordinates": [ 133.536740900000012, 33.4933415 ] } },
{ "type": "Feature", "properties": { "osmid": 1557771663, "y": 33.4933092, "x": 133.5367335, "highway": null, "street_count": 3 }, "geometry": { "type": "Point", "coordinates": [ 133.5367335, 33.4933092 ] } },
{ "type": "Feature", "properties": { "osmid": 1557771682, "y": 33.4933912, "x": 133.5359838, "highway": null, "street_count": 3 }, "geometry": { "type": "Point", "coordinates": [ 133.5359838, 33.4933912 ] } },
{ "type": "Feature", "properties": { "osmid": 1557771687, "y": 33.4934887, "x": 133.5348937, "highway": null, "street_count": 3 }, "geometry": { "type": "Point", "coordinates": [ 133.5348937, 33.4934887 ] } },
{ "type": "Feature", "properties": { "osmid": 1557771688, "y": 33.4934943, "x": 133.5351924, "highway": null, "street_count": 3 }, "geometry": { "type": "Point", "coordinates": [ 133.5351924, 33.4934943 ] } },
{ "type": "Feature", "properties": { "osmid": 1557771721, "y": 33.4936577, "x": 133.5438581, "highway": null, "street_count": 4 }, "geometry": { "type": "Point", "coordinates": [ 133.5438581, 33.4936577 ] } },
{ "type": "Feature", "properties": { "osmid": 1557771734, "y": 33.4935605, "x": 133.5425892, "highway": null, "street_count": 3 }, "geometry": { "type": "Point", "coordinates": [ 133.5425892, 33.4935605 ] } },
{ "type": "Feature", "properties": { "osmid": 1557771781, "y": 33.493755, "x": 133.5412172, "highway": null, "street_count": 3 }, "geometry": { "type": "Point", "coordinates": [ 133.5412172, 33.493755 ] } },
{ "type": "Feature", "properties": { "osmid": 1557771806, "y": 33.4939528, "x": 133.5368809, "highway": null, "street_count": 3 }, "geometry": { "type": "Point", "coordinates": [ 133.5368809, 33.4939528 ] } },
{ "type": "Feature", "properties": { "osmid": 1557771810, "y": 33.4942244, "x": 133.5396917, "highway": null, "street_count": 3 }, "geometry": { "type": "Point", "coordinates": [ 133.5396917, 33.4942244 ] } },
{ "type": "Feature", "properties": { "osmid": 1557771813, "y": 33.4941681, "x": 133.5389476, "highway": null, "street_count": 3 }, "geometry": { "type": "Point", "coordinates": [ 133.5389476, 33.4941681 ] } },
{ "type": "Feature", "properties": { "osmid": 1557771856, "y": 33.4944513, "x": 133.5370014, "highway": null, "street_count": 3 }, "geometry": { "type": "Point", "coordinates": [ 133.5370014, 33.4944513 ] } },
{ "type": "Feature", "properties": { "osmid": 1557771929, "y": 33.4946427, "x": 133.5346883, "highway": null, "street_count": 3 }, "geometry": { "type": "Point", "coordinates": [ 133.5346883, 33.4946427 ] } },
{ "type": "Feature", "properties": { "osmid": 1557771961, "y": 33.4946163, "x": 133.5394653, "highway": null, "street_count": 3 }, "geometry": { "type": "Point", "coordinates": [ 133.539465299999989, 33.4946163 ] } },
{ "type": "Feature", "properties": { "osmid": 1557772118, "y": 33.4949855, "x": 133.5354944, "highway": null, "street_count": 3 }, "geometry": { "type": "Point", "coordinates": [ 133.5354944, 33.4949855 ] } },
{ "type": "Feature", "properties": { "osmid": 1557772194, "y": 33.4954094, "x": 133.5346077, "highway": null, "street_count": 3 }, "geometry": { "type": "Point", "coordinates": [ 133.5346077, 33.4954094 ] } },
{ "type": "Feature", "properties": { "osmid": 1557772304, "y": 33.4957502, "x": 133.5374642, "highway": null, "street_count": 3 }, "geometry": { "type": "Point", "coordinates": [ 133.537464199999988, 33.4957502 ] } },
{ "type": "Feature", "properties": { "osmid": 1557772346, "y": 33.4958383, "x": 133.5373999, "highway": null, "street_count": 3 }, "geometry": { "type": "Point", "coordinates": [ 133.5373999, 33.4958383 ] } },
{ "type": "Feature", "properties": { "osmid": 1557772363, "y": 33.4960015, "x": 133.5349098, "highway": null, "street_count": 3 }, "geometry": { "type": "Point", "coordinates": [ 133.5349098, 33.4960015 ] } },
{ "type": "Feature", "properties": { "osmid": 1557772378, "y": 33.4960857, "x": 133.535423, "highway": null, "street_count": 3 }, "geometry": { "type": "Point", "coordinates": [ 133.535423, 33.4960857 ] } },
{ "type": "Feature", "properties": { "osmid": 1557772446, "y": 33.4964112, "x": 133.5367932, "highway": null, "street_count": 3 }, "geometry": { "type": "Point", "coordinates": [ 133.5367932, 33.4964112 ] } },
{ "type": "Feature", "properties": { "osmid": 1557772509, "y": 33.496675, "x": 133.5341892, "highway": null, "street_count": 3 }, "geometry": { "type": "Point", "coordinates": [ 133.534189199999986, 33.496675 ] } },
{ "type": "Feature", "properties": { "osmid": 1557772518, "y": 33.496707, "x": 133.5364597, "highway": null, "street_count": 3 }, "geometry": { "type": "Point", "coordinates": [ 133.5364597, 33.496707 ] } },
{ "type": "Feature", "properties": { "osmid": 1557772524, "y": 33.4967729, "x": 133.534718, "highway": null, "street_count": 3 }, "geometry": { "type": "Point", "coordinates": [ 133.534718, 33.4967729 ] } },
{ "type": "Feature", "properties": { "osmid": 1557772539, "y": 33.4968629, "x": 133.5352301, "highway": null, "street_count": 3 }, "geometry": { "type": "Point", "coordinates": [ 133.5352301, 33.4968629 ] } },
{ "type": "Feature", "properties": { "osmid": 1557772595, "y": 33.496631, "x": 133.5369992, "highway": null, "street_count": 3 }, "geometry": { "type": "Point", "coordinates": [ 133.5369992, 33.496631 ] } },
{ "type": "Feature", "properties": { "osmid": 1557772651, "y": 33.4970585, "x": 133.5334268, "highway": null, "street_count": 3 }, "geometry": { "type": "Point", "coordinates": [ 133.5334268, 33.4970585 ] } },
{ "type": "Feature", "properties": { "osmid": 1557772713, "y": 33.4972489, "x": 133.5346075, "highway": null, "street_count": 4 }, "geometry": { "type": "Point", "coordinates": [ 133.5346075, 33.4972489 ] } },
{ "type": "Feature", "properties": { "osmid": 1557772742, "y": 33.4974354, "x": 133.5373709, "highway": null, "street_count": 3 }, "geometry": { "type": "Point", "coordinates": [ 133.537370900000013, 33.4974354 ] } },
{ "type": "Feature", "properties": { "osmid": 1557772772, "y": 33.4974956, "x": 133.5333216, "highway": null, "street_count": 3 }, "geometry": { "type": "Point", "coordinates": [ 133.5333216, 33.4974956 ] } },
{ "type": "Feature", "properties": { "osmid": 1557772781, "y": 33.4975641, "x": 133.5382122, "highway": null, "street_count": 4 }, "geometry": { "type": "Point", "coordinates": [ 133.5382122, 33.4975641 ] } },
{ "type": "Feature", "properties": { "osmid": 1557772792, "y": 33.4975644, "x": 133.5311196, "highway": null, "street_count": 1 }, "geometry": { "type": "Point", "coordinates": [ 133.531119600000011, 33.4975644 ] } },
{ "type": "Feature", "properties": { "osmid": 1557772852, "y": 33.4977859, "x": 133.5322038, "highway": null, "street_count": 3 }, "geometry": { "type": "Point", "coordinates": [ 133.5322038, 33.4977859 ] } },
{ "type": "Feature", "properties": { "osmid": 1557772877, "y": 33.4977095, "x": 133.5373648, "highway": null, "street_count": 3 }, "geometry": { "type": "Point", "coordinates": [ 133.5373648, 33.4977095 ] } },
{ "type": "Feature", "properties": { "osmid": 1557772901, "y": 33.4980377, "x": 133.533178, "highway": null, "street_count": 3 }, "geometry": { "type": "Point", "coordinates": [ 133.533178, 33.4980377 ] } },
{ "type": "Feature", "properties": { "osmid": 1557772927, "y": 33.4979837, "x": 133.5390176, "highway": null, "street_count": 3 }, "geometry": { "type": "Point", "coordinates": [ 133.5390176, 33.4979837 ] } },
{ "type": "Feature", "properties": { "osmid": 1557772957, "y": 33.4983748, "x": 133.5373863, "highway": null, "street_count": 3 }, "geometry": { "type": "Point", "coordinates": [ 133.5373863, 33.4983748 ] } },
{ "type": "Feature", "properties": { "osmid": 1557772958, "y": 33.4981431, "x": 133.5381035, "highway": null, "street_count": 3 }, "geometry": { "type": "Point", "coordinates": [ 133.5381035, 33.4981431 ] } },
{ "type": "Feature", "properties": { "osmid": 1557773052, "y": 33.4982394, "x": 133.539314, "highway": null, "street_count": 3 }, "geometry": { "type": "Point", "coordinates": [ 133.539314, 33.4982394 ] } },
{ "type": "Feature", "properties": { "osmid": 1557773247, "y": 33.4994553, "x": 133.5406692, "highway": null, "street_count": 3 }, "geometry": { "type": "Point", "coordinates": [ 133.5406692, 33.4994553 ] } },
{ "type": "Feature", "properties": { "osmid": 4933375068, "y": 33.48865, "x": 133.5473143, "highway": null, "street_count": 3 }, "geometry": { "type": "Point", "coordinates": [ 133.547314300000011, 33.48865 ] } },
{ "type": "Feature", "properties": { "osmid": 4933375075, "y": 33.4891814, "x": 133.5463982, "highway": null, "street_count": 3 }, "geometry": { "type": "Point", "coordinates": [ 133.5463982, 33.4891814 ] } },
{ "type": "Feature", "properties": { "osmid": 4933375080, "y": 33.4896992, "x": 133.5443196, "highway": null, "street_count": 3 }, "geometry": { "type": "Point", "coordinates": [ 133.5443196, 33.4896992 ] } },
{ "type": "Feature", "properties": { "osmid": 4933375081, "y": 33.4863325, "x": 133.5404844, "highway": null, "street_count": 3 }, "geometry": { "type": "Point", "coordinates": [ 133.5404844, 33.4863325 ] } },
{ "type": "Feature", "properties": { "osmid": 4934700652, "y": 33.4906825, "x": 133.5437169, "highway": null, "street_count": 3 }, "geometry": { "type": "Point", "coordinates": [ 133.5437169, 33.4906825 ] } },
{ "type": "Feature", "properties": { "osmid": 4934700654, "y": 33.4914889, "x": 133.5442673, "highway": null, "street_count": 3 }, "geometry": { "type": "Point", "coordinates": [ 133.5442673, 33.4914889 ] } },
{ "type": "Feature", "properties": { "osmid": 4934700655, "y": 33.4910139, "x": 133.5434633, "highway": null, "street_count": 3 }, "geometry": { "type": "Point", "coordinates": [ 133.543463300000013, 33.4910139 ] } },
{ "type": "Feature", "properties": { "osmid": 4934700656, "y": 33.4910726, "x": 133.5445878, "highway": null, "street_count": 3 }, "geometry": { "type": "Point", "coordinates": [ 133.544587799999988, 33.4910726 ] } },
{ "type": "Feature", "properties": { "osmid": 4934700659, "y": 33.4916525, "x": 133.5438041, "highway": null, "street_count": 3 }, "geometry": { "type": "Point", "coordinates": [ 133.543804099999988, 33.4916525 ] } },
{ "type": "Feature", "properties": { "osmid": 4934700660, "y": 33.4914171, "x": 133.5450733, "highway": null, "street_count": 3 }, "geometry": { "type": "Point", "coordinates": [ 133.545073300000013, 33.4914171 ] } },
{ "type": "Feature", "properties": { "osmid": 4934700663, "y": 33.491893, "x": 133.5442933, "highway": null, "street_count": 4 }, "geometry": { "type": "Point", "coordinates": [ 133.5442933, 33.491893 ] } },
{ "type": "Feature", "properties": { "osmid": 4934700667, "y": 33.4924177, "x": 133.5442699, "highway": null, "street_count": 3 }, "geometry": { "type": "Point", "coordinates": [ 133.544269899999989, 33.4924177 ] } },
{ "type": "Feature", "properties": { "osmid": 4934700670, "y": 33.4927072, "x": 133.5432514, "highway": null, "street_count": 4 }, "geometry": { "type": "Point", "coordinates": [ 133.5432514, 33.4927072 ] } },
{ "type": "Feature", "properties": { "osmid": 4934700671, "y": 33.4923115, "x": 133.5435894, "highway": null, "street_count": 3 }, "geometry": { "type": "Point", "coordinates": [ 133.5435894, 33.4923115 ] } },
{ "type": "Feature", "properties": { "osmid": 4934700675, "y": 33.4914675, "x": 133.5416548, "highway": null, "street_count": 3 }, "geometry": { "type": "Point", "coordinates": [ 133.5416548, 33.4914675 ] } },
{ "type": "Feature", "properties": { "osmid": 4934700677, "y": 33.4928936, "x": 133.5423357, "highway": null, "street_count": 3 }, "geometry": { "type": "Point", "coordinates": [ 133.5423357, 33.4928936 ] } },
{ "type": "Feature", "properties": { "osmid": 4934700678, "y": 33.4934594, "x": 133.5421564, "highway": null, "street_count": 3 }, "geometry": { "type": "Point", "coordinates": [ 133.54215640000001, 33.4934594 ] } },
{ "type": "Feature", "properties": { "osmid": 4934700679, "y": 33.4932042, "x": 133.5403111, "highway": null, "street_count": 3 }, "geometry": { "type": "Point", "coordinates": [ 133.5403111, 33.4932042 ] } },
{ "type": "Feature", "properties": { "osmid": 4934700681, "y": 33.4933886, "x": 133.5410192, "highway": null, "street_count": 3 }, "geometry": { "type": "Point", "coordinates": [ 133.5410192, 33.4933886 ] } },
{ "type": "Feature", "properties": { "osmid": 4934700684, "y": 33.4934605, "x": 133.5403499, "highway": null, "street_count": 3 }, "geometry": { "type": "Point", "coordinates": [ 133.5403499, 33.4934605 ] } },
{ "type": "Feature", "properties": { "osmid": 4934700686, "y": 33.4938832, "x": 133.5403875, "highway": null, "street_count": 3 }, "geometry": { "type": "Point", "coordinates": [ 133.5403875, 33.4938832 ] } },
{ "type": "Feature", "properties": { "osmid": 4934700690, "y": 33.493559, "x": 133.5410952, "highway": null, "street_count": 4 }, "geometry": { "type": "Point", "coordinates": [ 133.5410952, 33.493559 ] } },
{ "type": "Feature", "properties": { "osmid": 4934700694, "y": 33.4934113, "x": 133.5417996, "highway": null, "street_count": 3 }, "geometry": { "type": "Point", "coordinates": [ 133.5417996, 33.4934113 ] } },
{ "type": "Feature", "properties": { "osmid": 4934700695, "y": 33.4928321, "x": 133.5419026, "highway": null, "street_count": 3 }, "geometry": { "type": "Point", "coordinates": [ 133.541902599999986, 33.4928321 ] } },
{ "type": "Feature", "properties": { "osmid": 4934700696, "y": 33.4931764, "x": 133.5418225, "highway": null, "street_count": 3 }, "geometry": { "type": "Point", "coordinates": [ 133.5418225, 33.4931764 ] } },
{ "type": "Feature", "properties": { "osmid": 4934700700, "y": 33.4922561, "x": 133.5405762, "highway": null, "street_count": 3 }, "geometry": { "type": "Point", "coordinates": [ 133.5405762, 33.4922561 ] } },
{ "type": "Feature", "properties": { "osmid": 4934700708, "y": 33.4933681, "x": 133.5395441, "highway": null, "street_count": 3 }, "geometry": { "type": "Point", "coordinates": [ 133.5395441, 33.4933681 ] } },
{ "type": "Feature", "properties": { "osmid": 4934700712, "y": 33.4925244, "x": 133.5401943, "highway": null, "street_count": 3 }, "geometry": { "type": "Point", "coordinates": [ 133.5401943, 33.4925244 ] } },
{ "type": "Feature", "properties": { "osmid": 4934700716, "y": 33.4918432, "x": 133.5420102, "highway": null, "street_count": 4 }, "geometry": { "type": "Point", "coordinates": [ 133.5420102, 33.4918432 ] } },
{ "type": "Feature", "properties": { "osmid": 4934700718, "y": 33.4909737, "x": 133.5406948, "highway": null, "street_count": 3 }, "geometry": { "type": "Point", "coordinates": [ 133.540694800000011, 33.4909737 ] } },
{ "type": "Feature", "properties": { "osmid": 4934700821, "y": 33.492191, "x": 133.5401946, "highway": null, "street_count": 4 }, "geometry": { "type": "Point", "coordinates": [ 133.5401946, 33.492191 ] } },
{ "type": "Feature", "properties": { "osmid": 4934700827, "y": 33.491211, "x": 133.5404909, "highway": null, "street_count": 3 }, "geometry": { "type": "Point", "coordinates": [ 133.5404909, 33.491211 ] } },
{ "type": "Feature", "properties": { "osmid": 4934700829, "y": 33.4906381, "x": 133.5409335, "highway": null, "street_count": 3 }, "geometry": { "type": "Point", "coordinates": [ 133.5409335, 33.4906381 ] } },
{ "type": "Feature", "properties": { "osmid": 4934700830, "y": 33.4906163, "x": 133.5417661, "highway": null, "street_count": 3 }, "geometry": { "type": "Point", "coordinates": [ 133.5417661, 33.4906163 ] } },
{ "type": "Feature", "properties": { "osmid": 4934700831, "y": 33.4902752, "x": 133.5410768, "highway": null, "street_count": 3 }, "geometry": { "type": "Point", "coordinates": [ 133.541076800000013, 33.4902752 ] } },
{ "type": "Feature", "properties": { "osmid": 4934700832, "y": 33.4905983, "x": 133.5408457, "highway": null, "street_count": 3 }, "geometry": { "type": "Point", "coordinates": [ 133.5408457, 33.4905983 ] } },
{ "type": "Feature", "properties": { "osmid": 4934700833, "y": 33.4899043, "x": 133.5413375, "highway": null, "street_count": 3 }, "geometry": { "type": "Point", "coordinates": [ 133.5413375, 33.4899043 ] } },
{ "type": "Feature", "properties": { "osmid": 4934700834, "y": 33.4898269, "x": 133.5417744, "highway": null, "street_count": 3 }, "geometry": { "type": "Point", "coordinates": [ 133.5417744, 33.4898269 ] } },
{ "type": "Feature", "properties": { "osmid": 4934700836, "y": 33.4895259, "x": 133.5419346, "highway": null, "street_count": 3 }, "geometry": { "type": "Point", "coordinates": [ 133.5419346, 33.4895259 ] } },
{ "type": "Feature", "properties": { "osmid": 4934700840, "y": 33.491208, "x": 133.5413209, "highway": null, "street_count": 3 }, "geometry": { "type": "Point", "coordinates": [ 133.541320899999988, 33.491208 ] } },
{ "type": "Feature", "properties": { "osmid": 4934700841, "y": 33.4909108, "x": 133.5415345, "highway": null, "street_count": 4 }, "geometry": { "type": "Point", "coordinates": [ 133.541534500000012, 33.4909108 ] } },
{ "type": "Feature", "properties": { "osmid": 4934700846, "y": 33.4906643, "x": 133.5398143, "highway": null, "street_count": 3 }, "geometry": { "type": "Point", "coordinates": [ 133.539814299999989, 33.4906643 ] } },
{ "type": "Feature", "properties": { "osmid": 4934700849, "y": 33.4902528, "x": 133.5401018, "highway": null, "street_count": 3 }, "geometry": { "type": "Point", "coordinates": [ 133.5401018, 33.4902528 ] } },
{ "type": "Feature", "properties": { "osmid": 4934700850, "y": 33.4896257, "x": 133.540446, "highway": null, "street_count": 3 }, "geometry": { "type": "Point", "coordinates": [ 133.540446, 33.4896257 ] } },
{ "type": "Feature", "properties": { "osmid": 4934700853, "y": 33.4942192, "x": 133.5396229, "highway": null, "street_count": 3 }, "geometry": { "type": "Point", "coordinates": [ 133.539622900000012, 33.4942192 ] } },
{ "type": "Feature", "properties": { "osmid": 4934700855, "y": 33.4939023, "x": 133.5395157, "highway": null, "street_count": 3 }, "geometry": { "type": "Point", "coordinates": [ 133.53951570000001, 33.4939023 ] } },
{ "type": "Feature", "properties": { "osmid": 4934700862, "y": 33.4935891, "x": 133.5396633, "highway": null, "street_count": 3 }, "geometry": { "type": "Point", "coordinates": [ 133.5396633, 33.4935891 ] } },
{ "type": "Feature", "properties": { "osmid": 4934700865, "y": 33.4935335, "x": 133.5390503, "highway": null, "street_count": 3 }, "geometry": { "type": "Point", "coordinates": [ 133.539050300000014, 33.4935335 ] } },
{ "type": "Feature", "properties": { "osmid": 4934700867, "y": 33.4938542, "x": 133.5390303, "highway": null, "street_count": 3 }, "geometry": { "type": "Point", "coordinates": [ 133.5390303, 33.4938542 ] } },
{ "type": "Feature", "properties": { "osmid": 4934700870, "y": 33.495374, "x": 133.537212, "highway": null, "street_count": 3 }, "geometry": { "type": "Point", "coordinates": [ 133.537212, 33.495374 ] } },
{ "type": "Feature", "properties": { "osmid": 4934700878, "y": 33.494544, "x": 133.5361498, "highway": null, "street_count": 3 }, "geometry": { "type": "Point", "coordinates": [ 133.5361498, 33.494544 ] } },
{ "type": "Feature", "properties": { "osmid": 4934700879, "y": 33.4940641, "x": 133.5360554, "highway": null, "street_count": 3 }, "geometry": { "type": "Point", "coordinates": [ 133.5360554, 33.4940641 ] } },
{ "type": "Feature", "properties": { "osmid": 4934700880, "y": 33.4940864, "x": 133.5358895, "highway": null, "street_count": 3 }, "geometry": { "type": "Point", "coordinates": [ 133.5358895, 33.4940864 ] } },
{ "type": "Feature", "properties": { "osmid": 4934700882, "y": 33.4941684, "x": 133.5353508, "highway": null, "street_count": 3 }, "geometry": { "type": "Point", "coordinates": [ 133.5353508, 33.4941684 ] } },
{ "type": "Feature", "properties": { "osmid": 4934700884, "y": 33.4946167, "x": 133.5354826, "highway": null, "street_count": 3 }, "geometry": { "type": "Point", "coordinates": [ 133.5354826, 33.4946167 ] } },
{ "type": "Feature", "properties": { "osmid": 4934700885, "y": 33.4941136, "x": 133.540425, "highway": null, "street_count": 3 }, "geometry": { "type": "Point", "coordinates": [ 133.540425, 33.4941136 ] } },
{ "type": "Feature", "properties": { "osmid": 4934700888, "y": 33.4926218, "x": 133.5388131, "highway": null, "street_count": 3 }, "geometry": { "type": "Point", "coordinates": [ 133.5388131, 33.4926218 ] } },
{ "type": "Feature", "properties": { "osmid": 4934700889, "y": 33.4929395, "x": 133.5387277, "highway": null, "street_count": 4 }, "geometry": { "type": "Point", "coordinates": [ 133.53872770000001, 33.4929395 ] } },
{ "type": "Feature", "properties": { "osmid": 4934700891, "y": 33.4928243, "x": 133.5375446, "highway": null, "street_count": 3 }, "geometry": { "type": "Point", "coordinates": [ 133.5375446, 33.4928243 ] } },
{ "type": "Feature", "properties": { "osmid": 4934700900, "y": 33.4932569, "x": 133.5386507, "highway": null, "street_count": 3 }, "geometry": { "type": "Point", "coordinates": [ 133.5386507, 33.4932569 ] } },
{ "type": "Feature", "properties": { "osmid": 4934700912, "y": 33.494516, "x": 133.5337687, "highway": null, "street_count": 1 }, "geometry": { "type": "Point", "coordinates": [ 133.5337687, 33.494516 ] } },
{ "type": "Feature", "properties": { "osmid": 4934700913, "y": 33.4916207, "x": 133.5348272, "highway": null, "street_count": 3 }, "geometry": { "type": "Point", "coordinates": [ 133.5348272, 33.4916207 ] } },
{ "type": "Feature", "properties": { "osmid": 4934700921, "y": 33.4917412, "x": 133.5391216, "highway": null, "street_count": 3 }, "geometry": { "type": "Point", "coordinates": [ 133.539121599999987, 33.4917412 ] } },
{ "type": "Feature", "properties": { "osmid": 4934700924, "y": 33.4923656, "x": 133.5388827, "highway": null, "street_count": 3 }, "geometry": { "type": "Point", "coordinates": [ 133.538882699999988, 33.4923656 ] } },
{ "type": "Feature", "properties": { "osmid": 4934700926, "y": 33.4924942, "x": 133.5394956, "highway": null, "street_count": 3 }, "geometry": { "type": "Point", "coordinates": [ 133.5394956, 33.4924942 ] } },
{ "type": "Feature", "properties": { "osmid": 4934700927, "y": 33.4916366, "x": 133.5398702, "highway": null, "street_count": 3 }, "geometry": { "type": "Point", "coordinates": [ 133.5398702, 33.4916366 ] } },
{ "type": "Feature", "properties": { "osmid": 4934700929, "y": 33.4909519, "x": 133.5398173, "highway": null, "street_count": 3 }, "geometry": { "type": "Point", "coordinates": [ 133.53981730000001, 33.4909519 ] } },
{ "type": "Feature", "properties": { "osmid": 4934700930, "y": 33.4913936, "x": 133.5396016, "highway": null, "street_count": 3 }, "geometry": { "type": "Point", "coordinates": [ 133.5396016, 33.4913936 ] } },
{ "type": "Feature", "properties": { "osmid": 4934700932, "y": 33.4910599, "x": 133.5401175, "highway": null, "street_count": 3 }, "geometry": { "type": "Point", "coordinates": [ 133.5401175, 33.4910599 ] } },
{ "type": "Feature", "properties": { "osmid": 4934700933, "y": 33.4908389, "x": 133.5395586, "highway": null, "street_count": 3 }, "geometry": { "type": "Point", "coordinates": [ 133.5395586, 33.4908389 ] } },
{ "type": "Feature", "properties": { "osmid": 4934700934, "y": 33.4913142, "x": 133.5393199, "highway": null, "street_count": 3 }, "geometry": { "type": "Point", "coordinates": [ 133.53931990000001, 33.4913142 ] } },
{ "type": "Feature", "properties": { "osmid": 4934700937, "y": 33.4912818, "x": 133.5386601, "highway": null, "street_count": 3 }, "geometry": { "type": "Point", "coordinates": [ 133.538660099999987, 33.4912818 ] } },
{ "type": "Feature", "properties": { "osmid": 4934700938, "y": 33.4908967, "x": 133.5388541, "highway": null, "street_count": 4 }, "geometry": { "type": "Point", "coordinates": [ 133.5388541, 33.4908967 ] } },
{ "type": "Feature", "properties": { "osmid": 4934700939, "y": 33.490467, "x": 133.5390442, "highway": null, "street_count": 3 }, "geometry": { "type": "Point", "coordinates": [ 133.5390442, 33.490467 ] } },
{ "type": "Feature", "properties": { "osmid": 4934700940, "y": 33.4909578, "x": 133.5391565, "highway": null, "street_count": 3 }, "geometry": { "type": "Point", "coordinates": [ 133.5391565, 33.4909578 ] } },
{ "type": "Feature", "properties": { "osmid": 4934700941, "y": 33.4903944, "x": 133.5383633, "highway": null, "street_count": 3 }, "geometry": { "type": "Point", "coordinates": [ 133.538363299999986, 33.4903944 ] } },
{ "type": "Feature", "properties": { "osmid": 4934700942, "y": 33.4907068, "x": 133.5382408, "highway": null, "street_count": 3 }, "geometry": { "type": "Point", "coordinates": [ 133.538240800000011, 33.4907068 ] } },
{ "type": "Feature", "properties": { "osmid": 4934700944, "y": 33.4904864, "x": 133.5386825, "highway": null, "street_count": 3 }, "geometry": { "type": "Point", "coordinates": [ 133.5386825, 33.4904864 ] } },
{ "type": "Feature", "properties": { "osmid": 4934700945, "y": 33.4906167, "x": 133.5378885, "highway": null, "street_count": 3 }, "geometry": { "type": "Point", "coordinates": [ 133.5378885, 33.4906167 ] } },
{ "type": "Feature", "properties": { "osmid": 4934700947, "y": 33.4907935, "x": 133.5385444, "highway": null, "street_count": 3 }, "geometry": { "type": "Point", "coordinates": [ 133.5385444, 33.4907935 ] } },
{ "type": "Feature", "properties": { "osmid": 4934700948, "y": 33.4920708, "x": 133.5377747, "highway": null, "street_count": 3 }, "geometry": { "type": "Point", "coordinates": [ 133.5377747, 33.4920708 ] } },
{ "type": "Feature", "properties": { "osmid": 4934700950, "y": 33.4922683, "x": 133.5386051, "highway": null, "street_count": 3 }, "geometry": { "type": "Point", "coordinates": [ 133.538605100000012, 33.4922683 ] } },
{ "type": "Feature", "properties": { "osmid": 4934700951, "y": 33.4919998, "x": 133.538703, "highway": null, "street_count": 3 }, "geometry": { "type": "Point", "coordinates": [ 133.538703, 33.4919998 ] } },
{ "type": "Feature", "properties": { "osmid": 4934700953, "y": 33.4913299, "x": 133.5389726, "highway": null, "street_count": 4 }, "geometry": { "type": "Point", "coordinates": [ 133.5389726, 33.4913299 ] } },
{ "type": "Feature", "properties": { "osmid": 4934700954, "y": 33.4907248, "x": 133.5392717, "highway": null, "street_count": 3 }, "geometry": { "type": "Point", "coordinates": [ 133.5392717, 33.4907248 ] } },
{ "type": "Feature", "properties": { "osmid": 4934700956, "y": 33.4904397, "x": 133.5395762, "highway": null, "street_count": 3 }, "geometry": { "type": "Point", "coordinates": [ 133.5395762, 33.4904397 ] } },
{ "type": "Feature", "properties": { "osmid": 4934700957, "y": 33.4905548, "x": 133.5394178, "highway": null, "street_count": 3 }, "geometry": { "type": "Point", "coordinates": [ 133.5394178, 33.4905548 ] } },
{ "type": "Feature", "properties": { "osmid": 4934700959, "y": 33.4904049, "x": 133.5387191, "highway": null, "street_count": 3 }, "geometry": { "type": "Point", "coordinates": [ 133.5387191, 33.4904049 ] } },
{ "type": "Feature", "properties": { "osmid": 4934700963, "y": 33.4904228, "x": 133.5379335, "highway": null, "street_count": 3 }, "geometry": { "type": "Point", "coordinates": [ 133.5379335, 33.4904228 ] } },
{ "type": "Feature", "properties": { "osmid": 4934700966, "y": 33.490429, "x": 133.5368601, "highway": null, "street_count": 3 }, "geometry": { "type": "Point", "coordinates": [ 133.536860100000013, 33.490429 ] } },
{ "type": "Feature", "properties": { "osmid": 4934700971, "y": 33.4907651, "x": 133.5378541, "highway": null, "street_count": 3 }, "geometry": { "type": "Point", "coordinates": [ 133.5378541, 33.4907651 ] } },
{ "type": "Feature", "properties": { "osmid": 4934700972, "y": 33.4902908, "x": 133.5379641, "highway": null, "street_count": 3 }, "geometry": { "type": "Point", "coordinates": [ 133.537964100000011, 33.4902908 ] } },
{ "type": "Feature", "properties": { "osmid": 4934700973, "y": 33.4900817, "x": 133.5379627, "highway": null, "street_count": 3 }, "geometry": { "type": "Point", "coordinates": [ 133.5379627, 33.4900817 ] } },
{ "type": "Feature", "properties": { "osmid": 4934700991, "y": 33.4900918, "x": 133.5455453, "highway": null, "street_count": 3 }, "geometry": { "type": "Point", "coordinates": [ 133.545545299999986, 33.4900918 ] } },
{ "type": "Feature", "properties": { "osmid": 4934700992, "y": 33.4898088, "x": 133.5446602, "highway": null, "street_count": 3 }, "geometry": { "type": "Point", "coordinates": [ 133.54466020000001, 33.4898088 ] } },
{ "type": "Feature", "properties": { "osmid": 4934700993, "y": 33.4890214, "x": 133.5408998, "highway": null, "street_count": 3 }, "geometry": { "type": "Point", "coordinates": [ 133.5408998, 33.4890214 ] } },
{ "type": "Feature", "properties": { "osmid": 4934700994, "y": 33.4890259, "x": 133.5408629, "highway": null, "street_count": 3 }, "geometry": { "type": "Point", "coordinates": [ 133.5408629, 33.4890259 ] } },
{ "type": "Feature", "properties": { "osmid": 4934700996, "y": 33.4902428, "x": 133.5420598, "highway": null, "street_count": 4 }, "geometry": { "type": "Point", "coordinates": [ 133.5420598, 33.4902428 ] } },
{ "type": "Feature", "properties": { "osmid": 4934700997, "y": 33.4894375, "x": 133.5426041, "highway": null, "street_count": 3 }, "geometry": { "type": "Point", "coordinates": [ 133.5426041, 33.4894375 ] } },
{ "type": "Feature", "properties": { "osmid": 4934700998, "y": 33.4898744, "x": 133.5426792, "highway": null, "street_count": 3 }, "geometry": { "type": "Point", "coordinates": [ 133.5426792, 33.4898744 ] } },
{ "type": "Feature", "properties": { "osmid": 4934700999, "y": 33.4893494, "x": 133.5429536, "highway": null, "street_count": 3 }, "geometry": { "type": "Point", "coordinates": [ 133.5429536, 33.4893494 ] } },
{ "type": "Feature", "properties": { "osmid": 4934701000, "y": 33.4895303, "x": 133.5428578, "highway": null, "street_count": 3 }, "geometry": { "type": "Point", "coordinates": [ 133.5428578, 33.4895303 ] } },
{ "type": "Feature", "properties": { "osmid": 4934701001, "y": 33.4892824, "x": 133.5421797, "highway": null, "street_count": 3 }, "geometry": { "type": "Point", "coordinates": [ 133.5421797, 33.4892824 ] } },
{ "type": "Feature", "properties": { "osmid": 4934701002, "y": 33.4884342, "x": 133.5433191, "highway": null, "street_count": 1 }, "geometry": { "type": "Point", "coordinates": [ 133.5433191, 33.4884342 ] } },
{ "type": "Feature", "properties": { "osmid": 4934701005, "y": 33.4885103, "x": 133.5395412, "highway": null, "street_count": 3 }, "geometry": { "type": "Point", "coordinates": [ 133.5395412, 33.4885103 ] } },
{ "type": "Feature", "properties": { "osmid": 4934701007, "y": 33.4889069, "x": 133.5409653, "highway": null, "street_count": 4 }, "geometry": { "type": "Point", "coordinates": [ 133.540965300000011, 33.4889069 ] } },
{ "type": "Feature", "properties": { "osmid": 4934701009, "y": 33.4883246, "x": 133.5412517, "highway": null, "street_count": 4 }, "geometry": { "type": "Point", "coordinates": [ 133.5412517, 33.4883246 ] } },
{ "type": "Feature", "properties": { "osmid": 4934701010, "y": 33.4886679, "x": 133.5422315, "highway": null, "street_count": 3 }, "geometry": { "type": "Point", "coordinates": [ 133.542231500000014, 33.4886679 ] } },
{ "type": "Feature", "properties": { "osmid": 4934701011, "y": 33.4881316, "x": 133.5424908, "highway": null, "street_count": 3 }, "geometry": { "type": "Point", "coordinates": [ 133.5424908, 33.4881316 ] } },
{ "type": "Feature", "properties": { "osmid": 4934701012, "y": 33.4879403, "x": 133.5419499, "highway": null, "street_count": 3 }, "geometry": { "type": "Point", "coordinates": [ 133.5419499, 33.4879403 ] } },
{ "type": "Feature", "properties": { "osmid": 4934701014, "y": 33.4878512, "x": 133.5444287, "highway": null, "street_count": 3 }, "geometry": { "type": "Point", "coordinates": [ 133.5444287, 33.4878512 ] } },
{ "type": "Feature", "properties": { "osmid": 4934701017, "y": 33.4876032, "x": 133.5437831, "highway": null, "street_count": 3 }, "geometry": { "type": "Point", "coordinates": [ 133.543783100000013, 33.4876032 ] } },
{ "type": "Feature", "properties": { "osmid": 4934701018, "y": 33.4874466, "x": 133.5432051, "highway": null, "street_count": 4 }, "geometry": { "type": "Point", "coordinates": [ 133.5432051, 33.4874466 ] } },
{ "type": "Feature", "properties": { "osmid": 4934701021, "y": 33.4890695, "x": 133.5411613, "highway": null, "street_count": 3 }, "geometry": { "type": "Point", "coordinates": [ 133.5411613, 33.4890695 ] } },
{ "type": "Feature", "properties": { "osmid": 4934701025, "y": 33.4884737, "x": 133.5416927, "highway": null, "street_count": 4 }, "geometry": { "type": "Point", "coordinates": [ 133.5416927, 33.4884737 ] } },
{ "type": "Feature", "properties": { "osmid": 4934701026, "y": 33.4882183, "x": 133.5409373, "highway": null, "street_count": 4 }, "geometry": { "type": "Point", "coordinates": [ 133.5409373, 33.4882183 ] } },
{ "type": "Feature", "properties": { "osmid": 4934701032, "y": 33.4898759, "x": 133.5396244, "highway": null, "street_count": 3 }, "geometry": { "type": "Point", "coordinates": [ 133.5396244, 33.4898759 ] } },
{ "type": "Feature", "properties": { "osmid": 4942039772, "y": 33.491375, "x": 133.5476153, "highway": null, "street_count": 3 }, "geometry": { "type": "Point", "coordinates": [ 133.5476153, 33.491375 ] } },
{ "type": "Feature", "properties": { "osmid": 4942039804, "y": 33.493959, "x": 133.5441904, "highway": null, "street_count": 3 }, "geometry": { "type": "Point", "coordinates": [ 133.5441904, 33.493959 ] } },
{ "type": "Feature", "properties": { "osmid": 4942039807, "y": 33.4934243, "x": 133.5426933, "highway": null, "street_count": 3 }, "geometry": { "type": "Point", "coordinates": [ 133.5426933, 33.4934243 ] } },
{ "type": "Feature", "properties": { "osmid": 4942039811, "y": 33.4939772, "x": 133.5434572, "highway": null, "street_count": 3 }, "geometry": { "type": "Point", "coordinates": [ 133.5434572, 33.4939772 ] } },
{ "type": "Feature", "properties": { "osmid": 4942039812, "y": 33.4929231, "x": 133.544907, "highway": null, "street_count": 1 }, "geometry": { "type": "Point", "coordinates": [ 133.544907, 33.4929231 ] } },
{ "type": "Feature", "properties": { "osmid": 4942039819, "y": 33.4922449, "x": 133.5444405, "highway": null, "street_count": 3 }, "geometry": { "type": "Point", "coordinates": [ 133.5444405, 33.4922449 ] } },
{ "type": "Feature", "properties": { "osmid": 4942039820, "y": 33.4925143, "x": 133.5448962, "highway": null, "street_count": 3 }, "geometry": { "type": "Point", "coordinates": [ 133.544896200000011, 33.4925143 ] } },
{ "type": "Feature", "properties": { "osmid": 4942039822, "y": 33.4929896, "x": 133.5443652, "highway": null, "street_count": 3 }, "geometry": { "type": "Point", "coordinates": [ 133.544365199999987, 33.4929896 ] } },
{ "type": "Feature", "properties": { "osmid": 4942039825, "y": 33.492822, "x": 133.5439698, "highway": null, "street_count": 3 }, "geometry": { "type": "Point", "coordinates": [ 133.543969800000013, 33.492822 ] } },
{ "type": "Feature", "properties": { "osmid": 4942039826, "y": 33.4990132, "x": 133.5403553, "highway": null, "street_count": 1 }, "geometry": { "type": "Point", "coordinates": [ 133.540355299999987, 33.4990132 ] } },
{ "type": "Feature", "properties": { "osmid": 4942039859, "y": 33.4991251, "x": 133.5407804, "highway": null, "street_count": 4 }, "geometry": { "type": "Point", "coordinates": [ 133.540780399999989, 33.4991251 ] } },
{ "type": "Feature", "properties": { "osmid": 4942039861, "y": 33.4991077, "x": 133.5395516, "highway": null, "street_count": 3 }, "geometry": { "type": "Point", "coordinates": [ 133.53955160000001, 33.4991077 ] } },
{ "type": "Feature", "properties": { "osmid": 4942039864, "y": 33.4984566, "x": 133.5392328, "highway": null, "street_count": 3 }, "geometry": { "type": "Point", "coordinates": [ 133.5392328, 33.4984566 ] } },
{ "type": "Feature", "properties": { "osmid": 4942039865, "y": 33.4981258, "x": 133.538951, "highway": null, "street_count": 3 }, "geometry": { "type": "Point", "coordinates": [ 133.538951, 33.4981258 ] } },
{ "type": "Feature", "properties": { "osmid": 4942039867, "y": 33.4979375, "x": 133.5381421, "highway": null, "street_count": 4 }, "geometry": { "type": "Point", "coordinates": [ 133.538142099999988, 33.4979375 ] } },
{ "type": "Feature", "properties": { "osmid": 4942039869, "y": 33.4978031, "x": 133.5373673, "highway": null, "street_count": 3 }, "geometry": { "type": "Point", "coordinates": [ 133.5373673, 33.4978031 ] } },
{ "type": "Feature", "properties": { "osmid": 4942039870, "y": 33.4984001, "x": 133.5375228, "highway": null, "street_count": 3 }, "geometry": { "type": "Point", "coordinates": [ 133.5375228, 33.4984001 ] } },
{ "type": "Feature", "properties": { "osmid": 4942039873, "y": 33.4982754, "x": 133.5380735, "highway": null, "street_count": 3 }, "geometry": { "type": "Point", "coordinates": [ 133.5380735, 33.4982754 ] } },
{ "type": "Feature", "properties": { "osmid": 4942039874, "y": 33.4982371, "x": 133.5377857, "highway": null, "street_count": 3 }, "geometry": { "type": "Point", "coordinates": [ 133.5377857, 33.4982371 ] } },
{ "type": "Feature", "properties": { "osmid": 4942039875, "y": 33.4978725, "x": 133.5378541, "highway": null, "street_count": 4 }, "geometry": { "type": "Point", "coordinates": [ 133.5378541, 33.4978725 ] } },
{ "type": "Feature", "properties": { "osmid": 4942039876, "y": 33.4975203, "x": 133.5379258, "highway": null, "street_count": 4 }, "geometry": { "type": "Point", "coordinates": [ 133.537925800000011, 33.4975203 ] } },
{ "type": "Feature", "properties": { "osmid": 4942039880, "y": 33.4964627, "x": 133.5373594, "highway": null, "street_count": 3 }, "geometry": { "type": "Point", "coordinates": [ 133.537359400000014, 33.4964627 ] } },
{ "type": "Feature", "properties": { "osmid": 4942039884, "y": 33.4962956, "x": 133.5377172, "highway": null, "street_count": 3 }, "geometry": { "type": "Point", "coordinates": [ 133.5377172, 33.4962956 ] } },
{ "type": "Feature", "properties": { "osmid": 4942039888, "y": 33.4974506, "x": 133.5356675, "highway": null, "street_count": 4 }, "geometry": { "type": "Point", "coordinates": [ 133.535667499999988, 33.4974506 ] } },
{ "type": "Feature", "properties": { "osmid": 4942039895, "y": 33.4989875, "x": 133.5390718, "highway": null, "street_count": 3 }, "geometry": { "type": "Point", "coordinates": [ 133.539071799999988, 33.4989875 ] } },
{ "type": "Feature", "properties": { "osmid": 5483863136, "y": 33.4914423, "x": 133.5473892, "highway": null, "street_count": 3 }, "geometry": { "type": "Point", "coordinates": [ 133.5473892, 33.4914423 ] } },
{ "type": "Feature", "properties": { "osmid": 5483863137, "y": 33.4916309, "x": 133.5472517, "highway": null, "street_count": 3 }, "geometry": { "type": "Point", "coordinates": [ 133.5472517, 33.4916309 ] } },
{ "type": "Feature", "properties": { "osmid": 5483895494, "y": 33.4941585, "x": 133.5347884, "highway": null, "street_count": 3 }, "geometry": { "type": "Point", "coordinates": [ 133.5347884, 33.4941585 ] } },
{ "type": "Feature", "properties": { "osmid": 5483895495, "y": 33.4940893, "x": 133.533848, "highway": null, "street_count": 1 }, "geometry": { "type": "Point", "coordinates": [ 133.533848, 33.4940893 ] } },
{ "type": "Feature", "properties": { "osmid": 5483895542, "y": 33.4987679, "x": 133.5373462, "highway": null, "street_count": 3 }, "geometry": { "type": "Point", "coordinates": [ 133.5373462, 33.4987679 ] } },
{ "type": "Feature", "properties": { "osmid": 5483895543, "y": 33.498363, "x": 133.5373265, "highway": null, "street_count": 3 }, "geometry": { "type": "Point", "coordinates": [ 133.5373265, 33.498363 ] } },
{ "type": "Feature", "properties": { "osmid": 5487437628, "y": 33.4977112, "x": 133.5373055, "highway": null, "street_count": 3 }, "geometry": { "type": "Point", "coordinates": [ 133.5373055, 33.4977112 ] } },
{ "type": "Feature", "properties": { "osmid": 5487437651, "y": 33.4981788, "x": 133.5348563, "highway": null, "street_count": 3 }, "geometry": { "type": "Point", "coordinates": [ 133.5348563, 33.4981788 ] } },
{ "type": "Feature", "properties": { "osmid": 5487437654, "y": 33.4979512, "x": 133.5332034, "highway": null, "street_count": 4 }, "geometry": { "type": "Point", "coordinates": [ 133.5332034, 33.4979512 ] } },
{ "type": "Feature", "properties": { "osmid": 5487437655, "y": 33.497726, "x": 133.5322186, "highway": null, "street_count": 4 }, "geometry": { "type": "Point", "coordinates": [ 133.5322186, 33.497726 ] } },
{ "type": "Feature", "properties": { "osmid": 5487437657, "y": 33.4975987, "x": 133.5312735, "highway": null, "street_count": 3 }, "geometry": { "type": "Point", "coordinates": [ 133.5312735, 33.4975987 ] } },
{ "type": "Feature", "properties": { "osmid": 5487611873, "y": 33.497379, "x": 133.534574, "highway": null, "street_count": 4 }, "geometry": { "type": "Point", "coordinates": [ 133.534574, 33.497379 ] } },
{ "type": "Feature", "properties": { "osmid": 5487611874, "y": 33.496657, "x": 133.5340718, "highway": null, "street_count": 4 }, "geometry": { "type": "Point", "coordinates": [ 133.5340718, 33.496657 ] } },
{ "type": "Feature", "properties": { "osmid": 5487611875, "y": 33.4952349, "x": 133.5336527, "highway": null, "street_count": 3 }, "geometry": { "type": "Point", "coordinates": [ 133.5336527, 33.4952349 ] } },
{ "type": "Feature", "properties": { "osmid": 5487611876, "y": 33.4950328, "x": 133.5336831, "highway": null, "street_count": 3 }, "geometry": { "type": "Point", "coordinates": [ 133.5336831, 33.4950328 ] } },
{ "type": "Feature", "properties": { "osmid": 5487611882, "y": 33.4953886, "x": 133.5348074, "highway": null, "street_count": 1 }, "geometry": { "type": "Point", "coordinates": [ 133.5348074, 33.4953886 ] } },
{ "type": "Feature", "properties": { "osmid": 5487611891, "y": 33.4916155, "x": 133.5348185, "highway": null, "street_count": 3 }, "geometry": { "type": "Point", "coordinates": [ 133.5348185, 33.4916155 ] } },
{ "type": "Feature", "properties": { "osmid": 5487611900, "y": 33.4869177, "x": 133.5382377, "highway": null, "street_count": 1 }, "geometry": { "type": "Point", "coordinates": [ 133.5382377, 33.4869177 ] } },
{ "type": "Feature", "properties": { "osmid": 5487611901, "y": 33.4870103, "x": 133.5383654, "highway": null, "street_count": 3 }, "geometry": { "type": "Point", "coordinates": [ 133.5383654, 33.4870103 ] } },
{ "type": "Feature", "properties": { "osmid": 5487611903, "y": 33.4869456, "x": 133.5382786, "highway": "crossing", "street_count": 4 }, "geometry": { "type": "Point", "coordinates": [ 133.538278600000012, 33.4869456 ] } },
{ "type": "Feature", "properties": { "osmid": 5487611911, "y": 33.4858052, "x": 133.5390819, "highway": null, "street_count": 4 }, "geometry": { "type": "Point", "coordinates": [ 133.539081900000014, 33.4858052 ] } },
{ "type": "Feature", "properties": { "osmid": 5487611916, "y": 33.4864663, "x": 133.5417343, "highway": null, "street_count": 4 }, "geometry": { "type": "Point", "coordinates": [ 133.5417343, 33.4864663 ] } },
{ "type": "Feature", "properties": { "osmid": 5487611917, "y": 33.4856083, "x": 133.538965, "highway": null, "street_count": 3 }, "geometry": { "type": "Point", "coordinates": [ 133.538965, 33.4856083 ] } },
{ "type": "Feature", "properties": { "osmid": 5487611918, "y": 33.4857033, "x": 133.5392031, "highway": null, "street_count": 3 }, "geometry": { "type": "Point", "coordinates": [ 133.5392031, 33.4857033 ] } },
{ "type": "Feature", "properties": { "osmid": 5487611919, "y": 33.4856474, "x": 133.5390806, "highway": "crossing", "street_count": 4 }, "geometry": { "type": "Point", "coordinates": [ 133.5390806, 33.4856474 ] } },
{ "type": "Feature", "properties": { "osmid": 5487611920, "y": 33.4857, "x": 133.5389489, "highway": null, "street_count": 1 }, "geometry": { "type": "Point", "coordinates": [ 133.5389489, 33.4857 ] } },
{ "type": "Feature", "properties": { "osmid": 5487612026, "y": 33.4846043, "x": 133.5364958, "highway": null, "street_count": 4 }, "geometry": { "type": "Point", "coordinates": [ 133.536495800000012, 33.4846043 ] } },
{ "type": "Feature", "properties": { "osmid": 5506896743, "y": 33.498316, "x": 133.5347223, "highway": null, "street_count": 4 }, "geometry": { "type": "Point", "coordinates": [ 133.5347223, 33.498316 ] } },
{ "type": "Feature", "properties": { "osmid": 5506896769, "y": 33.4970865, "x": 133.5346452, "highway": null, "street_count": 4 }, "geometry": { "type": "Point", "coordinates": [ 133.5346452, 33.4970865 ] } },
{ "type": "Feature", "properties": { "osmid": 5506896774, "y": 33.4981722, "x": 133.5347916, "highway": null, "street_count": 4 }, "geometry": { "type": "Point", "coordinates": [ 133.5347916, 33.4981722 ] } },
{ "type": "Feature", "properties": { "osmid": 5506896776, "y": 33.4983082, "x": 133.5346394, "highway": null, "street_count": 3 }, "geometry": { "type": "Point", "coordinates": [ 133.5346394, 33.4983082 ] } },
{ "type": "Feature", "properties": { "osmid": 5506896785, "y": 33.4966796, "x": 133.5364364, "highway": null, "street_count": 3 }, "geometry": { "type": "Point", "coordinates": [ 133.536436400000014, 33.4966796 ] } },
{ "type": "Feature", "properties": { "osmid": 5506896786, "y": 33.4962229, "x": 133.5358596, "highway": null, "street_count": 3 }, "geometry": { "type": "Point", "coordinates": [ 133.5358596, 33.4962229 ] } },
{ "type": "Feature", "properties": { "osmid": 5506896789, "y": 33.4960421, "x": 133.5359374, "highway": null, "street_count": 3 }, "geometry": { "type": "Point", "coordinates": [ 133.5359374, 33.4960421 ] } },
{ "type": "Feature", "properties": { "osmid": 5506896794, "y": 33.4899961, "x": 133.540763, "highway": null, "street_count": 3 }, "geometry": { "type": "Point", "coordinates": [ 133.540763, 33.4899961 ] } },
{ "type": "Feature", "properties": { "osmid": 6878716075, "y": 33.4905325, "x": 133.5443781, "highway": null, "street_count": 3 }, "geometry": { "type": "Point", "coordinates": [ 133.544378099999989, 33.4905325 ] } },
{ "type": "Feature", "properties": { "osmid": 6878716076, "y": 33.4900958, "x": 133.5445923, "highway": null, "street_count": 3 }, "geometry": { "type": "Point", "coordinates": [ 133.5445923, 33.4900958 ] } },
{ "type": "Feature", "properties": { "osmid": 6878716077, "y": 33.4891972, "x": 133.5384204, "highway": null, "street_count": 3 }, "geometry": { "type": "Point", "coordinates": [ 133.5384204, 33.4891972 ] } },
{ "type": "Feature", "properties": { "osmid": 6878716079, "y": 33.4897661, "x": 133.5381897, "highway": null, "street_count": 3 }, "geometry": { "type": "Point", "coordinates": [ 133.5381897, 33.4897661 ] } },
{ "type": "Feature", "properties": { "osmid": 6878716080, "y": 33.4893063, "x": 133.5379349, "highway": null, "street_count": 3 }, "geometry": { "type": "Point", "coordinates": [ 133.53793490000001, 33.4893063 ] } },
{ "type": "Feature", "properties": { "osmid": 6878716081, "y": 33.4892532, "x": 133.5381867, "highway": null, "street_count": 3 }, "geometry": { "type": "Point", "coordinates": [ 133.538186700000011, 33.4892532 ] } },
{ "type": "Feature", "properties": { "osmid": 6878716084, "y": 33.4928679, "x": 133.5383211, "highway": null, "street_count": 3 }, "geometry": { "type": "Point", "coordinates": [ 133.5383211, 33.4928679 ] } },
{ "type": "Feature", "properties": { "osmid": 6878716085, "y": 33.4925466, "x": 133.5384126, "highway": null, "street_count": 3 }, "geometry": { "type": "Point", "coordinates": [ 133.538412599999987, 33.4925466 ] } },
{ "type": "Feature", "properties": { "osmid": 10159298099, "y": 33.4886838, "x": 133.5373117, "highway": null, "street_count": 3 }, "geometry": { "type": "Point", "coordinates": [ 133.5373117, 33.4886838 ] } },
{ "type": "Feature", "properties": { "osmid": 10159298104, "y": 33.4887715, "x": 133.537022, "highway": null, "street_count": 3 }, "geometry": { "type": "Point", "coordinates": [ 133.537022, 33.4887715 ] } },
{ "type": "Feature", "properties": { "osmid": 10159298105, "y": 33.4883683, "x": 133.5392187, "highway": null, "street_count": 3 }, "geometry": { "type": "Point", "coordinates": [ 133.5392187, 33.4883683 ] } },
{ "type": "Feature", "properties": { "osmid": 10159298106, "y": 33.4884173, "x": 133.5393299, "highway": null, "street_count": 3 }, "geometry": { "type": "Point", "coordinates": [ 133.539329900000013, 33.4884173 ] } },
{ "type": "Feature", "properties": { "osmid": 10159298107, "y": 33.4878127, "x": 133.5396373, "highway": null, "street_count": 3 }, "geometry": { "type": "Point", "coordinates": [ 133.53963730000001, 33.4878127 ] } },
{ "type": "Feature", "properties": { "osmid": 10179255780, "y": 33.4890402, "x": 133.5374276, "highway": null, "street_count": 3 }, "geometry": { "type": "Point", "coordinates": [ 133.5374276, 33.4890402 ] } },
{ "type": "Feature", "properties": { "osmid": 10179255781, "y": 33.4893757, "x": 133.5376284, "highway": null, "street_count": 3 }, "geometry": { "type": "Point", "coordinates": [ 133.537628399999988, 33.4893757 ] } },
{ "type": "Feature", "properties": { "osmid": 10179262550, "y": 33.490214, "x": 133.5432099, "highway": null, "street_count": 3 }, "geometry": { "type": "Point", "coordinates": [ 133.5432099, 33.490214 ] } },
{ "type": "Feature", "properties": { "osmid": 10179267601, "y": 33.4891022, "x": 133.5434192, "highway": null, "street_count": 3 }, "geometry": { "type": "Point", "coordinates": [ 133.543419199999988, 33.4891022 ] } },
{ "type": "Feature", "properties": { "osmid": 10179267602, "y": 33.4885678, "x": 133.5436816, "highway": null, "street_count": 3 }, "geometry": { "type": "Point", "coordinates": [ 133.543681600000014, 33.4885678 ] } },
{ "type": "Feature", "properties": { "osmid": 10179267603, "y": 33.4875704, "x": 133.5436619, "highway": null, "street_count": 3 }, "geometry": { "type": "Point", "coordinates": [ 133.543661899999989, 33.4875704 ] } },
{ "type": "Feature", "properties": { "osmid": 10179267604, "y": 33.4874095, "x": 133.5437162, "highway": null, "street_count": 4 }, "geometry": { "type": "Point", "coordinates": [ 133.5437162, 33.4874095 ] } },
{ "type": "Feature", "properties": { "osmid": 10179267605, "y": 33.4871217, "x": 133.5438051, "highway": null, "street_count": 3 }, "geometry": { "type": "Point", "coordinates": [ 133.543805099999986, 33.4871217 ] } },
{ "type": "Feature", "properties": { "osmid": 10179267606, "y": 33.4873004, "x": 133.5432573, "highway": null, "street_count": 3 }, "geometry": { "type": "Point", "coordinates": [ 133.5432573, 33.4873004 ] } },
{ "type": "Feature", "properties": { "osmid": 10179267607, "y": 33.4864041, "x": 133.541754, "highway": null, "street_count": 3 }, "geometry": { "type": "Point", "coordinates": [ 133.541754, 33.4864041 ] } },
{ "type": "Feature", "properties": { "osmid": 10179267608, "y": 33.4869382, "x": 133.5404814, "highway": null, "street_count": 3 }, "geometry": { "type": "Point", "coordinates": [ 133.5404814, 33.4869382 ] } },
{ "type": "Feature", "properties": { "osmid": 10179267609, "y": 33.4864541, "x": 133.5407385, "highway": null, "street_count": 3 }, "geometry": { "type": "Point", "coordinates": [ 133.5407385, 33.4864541 ] } },
{ "type": "Feature", "properties": { "osmid": 10179267611, "y": 33.4857309, "x": 133.5396274, "highway": null, "street_count": 4 }, "geometry": { "type": "Point", "coordinates": [ 133.5396274, 33.4857309 ] } },
{ "type": "Feature", "properties": { "osmid": 10179267612, "y": 33.485677, "x": 133.5396651, "highway": null, "street_count": 3 }, "geometry": { "type": "Point", "coordinates": [ 133.5396651, 33.485677 ] } },
{ "type": "Feature", "properties": { "osmid": 10179267615, "y": 33.4867572, "x": 133.5424092, "highway": null, "street_count": 4 }, "geometry": { "type": "Point", "coordinates": [ 133.5424092, 33.4867572 ] } },
{ "type": "Feature", "properties": { "osmid": 10179548526, "y": 33.4925659, "x": 133.5459813, "highway": null, "street_count": 3 }, "geometry": { "type": "Point", "coordinates": [ 133.5459813, 33.4925659 ] } },
{ "type": "Feature", "properties": { "osmid": 10179548527, "y": 33.4922592, "x": 133.5455046, "highway": null, "street_count": 3 }, "geometry": { "type": "Point", "coordinates": [ 133.545504599999987, 33.4922592 ] } },
{ "type": "Feature", "properties": { "osmid": 10179548531, "y": 33.4918454, "x": 133.5459096, "highway": null, "street_count": 3 }, "geometry": { "type": "Point", "coordinates": [ 133.545909599999987, 33.4918454 ] } },
{ "type": "Feature", "properties": { "osmid": 10179548533, "y": 33.491741, "x": 133.5467558, "highway": null, "street_count": 3 }, "geometry": { "type": "Point", "coordinates": [ 133.5467558, 33.491741 ] } },
{ "type": "Feature", "properties": { "osmid": 10179548534, "y": 33.4916158, "x": 133.5464012, "highway": null, "street_count": 3 }, "geometry": { "type": "Point", "coordinates": [ 133.5464012, 33.4916158 ] } },
{ "type": "Feature", "properties": { "osmid": 10179548535, "y": 33.4920676, "x": 133.5456921, "highway": null, "street_count": 3 }, "geometry": { "type": "Point", "coordinates": [ 133.5456921, 33.4920676 ] } },
{ "type": "Feature", "properties": { "osmid": 10179548536, "y": 33.4923829, "x": 133.5461548, "highway": null, "street_count": 3 }, "geometry": { "type": "Point", "coordinates": [ 133.546154800000011, 33.4923829 ] } },
{ "type": "Feature", "properties": { "osmid": 10179625669, "y": 33.4882572, "x": 133.5460718, "highway": null, "street_count": 3 }, "geometry": { "type": "Point", "coordinates": [ 133.5460718, 33.4882572 ] } },
{ "type": "Feature", "properties": { "osmid": 10179625674, "y": 33.488388, "x": 133.5457264, "highway": null, "street_count": 3 }, "geometry": { "type": "Point", "coordinates": [ 133.5457264, 33.488388 ] } },
{ "type": "Feature", "properties": { "osmid": 10179631118, "y": 33.4871794, "x": 133.5437873, "highway": null, "street_count": 4 }, "geometry": { "type": "Point", "coordinates": [ 133.5437873, 33.4871794 ] } },
{ "type": "Feature", "properties": { "osmid": 10179942520, "y": 33.4889797, "x": 133.5382632, "highway": null, "street_count": 3 }, "geometry": { "type": "Point", "coordinates": [ 133.538263199999989, 33.4889797 ] } },
{ "type": "Feature", "properties": { "osmid": 10179942522, "y": 33.4889543, "x": 133.5386346, "highway": null, "street_count": 3 }, "geometry": { "type": "Point", "coordinates": [ 133.5386346, 33.4889543 ] } },
{ "type": "Feature", "properties": { "osmid": 10180208520, "y": 33.4920334, "x": 133.5438081, "highway": null, "street_count": 4 }, "geometry": { "type": "Point", "coordinates": [ 133.5438081, 33.4920334 ] } },
{ "type": "Feature", "properties": { "osmid": 10180208521, "y": 33.4912038, "x": 133.5437993, "highway": null, "street_count": 3 }, "geometry": { "type": "Point", "coordinates": [ 133.543799299999989, 33.4912038 ] } },
{ "type": "Feature", "properties": { "osmid": 10180208522, "y": 33.4925703, "x": 133.5438468, "highway": null, "street_count": 3 }, "geometry": { "type": "Point", "coordinates": [ 133.543846800000011, 33.4925703 ] } },
{ "type": "Feature", "properties": { "osmid": 10180208541, "y": 33.4908318, "x": 133.5418655, "highway": null, "street_count": 3 }, "geometry": { "type": "Point", "coordinates": [ 133.5418655, 33.4908318 ] } },
{ "type": "Feature", "properties": { "osmid": 10180208542, "y": 33.4909428, "x": 133.5420639, "highway": null, "street_count": 3 }, "geometry": { "type": "Point", "coordinates": [ 133.542063899999988, 33.4909428 ] } },
{ "type": "Feature", "properties": { "osmid": 10180208543, "y": 33.4904266, "x": 133.5421751, "highway": null, "street_count": 3 }, "geometry": { "type": "Point", "coordinates": [ 133.5421751, 33.4904266 ] } },
{ "type": "Feature", "properties": { "osmid": 10183455272, "y": 33.4904568, "x": 133.5395527, "highway": null, "street_count": 4 }, "geometry": { "type": "Point", "coordinates": [ 133.5395527, 33.4904568 ] } },
{ "type": "Feature", "properties": { "osmid": 10183455273, "y": 33.4909566, "x": 133.5401151, "highway": null, "street_count": 3 }, "geometry": { "type": "Point", "coordinates": [ 133.5401151, 33.4909566 ] } },
{ "type": "Feature", "properties": { "osmid": 10183455274, "y": 33.4916219, "x": 133.5398281, "highway": null, "street_count": 3 }, "geometry": { "type": "Point", "coordinates": [ 133.5398281, 33.4916219 ] } },
{ "type": "Feature", "properties": { "osmid": 10183455275, "y": 33.4910448, "x": 133.5400755, "highway": null, "street_count": 4 }, "geometry": { "type": "Point", "coordinates": [ 133.5400755, 33.4910448 ] } },
{ "type": "Feature", "properties": { "osmid": 10183455276, "y": 33.4909826, "x": 133.5401441, "highway": null, "street_count": 4 }, "geometry": { "type": "Point", "coordinates": [ 133.5401441, 33.4909826 ] } },
{ "type": "Feature", "properties": { "osmid": 10183455278, "y": 33.4912686, "x": 133.5405051, "highway": null, "street_count": 3 }, "geometry": { "type": "Point", "coordinates": [ 133.5405051, 33.4912686 ] } },
{ "type": "Feature", "properties": { "osmid": 10183455280, "y": 33.4899977, "x": 133.5390182, "highway": null, "street_count": 4 }, "geometry": { "type": "Point", "coordinates": [ 133.539018199999987, 33.4899977 ] } },
{ "type": "Feature", "properties": { "osmid": 10183455283, "y": 33.4897066, "x": 133.5387781, "highway": null, "street_count": 4 }, "geometry": { "type": "Point", "coordinates": [ 133.5387781, 33.4897066 ] } },
{ "type": "Feature", "properties": { "osmid": 10183455285, "y": 33.4892085, "x": 133.5383733, "highway": null, "street_count": 4 }, "geometry": { "type": "Point", "coordinates": [ 133.538373299999989, 33.4892085 ] } },
{ "type": "Feature", "properties": { "osmid": 10183455289, "y": 33.4890493, "x": 133.5375374, "highway": null, "street_count": 1 }, "geometry": { "type": "Point", "coordinates": [ 133.5375374, 33.4890493 ] } },
{ "type": "Feature", "properties": { "osmid": 10261018308, "y": 33.4858578, "x": 133.5392345, "highway": null, "street_count": 3 }, "geometry": { "type": "Point", "coordinates": [ 133.5392345, 33.4858578 ] } },
{ "type": "Feature", "properties": { "osmid": 10261044690, "y": 33.4852676, "x": 133.5376678, "highway": null, "street_count": 3 }, "geometry": { "type": "Point", "coordinates": [ 133.5376678, 33.4852676 ] } },
{ "type": "Feature", "properties": { "osmid": 10261044696, "y": 33.4857269, "x": 133.5379665, "highway": null, "street_count": 1 }, "geometry": { "type": "Point", "coordinates": [ 133.53796650000001, 33.4857269 ] } },
{ "type": "Feature", "properties": { "osmid": 10261046309, "y": 33.4859466, "x": 133.5392656, "highway": null, "street_count": 3 }, "geometry": { "type": "Point", "coordinates": [ 133.5392656, 33.4859466 ] } },
{ "type": "Feature", "properties": { "osmid": 10261046310, "y": 33.4860247, "x": 133.5392278, "highway": null, "street_count": 3 }, "geometry": { "type": "Point", "coordinates": [ 133.5392278, 33.4860247 ] } },
{ "type": "Feature", "properties": { "osmid": 10261046315, "y": 33.4858906, "x": 133.5393406, "highway": null, "street_count": 3 }, "geometry": { "type": "Point", "coordinates": [ 133.5393406, 33.4858906 ] } }
]
}
