{
"type": "FeatureCollection",
"name": "kochi-shi_tsunamievac_areas",
"crs": { "type": "name", "properties": { "name": "urn:ogc:def:crs:OGC:1.3:CRS84" } },
"features": [
{ "type": "Feature", "properties": { "id": 0, "name": null }, "geometry": { "type": "MultiPolygon", "coordinates": [ [ [ [ 133.577097525638067, 33.501298320630987 ], [ 133.578035989803709, 33.499490060409414 ], [ 133.578035989803709, 33.499490060409414 ], [ 133.577051746898292, 33.495141080129684 ], [ 133.551621656946821, 33.488297158531587 ], [ 133.550500077822051, 33.490814989219849 ], [ 133.549012268778966, 33.490448759301557 ], [ 133.544205501101374, 33.494751960841498 ], [ 133.544136832991711, 33.496697557282431 ], [ 133.542717692058318, 33.497933583256668 ], [ 133.542786360168009, 33.499947847807285 ], [ 133.543885049922892, 33.49978762221803 ], [ 133.545327080226144, 33.49974184347824 ], [ 133.546791999899341, 33.500657418273974 ], [ 133.55139276324789, 33.500634528904079 ], [ 133.558877587203, 33.501298320630987 ], [ 133.563020563153685, 33.498597374983575 ], [ 133.577097525638067, 33.501298320630987 ] ] ] ] } },
{ "type": "Feature", "properties": { "id": 1, "name": null }, "geometry": { "type": "MultiPolygon", "coordinates": [ [ [ [ 133.551461431357552, 33.488228490421903 ], [ 133.536423115337669, 33.483192829045379 ], [ 133.535736434240846, 33.48477219556802 ], [ 133.535919549200003, 33.485710659733641 ], [ 133.53763625194199, 33.487267136886388 ], [ 133.534065510238634, 33.492302798262919 ], [ 133.533676390950461, 33.494500177772672 ], [ 133.53319571418271, 33.496148212404989 ], [ 133.5307923303439, 33.497681800187841 ], [ 133.541023878686218, 33.49974184347824 ], [ 133.54125277238515, 33.499261166710482 ], [ 133.539536069643162, 33.498025140736246 ], [ 133.538002481860303, 33.495713314377021 ], [ 133.542076789701298, 33.493836386045771 ], [ 133.543976607402442, 33.494820628951182 ], [ 133.548920711299417, 33.490288533712302 ], [ 133.550408520342472, 33.490608984890812 ], [ 133.551461431357552, 33.488228490421903 ] ] ] ] } },
{ "type": "Feature", "properties": { "id": 2, "name": null }, "geometry": { "type": "MultiPolygon", "coordinates": [ [ [ [ 133.536056885419356, 33.482963935346454 ], [ 133.51284706434754, 33.473487736210629 ], [ 133.510878578536733, 33.47124457796108 ], [ 133.504423776226815, 33.4670787126405 ], [ 133.502661294745025, 33.469047198451321 ], [ 133.503759984499908, 33.471313246070764 ], [ 133.505888695899984, 33.472251710236385 ], [ 133.510260565549601, 33.476074235008568 ], [ 133.510352123029179, 33.478843848765656 ], [ 133.512801285607765, 33.478523397587153 ], [ 133.513899975362648, 33.479805202301179 ], [ 133.512320608839985, 33.480858113316266 ], [ 133.513533745444334, 33.482735041647523 ], [ 133.512938621827118, 33.484016846361548 ], [ 133.513877085992732, 33.485115536116425 ], [ 133.510283454919488, 33.486878017598208 ], [ 133.509207654534521, 33.488251379791812 ], [ 133.506827160065598, 33.490517427411248 ], [ 133.507170500613995, 33.493126815579082 ], [ 133.510420791138841, 33.494477288402791 ], [ 133.512984400566893, 33.497109565940519 ], [ 133.51525044818635, 33.495484420678096 ], [ 133.517287602106848, 33.497315570269556 ], [ 133.519141641068217, 33.497201123420091 ], [ 133.519141641068217, 33.495347084458736 ], [ 133.521018569399445, 33.493859275415673 ], [ 133.521087237509136, 33.491341444727404 ], [ 133.523765293786653, 33.489830746314446 ], [ 133.524131523704938, 33.491181219138156 ], [ 133.525848226446954, 33.492028125824206 ], [ 133.528205831545961, 33.495507310047991 ], [ 133.529716529958904, 33.495736203746922 ], [ 133.531891020098783, 33.494408620293108 ], [ 133.532371696866534, 33.492005236454311 ], [ 133.534431740156947, 33.489372958916583 ], [ 133.535850881090312, 33.488022486092873 ], [ 133.534775080705344, 33.485298651075574 ], [ 133.53360772284077, 33.485161314856214 ], [ 133.533584833470883, 33.484497523129306 ], [ 133.535255757473095, 33.484703527458343 ], [ 133.536056885419356, 33.482963935346454 ] ] ] ] } },
{ "type": "Feature", "properties": { "id": 3, "name": null }, "geometry": { "type": "MultiPolygon", "coordinates": [ [ [ [ 133.504175768709047, 33.466890874158217 ], [ 133.489338969218096, 33.461737756403956 ], [ 133.480523684742536, 33.467285069376111 ], [ 133.482907729183182, 33.469923715669076 ], [ 133.481973079912535, 33.472060056859121 ], [ 133.480466196394559, 33.474005653300054 ], [ 133.48088583484261, 33.477000345861093 ], [ 133.483785155029096, 33.478945942302019 ], [ 133.487771720285508, 33.481215804816443 ], [ 133.492559413488181, 33.478678899653268 ], [ 133.499731416054743, 33.475436238918384 ], [ 133.502382768067406, 33.471278003387766 ], [ 133.50026550135226, 33.469637598545411 ], [ 133.50224924674302, 33.469160736672634 ], [ 133.504175768709047, 33.466890874158217 ] ] ] ] } },
{ "type": "Feature", "properties": { "id": 4, "name": null }, "geometry": { "type": "MultiPolygon", "coordinates": [ [ [ [ 133.564854947465363, 33.531721739252596 ], [ 133.574790112452064, 33.530903549194868 ], [ 133.586439580416879, 33.53526722950275 ], [ 133.606269725996384, 33.535258985684159 ], [ 133.604470829927379, 33.532860457592143 ], [ 133.601380418731907, 33.531246063684051 ], [ 133.602026176295141, 33.530000674097813 ], [ 133.601472669812352, 33.519668553086042 ], [ 133.595751362502455, 33.517072241076129 ], [ 133.596764359716758, 33.512903367924842 ], [ 133.583712280224432, 33.50476042877888 ], [ 133.583400588773884, 33.511189064946748 ], [ 133.578296641270896, 33.509279954812051 ], [ 133.573816076669061, 33.501565591410611 ], [ 133.563880911682361, 33.499812327001194 ], [ 133.561660110097108, 33.503942238721152 ], [ 133.563958834544991, 33.509552684831291 ], [ 133.563569220231784, 33.51469559376558 ], [ 133.564854947465363, 33.531721739252596 ] ] ] ] } }
]
}
