{
"type": "FeatureCollection",
"name": "kochi_tsunami_shelters_crs4326",
"crs": { "type": "name", "properties": { "name": "urn:ogc:def:crs:OGC:1.3:CRS84" } },
"features": [
{ "type": "Feature", "properties": { "KYOTEN_ID": "3900017", "DAIHYO_ID": "3900017", "MEISHO": "?????", "KANA": null, "SITEI_CODE": "39201", "PREF_NAME": "???", "CITY_NAME": "???", "PNT_CODE": "39201", "JYUSHO": "?????????????????", "TEL": "088-832-6636", "HNJ_SITEI": 1, "HNJ_FUKUSI": 0, "HNJ_ELSE": 0, "HNB_KINKYU": 1, "HNB_KOIKI": 0, "HNB_TUNAMI": 0, "HNB_ELSE": 0, "KYUSUI_PNT": 0, "KOSHO": "??????????????", "SAIGAI": 1, "JISHIN": 1, "KASAI": 9, "HUSUI": 1, "TUNAMI": 1, "TAKASIO": 9, "DOSHA": 9, "SONOTA": 9, "ELSE_TXT": null, "HIGH": 1.7, "MENSEKI": 0, "NINZU_HNJ": 0, "NINZU_HNB": 0, "IRYO": 9, "KYUSUI": 9, "UPDATE": "2018-04-01T00:00:00", "size": 9 }, "geometry": { "type": "Point", "coordinates": [ 133.540654166666968, 33.55283222222198 ] } },
{ "type": "Feature", "properties": { "KYOTEN_ID": "3900024", "DAIHYO_ID": "3900024", "MEISHO": "?????", "KANA": null, "SITEI_CODE": "39201", "PREF_NAME": "???", "CITY_NAME": "???", "PNT_CODE": "39201", "JYUSHO": "?????????????", "TEL": "088-860-0043", "HNJ_SITEI": 1, "HNJ_FUKUSI": 0, "HNJ_ELSE": 0, "HNB_KINKYU": 1, "HNB_KOIKI": 0, "HNB_TUNAMI": 0, "HNB_ELSE": 0, "KYUSUI_PNT": 0, "KOSHO": "??????????????", "SAIGAI": 1, "JISHIN": 1, "KASAI": 9, "HUSUI": 1, "TUNAMI": 1, "TAKASIO": 9, "DOSHA": 9, "SONOTA": 9, "ELSE_TXT": null, "HIGH": 1.6, "MENSEKI": 0, "NINZU_HNJ": 0, "NINZU_HNB": 0, "IRYO": 9, "KYUSUI": 9, "UPDATE": "2018-04-01T00:00:00", "size": 9 }, "geometry": { "type": "Point", "coordinates": [ 133.603608055556037, 33.556051388888989 ] } },
{ "type": "Feature", "properties": { "KYOTEN_ID": "3900025", "DAIHYO_ID": "3900025", "MEISHO": "?????", "KANA": null, "SITEI_CODE": "39201", "PREF_NAME": "???", "CITY_NAME": "???", "PNT_CODE": "39201", "JYUSHO": "???????????????", "TEL": "088-860-0143", "HNJ_SITEI": 1, "HNJ_FUKUSI": 0, "HNJ_ELSE": 0, "HNB_KINKYU": 1, "HNB_KOIKI": 0, "HNB_TUNAMI": 0, "HNB_ELSE": 0, "KYUSUI_PNT": 0, "KOSHO": "??????????????", "SAIGAI": 1, "JISHIN": 1, "KASAI": 9, "HUSUI": 1, "TUNAMI": 1, "TAKASIO": 9, "DOSHA": 9, "SONOTA": 9, "ELSE_TXT": null, "HIGH": 1.6, "MENSEKI": 0, "NINZU_HNJ": 0, "NINZU_HNB": 0, "IRYO": 9, "KYUSUI": 9, "UPDATE": "2018-04-01T00:00:00", "size": 9 }, "geometry": { "type": "Point", "coordinates": [ 133.602026388889044, 33.556589722221986 ] } },
{ "type": "Feature", "properties": { "KYOTEN_ID": "3900033", "DAIHYO_ID": "3900033", "MEISHO": "??????", "KANA": null, "SITEI_CODE": "39201", "PREF_NAME": "???", "CITY_NAME": "???", "PNT_CODE": "39201", "JYUSHO": "?????????????", "TEL": "088-822-6134", "HNJ_SITEI": 1, "HNJ_FUKUSI": 0, "HNJ_ELSE": 0, "HNB_KINKYU": 1, "HNB_KOIKI": 0, "HNB_TUNAMI": 0, "HNB_ELSE": 0, "KYUSUI_PNT": 0, "KOSHO": "??????????????", "SAIGAI": 1, "JISHIN": 1, "KASAI": 9, "HUSUI": 1, "TUNAMI": 1, "TAKASIO": 9, "DOSHA": 9, "SONOTA": 9, "ELSE_TXT": null, "HIGH": 2.2, "MENSEKI": 0, "NINZU_HNJ": 0, "NINZU_HNB": 0, "IRYO": 9, "KYUSUI": 9, "UPDATE": "2018-04-01T00:00:00", "size": 9 }, "geometry": { "type": "Point", "coordinates": [ 133.532572777778, 33.571678611110997 ] } },
{ "type": "Feature", "properties": { "KYOTEN_ID": "3900035", "DAIHYO_ID": "3900035", "MEISHO": "????????????", "KANA": null, "SITEI_CODE": "39201", "PREF_NAME": "???", "CITY_NAME": "???", "PNT_CODE": "39201", "JYUSHO": "????????????", "TEL": "088-883-5011", "HNJ_SITEI": 1, "HNJ_FUKUSI": 0, "HNJ_ELSE": 0, "HNB_KINKYU": 1, "HNB_KOIKI": 0, "HNB_TUNAMI": 0, "HNB_ELSE": 0, "KYUSUI_PNT": 0, "KOSHO": "??????????????", "SAIGAI": 1, "JISHIN": 1, "KASAI": 9, "HUSUI": 1, "TUNAMI": 1, "TAKASIO": 9, "DOSHA": 9, "SONOTA": 9, "ELSE_TXT": null, "HIGH": 2.0, "MENSEKI": 0, "NINZU_HNJ": 0, "NINZU_HNB": 0, "IRYO": 9, "KYUSUI": 9, "UPDATE": "2018-04-01T00:00:00", "size": 9 }, "geometry": { "type": "Point", "coordinates": [ 133.547237777778037, 33.558208611111013 ] } },
{ "type": "Feature", "properties": { "KYOTEN_ID": "3900037", "DAIHYO_ID": "3900037", "MEISHO": "??????", "KANA": null, "SITEI_CODE": "39201", "PREF_NAME": "???", "CITY_NAME": "???", "PNT_CODE": "39201", "JYUSHO": "?????????????", "TEL": "088-882-7468", "HNJ_SITEI": 1, "HNJ_FUKUSI": 0, "HNJ_ELSE": 0, "HNB_KINKYU": 1, "HNB_KOIKI": 0, "HNB_TUNAMI": 0, "HNB_ELSE": 0, "KYUSUI_PNT": 0, "KOSHO": "??????????????", "SAIGAI": 1, "JISHIN": 1, "KASAI": 9, "HUSUI": 1, "TUNAMI": 1, "TAKASIO": 9, "DOSHA": 9, "SONOTA": 9, "ELSE_TXT": null, "HIGH": 1.7, "MENSEKI": 0, "NINZU_HNJ": 0, "NINZU_HNB": 0, "IRYO": 9, "KYUSUI": 9, "UPDATE": "2018-04-01T00:00:00", "size": 9 }, "geometry": { "type": "Point", "coordinates": [ 133.57953527777795, 33.543961111111003 ] } },
{ "type": "Feature", "properties": { "KYOTEN_ID": "3900038", "DAIHYO_ID": "3900038", "MEISHO": "?????", "KANA": null, "SITEI_CODE": "39201", "PREF_NAME": "???", "CITY_NAME": "???", "PNT_CODE": "39201", "JYUSHO": "?????????????", "TEL": "088-882-7471", "HNJ_SITEI": 1, "HNJ_FUKUSI": 0, "HNJ_ELSE": 0, "HNB_KINKYU": 1, "HNB_KOIKI": 0, "HNB_TUNAMI": 0, "HNB_ELSE": 0, "KYUSUI_PNT": 0, "KOSHO": "??????????????", "SAIGAI": 1, "JISHIN": 1, "KASAI": 9, "HUSUI": 1, "TUNAMI": 1, "TAKASIO": 9, "DOSHA": 9, "SONOTA": 9, "ELSE_TXT": null, "HIGH": 0.3, "MENSEKI": 0, "NINZU_HNJ": 0, "NINZU_HNB": 0, "IRYO": 9, "KYUSUI": 9, "UPDATE": "2018-04-01T00:00:00", "size": 9 }, "geometry": { "type": "Point", "coordinates": [ 133.589909166666985, 33.550268333333008 ] } },
{ "type": "Feature", "properties": { "KYOTEN_ID": "3900042", "DAIHYO_ID": "3900042", "MEISHO": "?????", "KANA": null, "SITEI_CODE": "39201", "PREF_NAME": "???", "CITY_NAME": "???", "PNT_CODE": "39201", "JYUSHO": "?????????????", "TEL": "088-883-7188", "HNJ_SITEI": 1, "HNJ_FUKUSI": 0, "HNJ_ELSE": 0, "HNB_KINKYU": 1, "HNB_KOIKI": 0, "HNB_TUNAMI": 0, "HNB_ELSE": 0, "KYUSUI_PNT": 0, "KOSHO": "??????????????", "SAIGAI": 1, "JISHIN": 1, "KASAI": 9, "HUSUI": 1, "TUNAMI": 1, "TAKASIO": 9, "DOSHA": 9, "SONOTA": 9, "ELSE_TXT": null, "HIGH": 0.7, "MENSEKI": 0, "NINZU_HNJ": 0, "NINZU_HNB": 0, "IRYO": 9, "KYUSUI": 9, "UPDATE": "2018-04-01T00:00:00", "size": 9 }, "geometry": { "type": "Point", "coordinates": [ 133.55368333333297, 33.567446111110996 ] } },
{ "type": "Feature", "properties": { "KYOTEN_ID": "3900045", "DAIHYO_ID": "3900045", "MEISHO": "??????", "KANA": null, "SITEI_CODE": "39201", "PREF_NAME": "???", "CITY_NAME": "???", "PNT_CODE": "39201", "JYUSHO": "??????????????", "TEL": "088-832-0123", "HNJ_SITEI": 1, "HNJ_FUKUSI": 0, "HNJ_ELSE": 0, "HNB_KINKYU": 1, "HNB_KOIKI": 0, "HNB_TUNAMI": 0, "HNB_ELSE": 0, "KYUSUI_PNT": 0, "KOSHO": "??????????????", "SAIGAI": 1, "JISHIN": 1, "KASAI": 9, "HUSUI": 1, "TUNAMI": 1, "TAKASIO": 9, "DOSHA": 9, "SONOTA": 9, "ELSE_TXT": null, "HIGH": 1.1, "MENSEKI": 0, "NINZU_HNJ": 0, "NINZU_HNB": 0, "IRYO": 9, "KYUSUI": 9, "UPDATE": "2018-04-01T00:00:00", "size": 9 }, "geometry": { "type": "Point", "coordinates": [ 133.539164166666978, 33.541476666666995 ] } },
{ "type": "Feature", "properties": { "KYOTEN_ID": "3900046", "DAIHYO_ID": "3900046", "MEISHO": "?????", "KANA": null, "SITEI_CODE": "39201", "PREF_NAME": "???", "CITY_NAME": "???", "PNT_CODE": "39201", "JYUSHO": "???????????????", "TEL": "088-882-7472", "HNJ_SITEI": 1, "HNJ_FUKUSI": 0, "HNJ_ELSE": 0, "HNB_KINKYU": 1, "HNB_KOIKI": 0, "HNB_TUNAMI": 0, "HNB_ELSE": 0, "KYUSUI_PNT": 0, "KOSHO": "??????????????", "SAIGAI": 1, "JISHIN": 1, "KASAI": 9, "HUSUI": 1, "TUNAMI": 1, "TAKASIO": 9, "DOSHA": 9, "SONOTA": 9, "ELSE_TXT": null, "HIGH": 0.4, "MENSEKI": 0, "NINZU_HNJ": 0, "NINZU_HNB": 0, "IRYO": 9, "KYUSUI": 9, "UPDATE": "2018-04-01T00:00:00", "size": 9 }, "geometry": { "type": "Point", "coordinates": [ 133.580955116069958, 33.558555985074975 ] } },
{ "type": "Feature", "properties": { "KYOTEN_ID": "3900007", "DAIHYO_ID": "3900007", "MEISHO": "??????", "KANA": null, "SITEI_CODE": "39201", "PREF_NAME": "???", "CITY_NAME": "???", "PNT_CODE": "39201", "JYUSHO": "?????????????????", "TEL": "088-846-0160", "HNJ_SITEI": 1, "HNJ_FUKUSI": 0, "HNJ_ELSE": 0, "HNB_KINKYU": 1, "HNB_KOIKI": 0, "HNB_TUNAMI": 0, "HNB_ELSE": 0, "KYUSUI_PNT": 0, "KOSHO": "??????????????", "SAIGAI": 1, "JISHIN": 1, "KASAI": 9, "HUSUI": 1, "TUNAMI": 1, "TAKASIO": 9, "DOSHA": 9, "SONOTA": 9, "ELSE_TXT": null, "HIGH": 1.7, "MENSEKI": 0, "NINZU_HNJ": 0, "NINZU_HNB": 0, "IRYO": 9, "KYUSUI": 9, "UPDATE": "2018-04-01T00:00:00", "size": 9 }, "geometry": { "type": "Point", "coordinates": [ 133.576762777777958, 33.584196388888984 ] } },
{ "type": "Feature", "properties": { "KYOTEN_ID": "3900010", "DAIHYO_ID": "3900010", "MEISHO": "?????", "KANA": null, "SITEI_CODE": "39201", "PREF_NAME": "???", "CITY_NAME": "???", "PNT_CODE": "39201", "JYUSHO": "????????????????", "TEL": "088-845-1638", "HNJ_SITEI": 1, "HNJ_FUKUSI": 0, "HNJ_ELSE": 0, "HNB_KINKYU": 1, "HNB_KOIKI": 0, "HNB_TUNAMI": 0, "HNB_ELSE": 0, "KYUSUI_PNT": 0, "KOSHO": "??????????????", "SAIGAI": 1, "JISHIN": 1, "KASAI": 9, "HUSUI": 1, "TUNAMI": 1, "TAKASIO": 9, "DOSHA": 9, "SONOTA": 9, "ELSE_TXT": null, "HIGH": 2.4, "MENSEKI": 0, "NINZU_HNJ": 0, "NINZU_HNB": 0, "IRYO": 9, "KYUSUI": 9, "UPDATE": "2018-04-01T00:00:00", "size": 9 }, "geometry": { "type": "Point", "coordinates": [ 133.567565, 33.584674722222019 ] } },
{ "type": "Feature", "properties": { "KYOTEN_ID": "3900011", "DAIHYO_ID": "3900011", "MEISHO": "?????", "KANA": null, "SITEI_CODE": "39201", "PREF_NAME": "???", "CITY_NAME": "???", "PNT_CODE": "39201", "JYUSHO": "????????????????", "TEL": "088-845-1102", "HNJ_SITEI": 1, "HNJ_FUKUSI": 0, "HNJ_ELSE": 0, "HNB_KINKYU": 1, "HNB_KOIKI": 0, "HNB_TUNAMI": 0, "HNB_ELSE": 0, "KYUSUI_PNT": 0, "KOSHO": "??????????????", "SAIGAI": 1, "JISHIN": 1, "KASAI": 9, "HUSUI": 1, "TUNAMI": 1, "TAKASIO": 9, "DOSHA": 9, "SONOTA": 9, "ELSE_TXT": null, "HIGH": 1.7, "MENSEKI": 0, "NINZU_HNJ": 0, "NINZU_HNB": 0, "IRYO": 9, "KYUSUI": 9, "UPDATE": "2018-04-01T00:00:00", "size": 9 }, "geometry": { "type": "Point", "coordinates": [ 133.564709992740973, 33.576775021732999 ] } },
{ "type": "Feature", "properties": { "KYOTEN_ID": "3900064", "DAIHYO_ID": "3900064", "MEISHO": "??????", "KANA": null, "SITEI_CODE": "39201", "PREF_NAME": "???", "CITY_NAME": "???", "PNT_CODE": "39201", "JYUSHO": "????????????????", "TEL": "088-823-4418", "HNJ_SITEI": 1, "HNJ_FUKUSI": 0, "HNJ_ELSE": 0, "HNB_KINKYU": 1, "HNB_KOIKI": 0, "HNB_TUNAMI": 0, "HNB_ELSE": 0, "KYUSUI_PNT": 0, "KOSHO": "??????????????", "SAIGAI": 1, "JISHIN": 1, "KASAI": 9, "HUSUI": 1, "TUNAMI": 1, "TAKASIO": 9, "DOSHA": 9, "SONOTA": 9, "ELSE_TXT": null, "HIGH": 2.8, "MENSEKI": 0, "NINZU_HNJ": 0, "NINZU_HNB": 0, "IRYO": 9, "KYUSUI": 9, "UPDATE": "2018-04-01T00:00:00", "size": 9 }, "geometry": { "type": "Point", "coordinates": [ 133.524764722222017, 33.564782499999978 ] } },
{ "type": "Feature", "properties": { "KYOTEN_ID": "3900065", "DAIHYO_ID": "3900065", "MEISHO": "??????", "KANA": null, "SITEI_CODE": "39201", "PREF_NAME": "???", "CITY_NAME": "???", "PNT_CODE": "39201", "JYUSHO": "????????????????", "TEL": "088-875-8215", "HNJ_SITEI": 1, "HNJ_FUKUSI": 0, "HNJ_ELSE": 0, "HNB_KINKYU": 1, "HNB_KOIKI": 0, "HNB_TUNAMI": 0, "HNB_ELSE": 0, "KYUSUI_PNT": 0, "KOSHO": "??????????????", "SAIGAI": 1, "JISHIN": 1, "KASAI": 9, "HUSUI": 1, "TUNAMI": 1, "TAKASIO": 9, "DOSHA": 9, "SONOTA": 9, "ELSE_TXT": null, "HIGH": 1.5, "MENSEKI": 0, "NINZU_HNJ": 0, "NINZU_HNB": 0, "IRYO": 9, "KYUSUI": 9, "UPDATE": "2018-04-01T00:00:00", "size": 9 }, "geometry": { "type": "Point", "coordinates": [ 133.538189311173028, 33.568831565438018 ] } },
{ "type": "Feature", "properties": { "KYOTEN_ID": "3900068", "DAIHYO_ID": "3900068", "MEISHO": "?????", "KANA": null, "SITEI_CODE": "39201", "PREF_NAME": "???", "CITY_NAME": "???", "PNT_CODE": "39201", "JYUSHO": "?????????????", "TEL": "088-847-0271", "HNJ_SITEI": 1, "HNJ_FUKUSI": 0, "HNJ_ELSE": 0, "HNB_KINKYU": 1, "HNB_KOIKI": 0, "HNB_TUNAMI": 0, "HNB_ELSE": 0, "KYUSUI_PNT": 0, "KOSHO": "??????????????", "SAIGAI": 1, "JISHIN": 1, "KASAI": 9, "HUSUI": 1, "TUNAMI": 1, "TAKASIO": 9, "DOSHA": 9, "SONOTA": 9, "ELSE_TXT": null, "HIGH": 10.6, "MENSEKI": 0, "NINZU_HNJ": 0, "NINZU_HNB": 0, "IRYO": 9, "KYUSUI": 9, "UPDATE": "2018-04-01T00:00:00", "size": 9 }, "geometry": { "type": "Point", "coordinates": [ 133.583118579035954, 33.518870663146004 ] } },
{ "type": "Feature", "properties": { "KYOTEN_ID": "3900070", "DAIHYO_ID": "3900070", "MEISHO": "?????", "KANA": null, "SITEI_CODE": "39201", "PREF_NAME": "???", "CITY_NAME": "???", "PNT_CODE": "39201", "JYUSHO": "?????????????", "TEL": "088-847-0291", "HNJ_SITEI": 1, "HNJ_FUKUSI": 0, "HNJ_ELSE": 0, "HNB_KINKYU": 1, "HNB_KOIKI": 0, "HNB_TUNAMI": 0, "HNB_ELSE": 0, "KYUSUI_PNT": 0, "KOSHO": "??????????????", "SAIGAI": 1, "JISHIN": 1, "KASAI": 9, "HUSUI": 1, "TUNAMI": 1, "TAKASIO": 9, "DOSHA": 9, "SONOTA": 9, "ELSE_TXT": null, "HIGH": 9.5, "MENSEKI": 0, "NINZU_HNJ": 0, "NINZU_HNB": 0, "IRYO": 9, "KYUSUI": 9, "UPDATE": "2018-04-01T00:00:00", "size": 9 }, "geometry": { "type": "Point", "coordinates": [ 133.58459833333302, 33.518213888889022 ] } },
{ "type": "Feature", "properties": { "KYOTEN_ID": "3900073", "DAIHYO_ID": "3900073", "MEISHO": "?????", "KANA": null, "SITEI_CODE": "39201", "PREF_NAME": "???", "CITY_NAME": "???", "PNT_CODE": "39201", "JYUSHO": "?????????????", "TEL": "088-822-5295", "HNJ_SITEI": 1, "HNJ_FUKUSI": 0, "HNJ_ELSE": 0, "HNB_KINKYU": 1, "HNB_KOIKI": 0, "HNB_TUNAMI": 0, "HNB_ELSE": 0, "KYUSUI_PNT": 0, "KOSHO": "??????????????", "SAIGAI": 1, "JISHIN": 1, "KASAI": 9, "HUSUI": 1, "TUNAMI": 1, "TAKASIO": 9, "DOSHA": 9, "SONOTA": 9, "ELSE_TXT": null, "HIGH": 1.6, "MENSEKI": 0, "NINZU_HNJ": 0, "NINZU_HNB": 0, "IRYO": 9, "KYUSUI": 9, "UPDATE": "2018-04-01T00:00:00", "size": 9 }, "geometry": { "type": "Point", "coordinates": [ 133.535500833333003, 33.570281944443991 ] } },
{ "type": "Feature", "properties": { "KYOTEN_ID": "3900075", "DAIHYO_ID": "3900075", "MEISHO": "?????", "KANA": null, "SITEI_CODE": "39201", "PREF_NAME": "???", "CITY_NAME": "???", "PNT_CODE": "39201", "JYUSHO": "????????????", "TEL": "088-822-7728", "HNJ_SITEI": 1, "HNJ_FUKUSI": 0, "HNJ_ELSE": 0, "HNB_KINKYU": 1, "HNB_KOIKI": 0, "HNB_TUNAMI": 0, "HNB_ELSE": 0, "KYUSUI_PNT": 0, "KOSHO": "??????????????", "SAIGAI": 1, "JISHIN": 1, "KASAI": 9, "HUSUI": 1, "TUNAMI": 1, "TAKASIO": 9, "DOSHA": 9, "SONOTA": 9, "ELSE_TXT": null, "HIGH": 3.1, "MENSEKI": 0, "NINZU_HNJ": 0, "NINZU_HNB": 0, "IRYO": 9, "KYUSUI": 9, "UPDATE": "2018-04-01T00:00:00", "size": 9 }, "geometry": { "type": "Point", "coordinates": [ 133.524262499999963, 33.559841111110984 ] } },
{ "type": "Feature", "properties": { "KYOTEN_ID": "3900080", "DAIHYO_ID": "3900080", "MEISHO": "?????", "KANA": null, "SITEI_CODE": "39201", "PREF_NAME": "???", "CITY_NAME": "???", "PNT_CODE": "39201", "JYUSHO": "??????????????", "TEL": "088-866-2444", "HNJ_SITEI": 1, "HNJ_FUKUSI": 0, "HNJ_ELSE": 0, "HNB_KINKYU": 1, "HNB_KOIKI": 0, "HNB_TUNAMI": 0, "HNB_ELSE": 0, "KYUSUI_PNT": 0, "KOSHO": "??????????????", "SAIGAI": 1, "JISHIN": 1, "KASAI": 9, "HUSUI": 1, "TUNAMI": 1, "TAKASIO": 9, "DOSHA": 9, "SONOTA": 9, "ELSE_TXT": null, "HIGH": 1.6, "MENSEKI": 0, "NINZU_HNJ": 0, "NINZU_HNB": 0, "IRYO": 9, "KYUSUI": 9, "UPDATE": "2018-04-01T00:00:00", "size": 9 }, "geometry": { "type": "Point", "coordinates": [ 133.595893784392047, 33.569405794396005 ] } },
{ "type": "Feature", "properties": { "KYOTEN_ID": "3900083", "DAIHYO_ID": "3900083", "MEISHO": "?????", "KANA": null, "SITEI_CODE": "39201", "PREF_NAME": "???", "CITY_NAME": "???", "PNT_CODE": "39201", "JYUSHO": "????????????", "TEL": "088-866-2124", "HNJ_SITEI": 1, "HNJ_FUKUSI": 0, "HNJ_ELSE": 0, "HNB_KINKYU": 1, "HNB_KOIKI": 0, "HNB_TUNAMI": 0, "HNB_ELSE": 0, "KYUSUI_PNT": 0, "KOSHO": "??????????????", "SAIGAI": 1, "JISHIN": 1, "KASAI": 9, "HUSUI": 1, "TUNAMI": 1, "TAKASIO": 9, "DOSHA": 9, "SONOTA": 9, "ELSE_TXT": null, "HIGH": 2.1, "MENSEKI": 0, "NINZU_HNJ": 0, "NINZU_HNB": 0, "IRYO": 9, "KYUSUI": 9, "UPDATE": "2018-04-01T00:00:00", "size": 9 }, "geometry": { "type": "Point", "coordinates": [ 133.599620277777944, 33.572341388889015 ] } },
{ "type": "Feature", "properties": { "KYOTEN_ID": "3900094", "DAIHYO_ID": "3900094", "MEISHO": "??????", "KANA": null, "SITEI_CODE": "39201", "PREF_NAME": "???", "CITY_NAME": "???", "PNT_CODE": "39201", "JYUSHO": "????????????????", "TEL": "088-833-1208", "HNJ_SITEI": 1, "HNJ_FUKUSI": 0, "HNJ_ELSE": 0, "HNB_KINKYU": 1, "HNB_KOIKI": 0, "HNB_TUNAMI": 0, "HNB_ELSE": 0, "KYUSUI_PNT": 0, "KOSHO": "??????????????", "SAIGAI": 1, "JISHIN": 1, "KASAI": 9, "HUSUI": 1, "TUNAMI": 1, "TAKASIO": 9, "DOSHA": 9, "SONOTA": 9, "ELSE_TXT": null, "HIGH": 0.4, "MENSEKI": 0, "NINZU_HNJ": 0, "NINZU_HNB": 0, "IRYO": 9, "KYUSUI": 9, "UPDATE": "2018-04-01T00:00:00", "size": 9 }, "geometry": { "type": "Point", "coordinates": [ 133.551051612757988, 33.551183961882998 ] } },
{ "type": "Feature", "properties": { "KYOTEN_ID": "3900095", "DAIHYO_ID": "3900095", "MEISHO": "???????", "KANA": null, "SITEI_CODE": "39201", "PREF_NAME": "???", "CITY_NAME": "???", "PNT_CODE": "39201", "JYUSHO": "???????????", "TEL": "088-842-2330", "HNJ_SITEI": 1, "HNJ_FUKUSI": 0, "HNJ_ELSE": 0, "HNB_KINKYU": 1, "HNB_KOIKI": 0, "HNB_TUNAMI": 0, "HNB_ELSE": 0, "KYUSUI_PNT": 0, "KOSHO": "??????????????", "SAIGAI": 1, "JISHIN": 1, "KASAI": 9, "HUSUI": 1, "TUNAMI": 1, "TAKASIO": 9, "DOSHA": 9, "SONOTA": 9, "ELSE_TXT": null, "HIGH": 3.4, "MENSEKI": 0, "NINZU_HNJ": 0, "NINZU_HNB": 0, "IRYO": 9, "KYUSUI": 9, "UPDATE": "2018-04-01T00:00:00", "size": 9 }, "geometry": { "type": "Point", "coordinates": [ 133.554863888889031, 33.50479 ] } },
{ "type": "Feature", "properties": { "KYOTEN_ID": "3900097", "DAIHYO_ID": "3900097", "MEISHO": "?????", "KANA": null, "SITEI_CODE": "39201", "PREF_NAME": "???", "CITY_NAME": "???", "PNT_CODE": "39201", "JYUSHO": "????????????", "TEL": "088-842-3137", "HNJ_SITEI": 1, "HNJ_FUKUSI": 0, "HNJ_ELSE": 0, "HNB_KINKYU": 1, "HNB_KOIKI": 0, "HNB_TUNAMI": 0, "HNB_ELSE": 0, "KYUSUI_PNT": 0, "KOSHO": "??????????????", "SAIGAI": 1, "JISHIN": 1, "KASAI": 9, "HUSUI": 1, "TUNAMI": 1, "TAKASIO": 9, "DOSHA": 9, "SONOTA": 9, "ELSE_TXT": null, "HIGH": 3.1, "MENSEKI": 0, "NINZU_HNJ": 0, "NINZU_HNB": 0, "IRYO": 9, "KYUSUI": 9, "UPDATE": "2018-04-01T00:00:00", "size": 9 }, "geometry": { "type": "Point", "coordinates": [ 133.546814722222052, 33.500014722221977 ] } },
{ "type": "Feature", "properties": { "KYOTEN_ID": "3900098", "DAIHYO_ID": "3900098", "MEISHO": "?????", "KANA": null, "SITEI_CODE": "39201", "PREF_NAME": "???", "CITY_NAME": "???", "PNT_CODE": "39201", "JYUSHO": "????????????", "TEL": "088-842-3291", "HNJ_SITEI": 1, "HNJ_FUKUSI": 0, "HNJ_ELSE": 0, "HNB_KINKYU": 1, "HNB_KOIKI": 0, "HNB_TUNAMI": 0, "HNB_ELSE": 0, "KYUSUI_PNT": 0, "KOSHO": "??????????????", "SAIGAI": 1, "JISHIN": 1, "KASAI": 9, "HUSUI": 1, "TUNAMI": 1, "TAKASIO": 9, "DOSHA": 9, "SONOTA": 9, "ELSE_TXT": null, "HIGH": 4.6, "MENSEKI": 0, "NINZU_HNJ": 0, "NINZU_HNB": 0, "IRYO": 9, "KYUSUI": 9, "UPDATE": "2018-04-01T00:00:00", "size": 9 }, "geometry": { "type": "Point", "coordinates": [ 133.547101944443966, 33.496690833332991 ] } },
{ "type": "Feature", "properties": { "KYOTEN_ID": "3900107", "DAIHYO_ID": "3900107", "MEISHO": "?????", "KANA": null, "SITEI_CODE": "39201", "PREF_NAME": "???", "CITY_NAME": "???", "PNT_CODE": "39201", "JYUSHO": "????????????", "TEL": "088-822-2597", "HNJ_SITEI": 1, "HNJ_FUKUSI": 0, "HNJ_ELSE": 0, "HNB_KINKYU": 1, "HNB_KOIKI": 0, "HNB_TUNAMI": 0, "HNB_ELSE": 0, "KYUSUI_PNT": 0, "KOSHO": "??????????????", "SAIGAI": 1, "JISHIN": 1, "KASAI": 9, "HUSUI": 1, "TUNAMI": 1, "TAKASIO": 9, "DOSHA": 9, "SONOTA": 9, "ELSE_TXT": null, "HIGH": 6.1, "MENSEKI": 0, "NINZU_HNJ": 0, "NINZU_HNB": 0, "IRYO": 9, "KYUSUI": 9, "UPDATE": "2018-04-01T00:00:00", "size": 9 }, "geometry": { "type": "Point", "coordinates": [ 133.518677499999967, 33.574672777778005 ] } },
{ "type": "Feature", "properties": { "KYOTEN_ID": "3900110", "DAIHYO_ID": "3900110", "MEISHO": "?????????", "KANA": null, "SITEI_CODE": "39201", "PREF_NAME": "???", "CITY_NAME": "???", "PNT_CODE": "39201", "JYUSHO": "??????????????", "TEL": "088-831-6383", "HNJ_SITEI": 1, "HNJ_FUKUSI": 0, "HNJ_ELSE": 0, "HNB_KINKYU": 1, "HNB_KOIKI": 0, "HNB_TUNAMI": 0, "HNB_ELSE": 0, "KYUSUI_PNT": 0, "KOSHO": "??????????????", "SAIGAI": 1, "JISHIN": 0, "KASAI": 9, "HUSUI": 1, "TUNAMI": 1, "TAKASIO": 9, "DOSHA": 9, "SONOTA": 9, "ELSE_TXT": null, "HIGH": 4.8, "MENSEKI": 0, "NINZU_HNJ": 0, "NINZU_HNB": 0, "IRYO": 9, "KYUSUI": 9, "UPDATE": "2018-04-01T00:00:00", "size": 9 }, "geometry": { "type": "Point", "coordinates": [ 133.557801666667046, 33.547161666667023 ] } },
{ "type": "Feature", "properties": { "KYOTEN_ID": "3900111", "DAIHYO_ID": "3900111", "MEISHO": "?????", "KANA": null, "SITEI_CODE": "39201", "PREF_NAME": "???", "CITY_NAME": "???", "PNT_CODE": "39201", "JYUSHO": "??????????????", "TEL": "088-882-1101", "HNJ_SITEI": 1, "HNJ_FUKUSI": 0, "HNJ_ELSE": 0, "HNB_KINKYU": 1, "HNB_KOIKI": 0, "HNB_TUNAMI": 0, "HNB_ELSE": 0, "KYUSUI_PNT": 0, "KOSHO": "??????????????", "SAIGAI": 1, "JISHIN": 1, "KASAI": 9, "HUSUI": 1, "TUNAMI": 1, "TAKASIO": 9, "DOSHA": 9, "SONOTA": 9, "ELSE_TXT": null, "HIGH": 0.7, "MENSEKI": 0, "NINZU_HNJ": 0, "NINZU_HNB": 0, "IRYO": 9, "KYUSUI": 9, "UPDATE": "2018-04-01T00:00:00", "size": 9 }, "geometry": { "type": "Point", "coordinates": [ 133.557911944443958, 33.559758333332979 ] } },
{ "type": "Feature", "properties": { "KYOTEN_ID": "3900112", "DAIHYO_ID": "3900112", "MEISHO": "?????", "KANA": null, "SITEI_CODE": "39201", "PREF_NAME": "???", "CITY_NAME": "???", "PNT_CODE": "39201", "JYUSHO": "????????????????", "TEL": "088-822-4146", "HNJ_SITEI": 1, "HNJ_FUKUSI": 0, "HNJ_ELSE": 0, "HNB_KINKYU": 1, "HNB_KOIKI": 0, "HNB_TUNAMI": 0, "HNB_ELSE": 0, "KYUSUI_PNT": 0, "KOSHO": "??????????????", "SAIGAI": 1, "JISHIN": 1, "KASAI": 9, "HUSUI": 1, "TUNAMI": 1, "TAKASIO": 9, "DOSHA": 9, "SONOTA": 9, "ELSE_TXT": null, "HIGH": 2.3, "MENSEKI": 0, "NINZU_HNJ": 0, "NINZU_HNB": 0, "IRYO": 9, "KYUSUI": 9, "UPDATE": "2018-04-01T00:00:00", "size": 9 }, "geometry": { "type": "Point", "coordinates": [ 133.525264444444019, 33.567440277778019 ] } },
{ "type": "Feature", "properties": { "KYOTEN_ID": "3900113", "DAIHYO_ID": "3900113", "MEISHO": "?????", "KANA": null, "SITEI_CODE": "39201", "PREF_NAME": "???", "CITY_NAME": "???", "PNT_CODE": "39201", "JYUSHO": "????????????????", "TEL": "088-832-7145", "HNJ_SITEI": 1, "HNJ_FUKUSI": 0, "HNJ_ELSE": 0, "HNB_KINKYU": 1, "HNB_KOIKI": 0, "HNB_TUNAMI": 0, "HNB_ELSE": 0, "KYUSUI_PNT": 0, "KOSHO": "??????????????", "SAIGAI": 1, "JISHIN": 1, "KASAI": 9, "HUSUI": 1, "TUNAMI": 1, "TAKASIO": 9, "DOSHA": 9, "SONOTA": 9, "ELSE_TXT": null, "HIGH": 1.0, "MENSEKI": 0, "NINZU_HNJ": 0, "NINZU_HNB": 0, "IRYO": 9, "KYUSUI": 9, "UPDATE": "2018-04-01T00:00:00", "size": 9 }, "geometry": { "type": "Point", "coordinates": [ 133.54272555555599, 33.549109444444014 ] } },
{ "type": "Feature", "properties": { "KYOTEN_ID": "3900116", "DAIHYO_ID": "3900116", "MEISHO": "??????", "KANA": null, "SITEI_CODE": "39201", "PREF_NAME": "???", "CITY_NAME": "???", "PNT_CODE": "39201", "JYUSHO": "???????????????", "TEL": "088-845-1306", "HNJ_SITEI": 1, "HNJ_FUKUSI": 0, "HNJ_ELSE": 0, "HNB_KINKYU": 1, "HNB_KOIKI": 0, "HNB_TUNAMI": 0, "HNB_ELSE": 0, "KYUSUI_PNT": 0, "KOSHO": "??????????????", "SAIGAI": 1, "JISHIN": 1, "KASAI": 9, "HUSUI": 1, "TUNAMI": 1, "TAKASIO": 9, "DOSHA": 9, "SONOTA": 9, "ELSE_TXT": null, "HIGH": 3.2, "MENSEKI": 0, "NINZU_HNJ": 0, "NINZU_HNB": 0, "IRYO": 9, "KYUSUI": 9, "UPDATE": "2018-04-01T00:00:00", "size": 9 }, "geometry": { "type": "Point", "coordinates": [ 133.591708055555955, 33.582890277778006 ] } },
{ "type": "Feature", "properties": { "KYOTEN_ID": "3900681", "DAIHYO_ID": "3900681", "MEISHO": "??????", "KANA": null, "SITEI_CODE": "39201", "PREF_NAME": "???", "CITY_NAME": "???", "PNT_CODE": "39201", "JYUSHO": "????????????????", "TEL": "088-841-2089", "HNJ_SITEI": 1, "HNJ_FUKUSI": 0, "HNJ_ELSE": 0, "HNB_KINKYU": 1, "HNB_KOIKI": 0, "HNB_TUNAMI": 0, "HNB_ELSE": 0, "KYUSUI_PNT": 0, "KOSHO": "??????????????", "SAIGAI": 1, "JISHIN": 1, "KASAI": 9, "HUSUI": 0, "TUNAMI": 1, "TAKASIO": 9, "DOSHA": 9, "SONOTA": 9, "ELSE_TXT": null, "HIGH": 3.4, "MENSEKI": 0, "NINZU_HNJ": 0, "NINZU_HNB": 0, "IRYO": 9, "KYUSUI": 9, "UPDATE": "2018-04-01T00:00:00", "size": 9 }, "geometry": { "type": "Point", "coordinates": [ 133.513992499999972, 33.495039722221975 ] } },
{ "type": "Feature", "properties": { "KYOTEN_ID": "3901331", "DAIHYO_ID": "3901331", "MEISHO": "?????????", "KANA": null, "SITEI_CODE": "39201", "PREF_NAME": "???", "CITY_NAME": "???", "PNT_CODE": "39201", "JYUSHO": "?????????????", "TEL": "088-882-4538", "HNJ_SITEI": 1, "HNJ_FUKUSI": 0, "HNJ_ELSE": 0, "HNB_KINKYU": 1, "HNB_KOIKI": 0, "HNB_TUNAMI": 0, "HNB_ELSE": 0, "KYUSUI_PNT": 0, "KOSHO": "??????????????", "SAIGAI": 1, "JISHIN": 0, "KASAI": 9, "HUSUI": 1, "TUNAMI": 1, "TAKASIO": 9, "DOSHA": 9, "SONOTA": 9, "ELSE_TXT": null, "HIGH": 2.4, "MENSEKI": 0, "NINZU_HNJ": 0, "NINZU_HNB": 0, "IRYO": 9, "KYUSUI": 9, "UPDATE": "2018-04-01T00:00:00", "size": 9 }, "geometry": { "type": "Point", "coordinates": [ 133.567524444443961, 33.560711944443995 ] } },
{ "type": "Feature", "properties": { "KYOTEN_ID": "3901348", "DAIHYO_ID": "3901348", "MEISHO": "????", "KANA": null, "SITEI_CODE": "39201", "PREF_NAME": "???", "CITY_NAME": "???", "PNT_CODE": "39201", "JYUSHO": "???????????????", "TEL": null, "HNJ_SITEI": 0, "HNJ_FUKUSI": 0, "HNJ_ELSE": 0, "HNB_KINKYU": 1, "HNB_KOIKI": 0, "HNB_TUNAMI": 0, "HNB_ELSE": 0, "KYUSUI_PNT": 0, "KOSHO": "????????", "SAIGAI": 1, "JISHIN": 1, "KASAI": 1, "HUSUI": 9, "TUNAMI": 1, "TAKASIO": 9, "DOSHA": 9, "SONOTA": 9, "ELSE_TXT": null, "HIGH": 40.0, "MENSEKI": 101000, "NINZU_HNJ": 0, "NINZU_HNB": 0, "IRYO": 9, "KYUSUI": 9, "UPDATE": "2018-04-01T00:00:00", "size": 9 }, "geometry": { "type": "Point", "coordinates": [ 133.531250277777986, 33.561269166666989 ] } },
{ "type": "Feature", "properties": { "KYOTEN_ID": "3901355", "DAIHYO_ID": "3901355", "MEISHO": "????", "KANA": null, "SITEI_CODE": "39201", "PREF_NAME": "???", "CITY_NAME": "???", "PNT_CODE": "39201", "JYUSHO": "??????????????", "TEL": null, "HNJ_SITEI": 0, "HNJ_FUKUSI": 0, "HNJ_ELSE": 0, "HNB_KINKYU": 1, "HNB_KOIKI": 0, "HNB_TUNAMI": 0, "HNB_ELSE": 0, "KYUSUI_PNT": 0, "KOSHO": "????????", "SAIGAI": 1, "JISHIN": 1, "KASAI": 1, "HUSUI": 9, "TUNAMI": 1, "TAKASIO": 9, "DOSHA": 9, "SONOTA": 9, "ELSE_TXT": null, "HIGH": 85.6, "MENSEKI": 316500, "NINZU_HNJ": 0, "NINZU_HNB": 0, "IRYO": 9, "KYUSUI": 9, "UPDATE": "2018-04-01T00:00:00", "size": 9 }, "geometry": { "type": "Point", "coordinates": [ 133.536472499999945, 33.550965 ] } },
{ "type": "Feature", "properties": { "KYOTEN_ID": "3901361", "DAIHYO_ID": "3901361", "MEISHO": "?????", "KANA": null, "SITEI_CODE": "39201", "PREF_NAME": "???", "CITY_NAME": "???", "PNT_CODE": "39201", "JYUSHO": "?????????", "TEL": null, "HNJ_SITEI": 0, "HNJ_FUKUSI": 0, "HNJ_ELSE": 0, "HNB_KINKYU": 1, "HNB_KOIKI": 0, "HNB_TUNAMI": 0, "HNB_ELSE": 0, "KYUSUI_PNT": 0, "KOSHO": "????????", "SAIGAI": 1, "JISHIN": 1, "KASAI": 1, "HUSUI": 9, "TUNAMI": 1, "TAKASIO": 9, "DOSHA": 9, "SONOTA": 9, "ELSE_TXT": null, "HIGH": 121.2, "MENSEKI": 195000, "NINZU_HNJ": 0, "NINZU_HNB": 0, "IRYO": 9, "KYUSUI": 9, "UPDATE": "2018-04-01T00:00:00", "size": 9 }, "geometry": { "type": "Point", "coordinates": [ 133.574330277778017, 33.547216111111027 ] } },
{ "type": "Feature", "properties": { "KYOTEN_ID": "3901364", "DAIHYO_ID": "3901364", "MEISHO": "????", "KANA": null, "SITEI_CODE": "39201", "PREF_NAME": "???", "CITY_NAME": "???", "PNT_CODE": "39201", "JYUSHO": "??????????????", "TEL": null, "HNJ_SITEI": 0, "HNJ_FUKUSI": 0, "HNJ_ELSE": 0, "HNB_KINKYU": 1, "HNB_KOIKI": 0, "HNB_TUNAMI": 0, "HNB_ELSE": 0, "KYUSUI_PNT": 0, "KOSHO": "????????", "SAIGAI": 1, "JISHIN": 1, "KASAI": 1, "HUSUI": 9, "TUNAMI": 1, "TAKASIO": 9, "DOSHA": 9, "SONOTA": 9, "ELSE_TXT": null, "HIGH": 18.7, "MENSEKI": 26386, "NINZU_HNJ": 0, "NINZU_HNB": 0, "IRYO": 9, "KYUSUI": 9, "UPDATE": "2018-04-01T00:00:00", "size": 9 }, "geometry": { "type": "Point", "coordinates": [ 133.540001111110996, 33.514246944443983 ] } },
{ "type": "Feature", "properties": { "KYOTEN_ID": "3901726", "DAIHYO_ID": "3901726", "MEISHO": "???????", "KANA": null, "SITEI_CODE": "39201", "PREF_NAME": "???", "CITY_NAME": "???", "PNT_CODE": "39201", "JYUSHO": "????????????????", "TEL": null, "HNJ_SITEI": 1, "HNJ_FUKUSI": 0, "HNJ_ELSE": 0, "HNB_KINKYU": 1, "HNB_KOIKI": 0, "HNB_TUNAMI": 0, "HNB_ELSE": 0, "KYUSUI_PNT": 0, "KOSHO": "??????????????", "SAIGAI": 1, "JISHIN": 1, "KASAI": 9, "HUSUI": 1, "TUNAMI": 1, "TAKASIO": 9, "DOSHA": 9, "SONOTA": 9, "ELSE_TXT": null, "HIGH": 1.2, "MENSEKI": 0, "NINZU_HNJ": 0, "NINZU_HNB": 0, "IRYO": 9, "KYUSUI": 9, "UPDATE": "2018-04-01T00:00:00", "size": 9 }, "geometry": { "type": "Point", "coordinates": [ 133.547138055556047, 33.5499375 ] } },
{ "type": "Feature", "properties": { "KYOTEN_ID": "3901781", "DAIHYO_ID": "3901781", "MEISHO": "?????????????", "KANA": null, "SITEI_CODE": "39201", "PREF_NAME": "???", "CITY_NAME": "???", "PNT_CODE": "39201", "JYUSHO": "????????????????", "TEL": "088-820-1022", "HNJ_SITEI": 1, "HNJ_FUKUSI": 0, "HNJ_ELSE": 0, "HNB_KINKYU": 1, "HNB_KOIKI": 0, "HNB_TUNAMI": 0, "HNB_ELSE": 0, "KYUSUI_PNT": 0, "KOSHO": "??????????????", "SAIGAI": 1, "JISHIN": 1, "KASAI": 9, "HUSUI": 1, "TUNAMI": 1, "TAKASIO": 9, "DOSHA": 9, "SONOTA": 9, "ELSE_TXT": null, "HIGH": 1.3, "MENSEKI": 0, "NINZU_HNJ": 0, "NINZU_HNB": 0, "IRYO": 9, "KYUSUI": 9, "UPDATE": "2018-04-01T00:00:00", "size": 9 }, "geometry": { "type": "Point", "coordinates": [ 133.536019166666961, 33.566232222222027 ] } },
{ "type": "Feature", "properties": { "KYOTEN_ID": "3901782", "DAIHYO_ID": "3901782", "MEISHO": "????????????", "KANA": null, "SITEI_CODE": "39201", "PREF_NAME": "???", "CITY_NAME": "???", "PNT_CODE": "39201", "JYUSHO": "?????????????", "TEL": null, "HNJ_SITEI": 1, "HNJ_FUKUSI": 0, "HNJ_ELSE": 0, "HNB_KINKYU": 1, "HNB_KOIKI": 0, "HNB_TUNAMI": 0, "HNB_ELSE": 0, "KYUSUI_PNT": 0, "KOSHO": "??????????????", "SAIGAI": 1, "JISHIN": 1, "KASAI": 9, "HUSUI": 1, "TUNAMI": 1, "TAKASIO": 9, "DOSHA": 9, "SONOTA": 9, "ELSE_TXT": null, "HIGH": 4.0, "MENSEKI": 0, "NINZU_HNJ": 0, "NINZU_HNB": 0, "IRYO": 9, "KYUSUI": 9, "UPDATE": "2018-04-01T00:00:00", "size": 9 }, "geometry": { "type": "Point", "coordinates": [ 133.567831944444038, 33.506887222222019 ] } },
{ "type": "Feature", "properties": { "KYOTEN_ID": "3902506", "DAIHYO_ID": "3902506", "MEISHO": "????????", "KANA": null, "SITEI_CODE": "39201", "PREF_NAME": "???", "CITY_NAME": "???", "PNT_CODE": "39201", "JYUSHO": "??????????????????", "TEL": null, "HNJ_SITEI": 1, "HNJ_FUKUSI": 0, "HNJ_ELSE": 0, "HNB_KINKYU": 1, "HNB_KOIKI": 0, "HNB_TUNAMI": 0, "HNB_ELSE": 0, "KYUSUI_PNT": 0, "KOSHO": "??????????????", "SAIGAI": 1, "JISHIN": 1, "KASAI": 9, "HUSUI": 1, "TUNAMI": 1, "TAKASIO": 9, "DOSHA": 9, "SONOTA": 9, "ELSE_TXT": null, "HIGH": 2.1, "MENSEKI": 0, "NINZU_HNJ": 0, "NINZU_HNB": 0, "IRYO": 9, "KYUSUI": 9, "UPDATE": "2018-04-01T00:00:00", "size": 9 }, "geometry": { "type": "Point", "coordinates": [ 133.546504699203979, 33.561705461922998 ] } },
{ "type": "Feature", "properties": { "KYOTEN_ID": "3902511", "DAIHYO_ID": "3902511", "MEISHO": "????????????", "KANA": null, "SITEI_CODE": "39201", "PREF_NAME": "???", "CITY_NAME": "???", "PNT_CODE": "39201", "JYUSHO": "?????????????", "TEL": null, "HNJ_SITEI": 1, "HNJ_FUKUSI": 0, "HNJ_ELSE": 0, "HNB_KINKYU": 1, "HNB_KOIKI": 0, "HNB_TUNAMI": 0, "HNB_ELSE": 0, "KYUSUI_PNT": 0, "KOSHO": "??????????????", "SAIGAI": 1, "JISHIN": 1, "KASAI": 9, "HUSUI": 1, "TUNAMI": 1, "TAKASIO": 9, "DOSHA": 9, "SONOTA": 9, "ELSE_TXT": null, "HIGH": 0.2, "MENSEKI": 0, "NINZU_HNJ": 0, "NINZU_HNB": 0, "IRYO": 9, "KYUSUI": 9, "UPDATE": "2018-04-01T00:00:00", "size": 9 }, "geometry": { "type": "Point", "coordinates": [ 133.556948466375047, 33.556754391740981 ] } },
{ "type": "Feature", "properties": { "KYOTEN_ID": "3902512", "DAIHYO_ID": "3902512", "MEISHO": "??????????", "KANA": null, "SITEI_CODE": "39201", "PREF_NAME": "???", "CITY_NAME": "???", "PNT_CODE": "39201", "JYUSHO": "????????????????", "TEL": null, "HNJ_SITEI": 1, "HNJ_FUKUSI": 0, "HNJ_ELSE": 0, "HNB_KINKYU": 1, "HNB_KOIKI": 0, "HNB_TUNAMI": 0, "HNB_ELSE": 0, "KYUSUI_PNT": 0, "KOSHO": "??????????????", "SAIGAI": 1, "JISHIN": 1, "KASAI": 9, "HUSUI": 1, "TUNAMI": 1, "TAKASIO": 9, "DOSHA": 9, "SONOTA": 9, "ELSE_TXT": null, "HIGH": 1.8, "MENSEKI": 0, "NINZU_HNJ": 0, "NINZU_HNB": 0, "IRYO": 9, "KYUSUI": 9, "UPDATE": "2018-04-01T00:00:00", "size": 9 }, "geometry": { "type": "Point", "coordinates": [ 133.567982839374054, 33.509237861252018 ] } },
{ "type": "Feature", "properties": { "KYOTEN_ID": "3902513", "DAIHYO_ID": "3902513", "MEISHO": "????????????", "KANA": null, "SITEI_CODE": "39201", "PREF_NAME": "???", "CITY_NAME": "???", "PNT_CODE": "39201", "JYUSHO": "?????????????", "TEL": null, "HNJ_SITEI": 1, "HNJ_FUKUSI": 0, "HNJ_ELSE": 0, "HNB_KINKYU": 1, "HNB_KOIKI": 0, "HNB_TUNAMI": 0, "HNB_ELSE": 0, "KYUSUI_PNT": 0, "KOSHO": "??????????????", "SAIGAI": 1, "JISHIN": 1, "KASAI": 9, "HUSUI": 1, "TUNAMI": 1, "TAKASIO": 9, "DOSHA": 9, "SONOTA": 9, "ELSE_TXT": null, "HIGH": 2.5, "MENSEKI": 0, "NINZU_HNJ": 0, "NINZU_HNB": 0, "IRYO": 9, "KYUSUI": 9, "UPDATE": "2018-04-01T00:00:00", "size": 9 }, "geometry": { "type": "Point", "coordinates": [ 133.565372246996048, 33.502713975135009 ] } },
{ "type": "Feature", "properties": { "KYOTEN_ID": "3904463", "DAIHYO_ID": "3904463", "MEISHO": "???????????", "KANA": null, "SITEI_CODE": "39201", "PREF_NAME": "???", "CITY_NAME": "???", "PNT_CODE": "39201", "JYUSHO": "?????????????", "TEL": null, "HNJ_SITEI": 0, "HNJ_FUKUSI": 0, "HNJ_ELSE": 0, "HNB_KINKYU": 1, "HNB_KOIKI": 0, "HNB_TUNAMI": 0, "HNB_ELSE": 0, "KYUSUI_PNT": 0, "KOSHO": "????????", "SAIGAI": 1, "JISHIN": 1, "KASAI": 9, "HUSUI": 1, "TUNAMI": 1, "TAKASIO": 9, "DOSHA": 9, "SONOTA": 9, "ELSE_TXT": null, "HIGH": 7.6, "MENSEKI": 0, "NINZU_HNJ": 0, "NINZU_HNB": 0, "IRYO": 9, "KYUSUI": 9, "UPDATE": "2018-04-01T00:00:00", "size": 9 }, "geometry": { "type": "Point", "coordinates": [ 133.572646595271976, 33.509042776825027 ] } },
{ "type": "Feature", "properties": { "KYOTEN_ID": "3904464", "DAIHYO_ID": "3904464", "MEISHO": "?????????", "KANA": null, "SITEI_CODE": "39201", "PREF_NAME": "???", "CITY_NAME": "???", "PNT_CODE": "39201", "JYUSHO": "???????????????", "TEL": null, "HNJ_SITEI": 0, "HNJ_FUKUSI": 0, "HNJ_ELSE": 0, "HNB_KINKYU": 1, "HNB_KOIKI": 0, "HNB_TUNAMI": 0, "HNB_ELSE": 0, "KYUSUI_PNT": 0, "KOSHO": "????????", "SAIGAI": 1, "JISHIN": 1, "KASAI": 9, "HUSUI": 1, "TUNAMI": 1, "TAKASIO": 9, "DOSHA": 9, "SONOTA": 9, "ELSE_TXT": null, "HIGH": 3.8, "MENSEKI": 0, "NINZU_HNJ": 0, "NINZU_HNB": 0, "IRYO": 9, "KYUSUI": 9, "UPDATE": "2018-04-01T00:00:00", "size": 9 }, "geometry": { "type": "Point", "coordinates": [ 133.572331878656996, 33.515690709142007 ] } },
{ "type": "Feature", "properties": { "KYOTEN_ID": "3904465", "DAIHYO_ID": "3904465", "MEISHO": "??????????", "KANA": null, "SITEI_CODE": "39201", "PREF_NAME": "???", "CITY_NAME": "???", "PNT_CODE": "39201", "JYUSHO": "????????????????", "TEL": null, "HNJ_SITEI": 0, "HNJ_FUKUSI": 0, "HNJ_ELSE": 0, "HNB_KINKYU": 1, "HNB_KOIKI": 0, "HNB_TUNAMI": 0, "HNB_ELSE": 0, "KYUSUI_PNT": 0, "KOSHO": "????????", "SAIGAI": 1, "JISHIN": 1, "KASAI": 9, "HUSUI": 1, "TUNAMI": 1, "TAKASIO": 9, "DOSHA": 9, "SONOTA": 9, "ELSE_TXT": null, "HIGH": 11.2, "MENSEKI": 0, "NINZU_HNJ": 0, "NINZU_HNB": 0, "IRYO": 9, "KYUSUI": 9, "UPDATE": "2018-04-01T00:00:00", "size": 9 }, "geometry": { "type": "Point", "coordinates": [ 133.580121943341965, 33.515450188732018 ] } },
{ "type": "Feature", "properties": { "KYOTEN_ID": "3904466", "DAIHYO_ID": "3904466", "MEISHO": "?????????", "KANA": null, "SITEI_CODE": "39201", "PREF_NAME": "???", "CITY_NAME": "???", "PNT_CODE": "39201", "JYUSHO": "?????????????????", "TEL": null, "HNJ_SITEI": 0, "HNJ_FUKUSI": 0, "HNJ_ELSE": 0, "HNB_KINKYU": 1, "HNB_KOIKI": 0, "HNB_TUNAMI": 0, "HNB_ELSE": 0, "KYUSUI_PNT": 0, "KOSHO": "????????", "SAIGAI": 1, "JISHIN": 1, "KASAI": 9, "HUSUI": 1, "TUNAMI": 1, "TAKASIO": 9, "DOSHA": 9, "SONOTA": 9, "ELSE_TXT": null, "HIGH": 10.3, "MENSEKI": 0, "NINZU_HNJ": 0, "NINZU_HNB": 0, "IRYO": 9, "KYUSUI": 9, "UPDATE": "2018-04-01T00:00:00", "size": 9 }, "geometry": { "type": "Point", "coordinates": [ 133.595493150221955, 33.521154371887008 ] } },
{ "type": "Feature", "properties": { "KYOTEN_ID": "3904467", "DAIHYO_ID": "3904467", "MEISHO": "???????????", "KANA": null, "SITEI_CODE": "39201", "PREF_NAME": "???", "CITY_NAME": "???", "PNT_CODE": "39201", "JYUSHO": "?????????????", "TEL": null, "HNJ_SITEI": 0, "HNJ_FUKUSI": 0, "HNJ_ELSE": 0, "HNB_KINKYU": 1, "HNB_KOIKI": 0, "HNB_TUNAMI": 0, "HNB_ELSE": 0, "KYUSUI_PNT": 0, "KOSHO": "????????", "SAIGAI": 1, "JISHIN": 1, "KASAI": 9, "HUSUI": 1, "TUNAMI": 1, "TAKASIO": 9, "DOSHA": 9, "SONOTA": 9, "ELSE_TXT": null, "HIGH": 7.8, "MENSEKI": 0, "NINZU_HNJ": 0, "NINZU_HNB": 0, "IRYO": 9, "KYUSUI": 9, "UPDATE": "2018-04-01T00:00:00", "size": 9 }, "geometry": { "type": "Point", "coordinates": [ 133.540016989171022, 33.48990734012699 ] } },
{ "type": "Feature", "properties": { "KYOTEN_ID": "3904468", "DAIHYO_ID": "3904468", "MEISHO": "??????????", "KANA": null, "SITEI_CODE": "39201", "PREF_NAME": "???", "CITY_NAME": "???", "PNT_CODE": "39201", "JYUSHO": "????????????????", "TEL": null, "HNJ_SITEI": 0, "HNJ_FUKUSI": 0, "HNJ_ELSE": 0, "HNB_KINKYU": 1, "HNB_KOIKI": 0, "HNB_TUNAMI": 0, "HNB_ELSE": 0, "KYUSUI_PNT": 0, "KOSHO": "????????", "SAIGAI": 1, "JISHIN": 1, "KASAI": 9, "HUSUI": 1, "TUNAMI": 1, "TAKASIO": 9, "DOSHA": 9, "SONOTA": 9, "ELSE_TXT": null, "HIGH": 3.8, "MENSEKI": 0, "NINZU_HNJ": 0, "NINZU_HNB": 0, "IRYO": 9, "KYUSUI": 9, "UPDATE": "2018-04-01T00:00:00", "size": 9 }, "geometry": { "type": "Point", "coordinates": [ 133.51587847340204, 33.477296283138003 ] } },
{ "type": "Feature", "properties": { "KYOTEN_ID": "3904469", "DAIHYO_ID": "3904469", "MEISHO": "??????????", "KANA": null, "SITEI_CODE": "39201", "PREF_NAME": "???", "CITY_NAME": "???", "PNT_CODE": "39201", "JYUSHO": "???????????????????????", "TEL": null, "HNJ_SITEI": 0, "HNJ_FUKUSI": 0, "HNJ_ELSE": 0, "HNB_KINKYU": 1, "HNB_KOIKI": 0, "HNB_TUNAMI": 0, "HNB_ELSE": 0, "KYUSUI_PNT": 0, "KOSHO": "????????", "SAIGAI": 1, "JISHIN": 1, "KASAI": 9, "HUSUI": 1, "TUNAMI": 1, "TAKASIO": 9, "DOSHA": 9, "SONOTA": 9, "ELSE_TXT": null, "HIGH": 3.8, "MENSEKI": 0, "NINZU_HNJ": 0, "NINZU_HNB": 0, "IRYO": 9, "KYUSUI": 9, "UPDATE": "2018-04-01T00:00:00", "size": 9 }, "geometry": { "type": "Point", "coordinates": [ 133.518442179446993, 33.478328196935024 ] } },
{ "type": "Feature", "properties": { "KYOTEN_ID": "3904470", "DAIHYO_ID": "3904470", "MEISHO": "??????????", "KANA": null, "SITEI_CODE": "39201", "PREF_NAME": "???", "CITY_NAME": "???", "PNT_CODE": "39201", "JYUSHO": "??????????????????", "TEL": null, "HNJ_SITEI": 0, "HNJ_FUKUSI": 0, "HNJ_ELSE": 0, "HNB_KINKYU": 1, "HNB_KOIKI": 0, "HNB_TUNAMI": 0, "HNB_ELSE": 0, "KYUSUI_PNT": 0, "KOSHO": "????????", "SAIGAI": 1, "JISHIN": 1, "KASAI": 9, "HUSUI": 1, "TUNAMI": 1, "TAKASIO": 9, "DOSHA": 9, "SONOTA": 9, "ELSE_TXT": null, "HIGH": 2.4, "MENSEKI": 0, "NINZU_HNJ": 0, "NINZU_HNB": 0, "IRYO": 9, "KYUSUI": 9, "UPDATE": "2018-04-01T00:00:00", "size": 9 }, "geometry": { "type": "Point", "coordinates": [ 133.525782426587966, 33.483037086843012 ] } },
{ "type": "Feature", "properties": { "KYOTEN_ID": "3904471", "DAIHYO_ID": "3904471", "MEISHO": "??????????", "KANA": null, "SITEI_CODE": "39201", "PREF_NAME": "???", "CITY_NAME": "???", "PNT_CODE": "39201", "JYUSHO": "????????????????????", "TEL": null, "HNJ_SITEI": 0, "HNJ_FUKUSI": 0, "HNJ_ELSE": 0, "HNB_KINKYU": 1, "HNB_KOIKI": 0, "HNB_TUNAMI": 0, "HNB_ELSE": 0, "KYUSUI_PNT": 0, "KOSHO": "????????", "SAIGAI": 1, "JISHIN": 1, "KASAI": 9, "HUSUI": 1, "TUNAMI": 1, "TAKASIO": 9, "DOSHA": 9, "SONOTA": 9, "ELSE_TXT": null, "HIGH": 6.3, "MENSEKI": 0, "NINZU_HNJ": 0, "NINZU_HNB": 0, "IRYO": 9, "KYUSUI": 9, "UPDATE": "2018-04-01T00:00:00", "size": 9 }, "geometry": { "type": "Point", "coordinates": [ 133.531421153172005, 33.483558054324988 ] } }
]
}
